{
"type": "FeatureCollection",
"name": "output_zupanija_20",
"crs": { "type": "name", "properties": { "name": "urn:ogc:def:crs:EPSG::3765" } },
"features": [
{ "type": "Feature", "properties": { "population": 144, "longitude": 16.229597554300504, "latitude": 43.852912391331799, "BM": 1 }, "geometry": { "type": "Polygon", "coordinates": [ [ [ 16.20587324332022, 43.871949407530238 ], [ 16.223009673592593, 43.869761874876467 ], [ 16.259916571947805, 43.850744063075766 ], [ 16.246529172285577, 43.832032922990045 ], [ 16.203530165298904, 43.8514418487729 ], [ 16.20587324332022, 43.871949407530238 ] ] ] } },
{ "type": "Feature", "properties": { "population": 58, "longitude": 16.228626027699164, "latitude": 43.895175894901406, "BM": 2 }, "geometry": { "type": "Polygon", "coordinates": [ [ [ 16.19440093995939, 43.907816213328402 ], [ 16.224488307903783, 43.917015409328506 ], [ 16.267275477366507, 43.906257829620714 ], [ 16.270337587543892, 43.896708512587736 ], [ 16.223009673592593, 43.869761874876467 ], [ 16.20587324332022, 43.871949407530238 ], [ 16.19440093995939, 43.907816213328402 ] ] ] } },
{ "type": "Feature", "properties": { "population": 165, "longitude": 16.394432195370353, "latitude": 43.857611325921127, "BM": 3 }, "geometry": { "type": "Polygon", "coordinates": [ [ [ 16.355992574805342, 43.904832651111199 ], [ 16.398679009707077, 43.897739349353998 ], [ 16.432451832008393, 43.873598145262008 ], [ 16.444050414239193, 43.828110976724474 ], [ 16.441371651750231, 43.823345361962247 ], [ 16.408286767446434, 43.81371177726556 ], [ 16.401285189898449, 43.813321173782299 ], [ 16.378448204758151, 43.818903763141478 ], [ 16.346991601827725, 43.863978811251016 ], [ 16.355992574805342, 43.904832651111199 ] ] ] } },
{ "type": "Feature", "properties": { "population": 212, "longitude": 16.184713693961271, "latitude": 43.873455514633342, "BM": 4 }, "geometry": { "type": "Polygon", "coordinates": [ [ [ 16.179196562111361, 43.912816336605623 ], [ 16.19440093995939, 43.907816213328402 ], [ 16.20587324332022, 43.871949407530238 ], [ 16.203530165298904, 43.8514418487729 ], [ 16.183314736940524, 43.831390259735443 ], [ 16.170298556390446, 43.845122031164294 ], [ 16.167628518680608, 43.865932302873027 ], [ 16.16535929501601, 43.898221673287175 ], [ 16.179196562111361, 43.912816336605623 ] ] ] } },
{ "type": "Feature", "properties": { "population": 377, "longitude": 16.262177737507891, "latitude": 43.817861163876245, "BM": 5 }, "geometry": { "type": "Polygon", "coordinates": [ [ [ 16.246529172285577, 43.832032922990045 ], [ 16.259916571947805, 43.850744063075766 ], [ 16.274028135376433, 43.862636083787997 ], [ 16.27943977792421, 43.789061402594349 ], [ 16.243048330355041, 43.786557027789343 ], [ 16.246529172285577, 43.832032922990045 ] ] ] } },
{ "type": "Feature", "properties": { "population": 124, "longitude": 16.25712362712931, "latitude": 43.872391733109644, "BM": 6 }, "geometry": { "type": "Polygon", "coordinates": [ [ [ 16.223009673592593, 43.869761874876467 ], [ 16.270337587543892, 43.896708512587736 ], [ 16.282308681345175, 43.869659422990679 ], [ 16.274028135376433, 43.862636083787997 ], [ 16.259916571947805, 43.850744063075766 ], [ 16.223009673592593, 43.869761874876467 ] ] ] } },
{ "type": "Feature", "properties": { "population": 47, "longitude": 16.270590859177929, "latitude": 43.761021064831269, "BM": 7 }, "geometry": { "type": "Polygon", "coordinates": [ [ [ 16.243048330355041, 43.786557027789343 ], [ 16.27943977792421, 43.789061402594349 ], [ 16.286578870974452, 43.789526838699622 ], [ 16.306251878241007, 43.755044399811553 ], [ 16.282057206012585, 43.728135939043341 ], [ 16.251420342562426, 43.736661876495994 ], [ 16.238369130890462, 43.765996217069379 ], [ 16.241364511948493, 43.785045256792849 ], [ 16.243048330355041, 43.786557027789343 ] ] ] } },
{ "type": "Feature", "properties": { "population": 40, "longitude": 16.408237445416045, "latitude": 43.608912976141767, "BM": 8 }, "geometry": { "type": "Polygon", "coordinates": [ [ [ 16.365352047481938, 43.605528601028531 ], [ 16.380459505200406, 43.62803440137764 ], [ 16.421683823245381, 43.650659836405104 ], [ 16.442453231634445, 43.621730428672606 ], [ 16.438803953888609, 43.581875864066561 ], [ 16.433541402814473, 43.580018915825917 ], [ 16.418214814763857, 43.575702803386378 ], [ 16.390528508203502, 43.578511929507805 ], [ 16.384331080118539, 43.581110332381662 ], [ 16.365352047481938, 43.605528601028531 ] ] ] } },
{ "type": "Feature", "properties": { "population": 101, "longitude": 16.206519324650831, "latitude": 43.772314902856998, "BM": 9 }, "geometry": { "type": "Polygon", "coordinates": [ [ [ 16.16203294774354, 43.764612214255678 ], [ 16.206362721542163, 43.797642889482717 ], [ 16.241364511948493, 43.785045256792849 ], [ 16.238369130890462, 43.765996217069379 ], [ 16.207448699414183, 43.748200148329886 ], [ 16.16203294774354, 43.764612214255678 ] ] ] } },
{ "type": "Feature", "properties": { "population": 100, "longitude": 16.464449983666039, "latitude": 43.597755169213443, "BM": 10 }, "geometry": { "type": "Polygon", "coordinates": [ [ [ 16.438803953888609, 43.581875864066561 ], [ 16.442453231634445, 43.621730428672606 ], [ 16.490430799025958, 43.623175326614962 ], [ 16.484615070051706, 43.575561603552806 ], [ 16.474361977914729, 43.569777033523472 ], [ 16.471695436820152, 43.568960582808195 ], [ 16.446771705650789, 43.57444741985811 ], [ 16.438803953888609, 43.581875864066561 ] ] ] } },
{ "type": "Feature", "properties": { "population": 261, "longitude": 16.326074861417702, "latitude": 43.782261193308635, "BM": 11 }, "geometry": { "type": "Polygon", "coordinates": [ [ [ 16.294448521930427, 43.796526128401197 ], [ 16.370549799542815, 43.813168176143243 ], [ 16.33265275327674, 43.74873652902631 ], [ 16.306251878241007, 43.755044399811553 ], [ 16.286578870974452, 43.789526838699622 ], [ 16.294448521930427, 43.796526128401197 ] ] ] } },
{ "type": "Feature", "properties": { "population": 18, "longitude": 16.315563517991347, "latitude": 43.724451982124336, "BM": 12 }, "geometry": { "type": "Polygon", "coordinates": [ [ [ 16.306251878241007, 43.755044399811553 ], [ 16.33265275327674, 43.74873652902631 ], [ 16.343650474841343, 43.718547108924412 ], [ 16.342003620645347, 43.698600321194917 ], [ 16.340365666007479, 43.696997799062828 ], [ 16.297887746628472, 43.702139020404353 ], [ 16.282057206012585, 43.728135939043341 ], [ 16.306251878241007, 43.755044399811553 ] ] ] } },
{ "type": "Feature", "properties": { "population": 234, "longitude": 16.284401828776769, "latitude": 43.829518196103301, "BM": 13 }, "geometry": { "type": "Polygon", "coordinates": [ [ [ 16.282308681345175, 43.869659422990679 ], [ 16.29020804152476, 43.866311495809995 ], [ 16.294448521930427, 43.796526128401197 ], [ 16.286578870974452, 43.789526838699622 ], [ 16.27943977792421, 43.789061402594349 ], [ 16.274028135376433, 43.862636083787997 ], [ 16.282308681345175, 43.869659422990679 ] ] ] } },
{ "type": "Feature", "properties": { "population": 42, "longitude": 16.313897147120088, "latitude": 43.906094970599398, "BM": 14 }, "geometry": { "type": "Polygon", "coordinates": [ [ [ 16.267275477366507, 43.906257829620714 ], [ 16.300336142411791, 43.957448151662796 ], [ 16.310487129928337, 43.957131750467468 ], [ 16.348828665313853, 43.933720670175717 ], [ 16.355609853600082, 43.915201997894826 ], [ 16.355992574805342, 43.904832651111199 ], [ 16.346991601827725, 43.863978811251016 ], [ 16.29020804152476, 43.866311495809995 ], [ 16.282308681345175, 43.869659422990679 ], [ 16.270337587543892, 43.896708512587736 ], [ 16.267275477366507, 43.906257829620714 ] ] ] } },
{ "type": "Feature", "properties": { "population": 32, "longitude": 16.21160991249689, "latitude": 43.688895082347436, "BM": 15 }, "geometry": { "type": "Polygon", "coordinates": [ [ [ 16.192937520555279, 43.710280378091248 ], [ 16.23880762913684, 43.705848103160776 ], [ 16.241313174515522, 43.697475231719061 ], [ 16.235488148143997, 43.681047558933379 ], [ 16.198133560775648, 43.65879261314187 ], [ 16.185579756966909, 43.691423091005831 ], [ 16.192937520555279, 43.710280378091248 ] ] ] } },
{ "type": "Feature", "properties": { "population": 103, "longitude": 16.628621074939833, "latitude": 43.598413689033457, "BM": 16 }, "geometry": { "type": "Polygon", "coordinates": [ [ [ 16.62318159825135, 43.624166344905895 ], [ 16.657148177154532, 43.586737557938783 ], [ 16.617896686875095, 43.578887939637283 ], [ 16.608325348815988, 43.608256723849038 ], [ 16.62318159825135, 43.624166344905895 ] ] ] } },
{ "type": "Feature", "properties": { "population": 43, "longitude": 16.17882279000877, "latitude": 43.741296936118182, "BM": 17 }, "geometry": { "type": "Polygon", "coordinates": [ [ [ 16.16203294774354, 43.764612214255678 ], [ 16.207448699414183, 43.748200148329886 ], [ 16.191943392551185, 43.713584534431689 ], [ 16.149249593809014, 43.741674922508928 ], [ 16.16120468396127, 43.764464122007027 ], [ 16.16203294774354, 43.764612214255678 ] ] ] } },
{ "type": "Feature", "properties": { "population": 147, "longitude": 16.172555285891267, "latitude": 43.796721424990885, "BM": 18 }, "geometry": { "type": "Polygon", "coordinates": [ [ [ 16.141111529216477, 43.802838344775161 ], [ 16.182636538780176, 43.825782487816092 ], [ 16.206362721542163, 43.797642889482717 ], [ 16.16203294774354, 43.764612214255678 ], [ 16.16120468396127, 43.764464122007027 ], [ 16.141111529216477, 43.802838344775161 ] ] ] } },
{ "type": "Feature", "properties": { "population": 67, "longitude": 16.130670494023647, "latitude": 43.774710141865185, "BM": 19 }, "geometry": { "type": "Polygon", "coordinates": [ [ [ 16.123531432695675, 43.737722532626449 ], [ 16.098874260907106, 43.81213513603722 ], [ 16.103692979456053, 43.815454637067511 ], [ 16.141111529216477, 43.802838344775161 ], [ 16.16120468396127, 43.764464122007027 ], [ 16.149249593809014, 43.741674922508928 ], [ 16.130960456874632, 43.731398729039846 ], [ 16.123531432695675, 43.737722532626449 ] ] ] } },
{ "type": "Feature", "properties": { "population": 115, "longitude": 16.223834792182956, "latitude": 43.655858575669853, "BM": 20 }, "geometry": { "type": "Polygon", "coordinates": [ [ [ 16.198133560775648, 43.65879261314187 ], [ 16.235488148143997, 43.681047558933379 ], [ 16.253047560763072, 43.65487153488602 ], [ 16.223540709036762, 43.635479185274093 ], [ 16.200974203331743, 43.639378561575448 ], [ 16.196736151844217, 43.651174496857514 ], [ 16.198133560775648, 43.65879261314187 ] ] ] } },
{ "type": "Feature", "properties": { "population": 142, "longitude": 16.412534013283523, "latitude": 43.932813505978238, "BM": 21 }, "geometry": { "type": "Polygon", "coordinates": [ [ [ 16.412507926227594, 43.953525546916701 ], [ 16.425831421980369, 43.941633175656435 ], [ 16.432964516966209, 43.930535719841536 ], [ 16.432330885639804, 43.925223198336532 ], [ 16.413400504839998, 43.920187593045512 ], [ 16.387912175178595, 43.920759810681602 ], [ 16.412507926227594, 43.953525546916701 ] ] ] } },
{ "type": "Feature", "properties": { "population": 768, "longitude": 16.141978290608748, "latitude": 43.871520374142804, "BM": 22 }, "geometry": { "type": "Polygon", "coordinates": [ [ [ 16.11201080547319, 43.870912257240285 ], [ 16.16535929501601, 43.898221673287175 ], [ 16.167628518680608, 43.865932302873027 ], [ 16.133283942135037, 43.851821759626752 ], [ 16.113184394601436, 43.854818248216993 ], [ 16.11201080547319, 43.870912257240285 ] ] ] } },
{ "type": "Feature", "properties": { "population": 73, "longitude": 16.127585276656305, "latitude": 43.909616869119589, "BM": 23 }, "geometry": { "type": "Polygon", "coordinates": [ [ [ 16.078124814644248, 43.910789350694742 ], [ 16.098767234942589, 43.93192745361678 ], [ 16.1543507847651, 43.941946187328 ], [ 16.178044165014533, 43.915089549638559 ], [ 16.179196562111361, 43.912816336605623 ], [ 16.16535929501601, 43.898221673287175 ], [ 16.11201080547319, 43.870912257240285 ], [ 16.080034921624943, 43.904812983729983 ], [ 16.078124814644248, 43.910789350694742 ] ] ] } },
{ "type": "Feature", "properties": { "population": 192, "longitude": 16.083328342256561, "latitude": 43.854797774156403, "BM": 24 }, "geometry": { "type": "Polygon", "coordinates": [ [ [ 16.048857684412969, 43.862702910483236 ], [ 16.080034921624943, 43.904812983729983 ], [ 16.11201080547319, 43.870912257240285 ], [ 16.113184394601436, 43.854818248216993 ], [ 16.103692979456053, 43.815454637067511 ], [ 16.098874260907106, 43.81213513603722 ], [ 16.088302824414576, 43.808913452627394 ], [ 16.056206672593582, 43.837093991563457 ], [ 16.048857684412969, 43.862702910483236 ] ] ] } },
{ "type": "Feature", "properties": { "population": 483, "longitude": 16.130910583964486, "latitude": 43.690334336852438, "BM": 25 }, "geometry": { "type": "Polygon", "coordinates": [ [ [ 16.128840429810047, 43.722601294223331 ], [ 16.152210402786707, 43.689702081906411 ], [ 16.136736445160157, 43.653101171155697 ], [ 16.135581188173006, 43.652341749424686 ], [ 16.107194674384235, 43.702921609358945 ], [ 16.128840429810047, 43.722601294223331 ] ] ] } },
{ "type": "Feature", "properties": { "population": 104, "longitude": 16.082279504583735, "latitude": 43.721771591799836, "BM": 26 }, "geometry": { "type": "Polygon", "coordinates": [ [ [ 16.048220500663156, 43.744870405945484 ], [ 16.054033415202976, 43.75252897768987 ], [ 16.123531432695675, 43.737722532626449 ], [ 16.130960456874632, 43.731398729039846 ], [ 16.128840429810047, 43.722601294223331 ], [ 16.107194674384235, 43.702921609358945 ], [ 16.067082223966036, 43.689298467815668 ], [ 16.048233537783759, 43.697865466703298 ], [ 16.048220500663156, 43.744870405945484 ] ] ] } },
{ "type": "Feature", "properties": { "population": 48, "longitude": 16.128982817663811, "latitude": 43.962876519568319, "BM": 27 }, "geometry": { "type": "Polygon", "coordinates": [ [ [ 16.098873712494175, 43.940966970663908 ], [ 16.11841662845541, 43.997326666477967 ], [ 16.153913238669549, 43.98797385296939 ], [ 16.154013165297435, 43.987832084803799 ], [ 16.1543507847651, 43.941946187328 ], [ 16.098767234942589, 43.93192745361678 ], [ 16.098873712494175, 43.940966970663908 ] ] ] } },
{ "type": "Feature", "properties": { "population": 354, "longitude": 16.0888312788036, "latitude": 43.770814835995964, "BM": 28 }, "geometry": { "type": "Polygon", "coordinates": [ [ [ 16.088302824414576, 43.808913452627394 ], [ 16.098874260907106, 43.81213513603722 ], [ 16.123531432695675, 43.737722532626449 ], [ 16.054033415202976, 43.75252897768987 ], [ 16.062543997842315, 43.783355246569805 ], [ 16.088302824414576, 43.808913452627394 ] ] ] } },
{ "type": "Feature", "properties": { "population": 240, "longitude": 16.326946241337602, "latitude": 43.833019335959129, "BM": 29 }, "geometry": { "type": "Polygon", "coordinates": [ [ [ 16.29020804152476, 43.866311495809995 ], [ 16.346991601827725, 43.863978811251016 ], [ 16.378448204758151, 43.818903763141478 ], [ 16.370549799542815, 43.813168176143243 ], [ 16.294448521930427, 43.796526128401197 ], [ 16.29020804152476, 43.866311495809995 ] ] ] } },
{ "type": "Feature", "properties": { "population": 67, "longitude": 16.130670494023647, "latitude": 43.774710141865185, "BM": 30 }, "geometry": { "type": "Polygon", "coordinates": [ [ [ 16.123531432695675, 43.737722532626449 ], [ 16.098874260907106, 43.81213513603722 ], [ 16.103692979456053, 43.815454637067511 ], [ 16.141111529216477, 43.802838344775161 ], [ 16.16120468396127, 43.764464122007027 ], [ 16.149249593809014, 43.741674922508928 ], [ 16.130960456874632, 43.731398729039846 ], [ 16.123531432695675, 43.737722532626449 ] ] ] } },
{ "type": "Feature", "properties": { "population": 79, "longitude": 16.022431675476753, "latitude": 43.570017484334194, "BM": 31 }, "geometry": { "type": "Polygon", "coordinates": [ [ [ 16.004470698639071, 43.60337175917136 ], [ 16.007209169829441, 43.605585133785766 ], [ 16.015081989507316, 43.602751248080892 ], [ 16.055390749615384, 43.561144067955183 ], [ 16.05627051030012, 43.554655411521026 ], [ 16.047287416537284, 43.548676851155619 ], [ 16.011574167746623, 43.543136297565582 ], [ 15.996547173810223, 43.572135595752286 ], [ 16.004470698639071, 43.60337175917136 ] ] ] } },
{ "type": "Feature", "properties": { "population": 826, "longitude": 15.978631721605662, "latitude": 43.630013951608539, "BM": 32 }, "geometry": { "type": "Polygon", "coordinates": [ [ [ 15.939471394227535, 43.636469585602057 ], [ 15.968439678798626, 43.658250286495829 ], [ 16.008945694382952, 43.653686539430659 ], [ 16.009603448744524, 43.648723465591566 ], [ 16.007209169829441, 43.605585133785766 ], [ 16.004470698639071, 43.60337175917136 ], [ 15.956507974947804, 43.604690533265128 ], [ 15.939471394227535, 43.636469585602057 ] ] ] } },
{ "type": "Feature", "properties": { "population": 209, "longitude": 16.08718378534164, "latitude": 43.632560623748674, "BM": 33 }, "geometry": { "type": "Polygon", "coordinates": [ [ [ 16.067030795364353, 43.611888011253285 ], [ 16.066571374795966, 43.633767512021251 ], [ 16.082499443109565, 43.660655195969994 ], [ 16.114000201617149, 43.641320434785563 ], [ 16.111015115847067, 43.629352239013734 ], [ 16.083990196868534, 43.608342412487971 ], [ 16.080945558711708, 43.60731526113409 ], [ 16.073700095926764, 43.60775142439163 ], [ 16.067030795364353, 43.611888011253285 ] ] ] } },
{ "type": "Feature", "properties": { "population": 27, "longitude": 16.04713383948657, "latitude": 43.664384330472473, "BM": 34 }, "geometry": { "type": "Polygon", "coordinates": [ [ [ 16.008945694382952, 43.653686539430659 ], [ 16.020879741442645, 43.680581924465521 ], [ 16.048233537783759, 43.697865466703298 ], [ 16.067082223966036, 43.689298467815668 ], [ 16.082499443109565, 43.660655195969994 ], [ 16.066571374795966, 43.633767512021251 ], [ 16.009603448744524, 43.648723465591566 ], [ 16.008945694382952, 43.653686539430659 ] ] ] } },
{ "type": "Feature", "properties": { "population": 359, "longitude": 15.993389216966385, "latitude": 43.545427203222673, "BM": 35 }, "geometry": { "type": "Polygon", "coordinates": [ [ [ 15.980405769547229, 43.528956275972405 ], [ 15.977934496400895, 43.558526893473811 ], [ 15.996547173810223, 43.572135595752286 ], [ 16.011574167746623, 43.543136297565582 ], [ 16.009572253454323, 43.533979954880571 ], [ 15.992009902292631, 43.521922529828451 ], [ 15.980893777040226, 43.526901140040195 ], [ 15.980405769547229, 43.528956275972405 ] ] ] } },
{ "type": "Feature", "properties": { "population": 1082, "longitude": 15.966952728601081, "latitude": 43.547154728726461, "BM": 36 }, "geometry": { "type": "Polygon", "coordinates": [ [ [ 15.977934496400895, 43.558526893473811 ], [ 15.980405769547229, 43.528956275972405 ], [ 15.942517919855113, 43.553981016733204 ], [ 15.977934496400895, 43.558526893473811 ] ] ] } },
{ "type": "Feature", "properties": { "population": 666, "longitude": 15.971080412772388, "latitude": 43.580782074414415, "BM": 37 }, "geometry": { "type": "Polygon", "coordinates": [ [ [ 15.956507974947804, 43.604690533265128 ], [ 16.004470698639071, 43.60337175917136 ], [ 15.996547173810223, 43.572135595752286 ], [ 15.977934496400895, 43.558526893473811 ], [ 15.942517919855113, 43.553981016733204 ], [ 15.937734216979734, 43.553721506960514 ], [ 15.953602755830158, 43.601777551153589 ], [ 15.956507974947804, 43.604690533265128 ] ] ] } },
{ "type": "Feature", "properties": { "population": 275, "longitude": 15.908888757293662, "latitude": 43.512973387870275, "BM": 38 }, "geometry": { "type": "Polygon", "coordinates": [ [ [ 15.937734216979734, 43.553721506960514 ], [ 15.942517919855113, 43.553981016733204 ], [ 15.980405769547229, 43.528956275972405 ], [ 15.980893777040226, 43.526901140040195 ], [ 15.804142586577273, 43.455989632469404 ], [ 15.937734216979734, 43.553721506960514 ] ] ] } },
{ "type": "Feature", "properties": { "population": 105, "longitude": 17.118232769124486, "latitude": 44.025890965307553, "BM": 39 }, "geometry": { "type": "Polygon", "coordinates": [ [ [ 16.906565095711347, 43.819524354667706 ], [ 17.235197366405973, 44.363129444346768 ], [ 17.257241530226821, 44.358129948011872 ], [ 17.290215995390927, 44.348231877101988 ], [ 17.398247575744872, 44.303155368955309 ], [ 16.919229447382445, 43.622695244023845 ], [ 16.868591070603706, 43.6218167510239 ], [ 16.866774287894515, 43.623085502190001 ], [ 16.865768086058107, 43.624726795560463 ], [ 16.905237052963635, 43.816207785387306 ], [ 16.906565095711347, 43.819524354667706 ] ] ] } },
{ "type": "Feature", "properties": { "population": 237, "longitude": 16.503952512670452, "latitude": 43.602308564785957, "BM": 40 }, "geometry": { "type": "Polygon", "coordinates": [ [ [ 16.514973603541169, 43.635433420180327 ], [ 16.524238814719073, 43.598867420937481 ], [ 16.511464365654245, 43.577338207452378 ], [ 16.509644553440129, 43.575876098835678 ], [ 16.490926034832984, 43.574977493435902 ], [ 16.484615070051706, 43.575561603552806 ], [ 16.490430799025958, 43.623175326614962 ], [ 16.514973603541169, 43.635433420180327 ] ] ] } },
{ "type": "Feature", "properties": { "population": 125, "longitude": 16.000638870464222, "latitude": 43.81456156757389, "BM": 41 }, "geometry": { "type": "Polygon", "coordinates": [ [ [ 15.985978758704073, 43.845514135221315 ], [ 16.017673271278646, 43.828466787849145 ], [ 16.034336655241656, 43.798834937475327 ], [ 15.990942920363775, 43.787390822099368 ], [ 15.972267355523931, 43.82373074349676 ], [ 15.985978758704073, 43.845514135221315 ] ] ] } },
{ "type": "Feature", "properties": { "population": 328, "longitude": 16.74485150018759, "latitude": 43.665923342571489, "BM": 42 }, "geometry": { "type": "Polygon", "coordinates": [ [ [ 16.716077076567082, 43.656879914400321 ], [ 16.762197963866011, 43.69316403360655 ], [ 16.766995471043483, 43.664805772454244 ], [ 16.739522735050436, 43.647927362172837 ], [ 16.730316627690208, 43.646095741924718 ], [ 16.720810344605738, 43.651095493576186 ], [ 16.716077076567082, 43.656879914400321 ] ] ] } },
{ "type": "Feature", "properties": { "population": 571, "longitude": 15.943304597447408, "latitude": 43.85273251230511, "BM": 43 }, "geometry": { "type": "Polygon", "coordinates": [ [ [ 15.903573393717584, 43.877402140787694 ], [ 15.98634634637073, 43.868774001935009 ], [ 15.987475913874748, 43.864952792511133 ], [ 15.985978758704073, 43.845514135221315 ], [ 15.972267355523931, 43.82373074349676 ], [ 15.963999679703122, 43.820845378975484 ], [ 15.888825222934663, 43.852966387421212 ], [ 15.903573393717584, 43.877402140787694 ] ] ] } },
{ "type": "Feature", "properties": { "population": 61, "longitude": 16.053049634116743, "latitude": 43.812199520604175, "BM": 44 }, "geometry": { "type": "Polygon", "coordinates": [ [ [ 16.034336655241656, 43.798834937475327 ], [ 16.017673271278646, 43.828466787849145 ], [ 16.056206672593582, 43.837093991563457 ], [ 16.088302824414576, 43.808913452627394 ], [ 16.062543997842315, 43.783355246569805 ], [ 16.034336655241656, 43.798834937475327 ] ] ] } },
{ "type": "Feature", "properties": { "population": 269, "longitude": 16.026945600707457, "latitude": 43.772727088603936, "BM": 45 }, "geometry": { "type": "Polygon", "coordinates": [ [ [ 15.990942920363775, 43.787390822099368 ], [ 16.034336655241656, 43.798834937475327 ], [ 16.062543997842315, 43.783355246569805 ], [ 16.054033415202976, 43.75252897768987 ], [ 16.048220500663156, 43.744870405945484 ], [ 15.992227514622829, 43.759871540995348 ], [ 15.990942920363775, 43.787390822099368 ] ] ] } },
{ "type": "Feature", "properties": { "population": 118, "longitude": 16.020749103441851, "latitude": 43.848565013760741, "BM": 46 }, "geometry": { "type": "Polygon", "coordinates": [ [ [ 15.987475913874748, 43.864952792511133 ], [ 16.048857684412969, 43.862702910483236 ], [ 16.056206672593582, 43.837093991563457 ], [ 16.017673271278646, 43.828466787849145 ], [ 15.985978758704073, 43.845514135221315 ], [ 15.987475913874748, 43.864952792511133 ] ] ] } },
{ "type": "Feature", "properties": { "population": 227, "longitude": 16.027856220531607, "latitude": 43.897751468235441, "BM": 47 }, "geometry": { "type": "Polygon", "coordinates": [ [ [ 15.98634634637073, 43.868774001935009 ], [ 15.994824020714093, 43.928078416630093 ], [ 16.009704872141729, 43.938995135621212 ], [ 16.049244411177668, 43.925696874714859 ], [ 16.078124814644248, 43.910789350694742 ], [ 16.080034921624943, 43.904812983729983 ], [ 16.048857684412969, 43.862702910483236 ], [ 15.987475913874748, 43.864952792511133 ], [ 15.98634634637073, 43.868774001935009 ] ] ] } },
{ "type": "Feature", "properties": { "population": 461, "longitude": 15.948632822674938, "latitude": 43.904373199487161, "BM": 48 }, "geometry": { "type": "Polygon", "coordinates": [ [ [ 15.904502307228372, 43.917942914651562 ], [ 15.928746104242684, 43.943321372904343 ], [ 15.994824020714093, 43.928078416630093 ], [ 15.98634634637073, 43.868774001935009 ], [ 15.903573393717584, 43.877402140787694 ], [ 15.904502307228372, 43.917942914651562 ] ] ] } },
{ "type": "Feature", "properties": { "population": 402, "longitude": 16.076514968589077, "latitude": 43.940379327720514, "BM": 49 }, "geometry": { "type": "Polygon", "coordinates": [ [ [ 16.049244411177668, 43.925696874714859 ], [ 16.079377526680418, 43.980409568313156 ], [ 16.098873712494175, 43.940966970663908 ], [ 16.098767234942589, 43.93192745361678 ], [ 16.078124814644248, 43.910789350694742 ], [ 16.049244411177668, 43.925696874714859 ] ] ] } },
{ "type": "Feature", "properties": { "population": 225, "longitude": 16.043920833524901, "latitude": 43.970429784123482, "BM": 50 }, "geometry": { "type": "Polygon", "coordinates": [ [ [ 16.014746161112605, 43.982990173193336 ], [ 16.037464178782344, 44.00973245893227 ], [ 16.077924526698421, 44.005386967211585 ], [ 16.079377526680418, 43.980409568313156 ], [ 16.049244411177668, 43.925696874714859 ], [ 16.009704872141729, 43.938995135621212 ], [ 16.014746161112605, 43.982990173193336 ] ] ] } },
{ "type": "Feature", "properties": { "population": 367, "longitude": 16.335223345165851, "latitude": 43.403253650030194, "BM": 51 }, "geometry": { "type": "Polygon", "coordinates": [ [ [ 16.303010550600984, 43.367058160749039 ], [ 16.332551111342017, 43.441826990356944 ], [ 16.374331604026185, 43.439671385525543 ], [ 16.335470378656222, 43.369793005214213 ], [ 16.300557401849332, 43.353487840929581 ], [ 16.303010550600984, 43.367058160749039 ] ] ] } },
{ "type": "Feature", "properties": { "population": 227, "longitude": 16.027856220531607, "latitude": 43.897751468235441, "BM": 52 }, "geometry": { "type": "Polygon", "coordinates": [ [ [ 15.98634634637073, 43.868774001935009 ], [ 15.994824020714093, 43.928078416630093 ], [ 16.009704872141729, 43.938995135621212 ], [ 16.049244411177668, 43.925696874714859 ], [ 16.078124814644248, 43.910789350694742 ], [ 16.080034921624943, 43.904812983729983 ], [ 16.048857684412969, 43.862702910483236 ], [ 15.987475913874748, 43.864952792511133 ], [ 15.98634634637073, 43.868774001935009 ] ] ] } },
{ "type": "Feature", "properties": { "population": 685, "longitude": 15.959135613786277, "latitude": 43.729575979852889, "BM": 53 }, "geometry": { "type": "Polygon", "coordinates": [ [ [ 15.932475313663192, 43.725655272398186 ], [ 15.959369847303043, 43.755892478742602 ], [ 15.98023613638386, 43.750712407752026 ], [ 15.976063891196292, 43.713416694907231 ], [ 15.954257319109818, 43.70470265657346 ], [ 15.949904878923256, 43.70481996898333 ], [ 15.939729691873621, 43.715014726869732 ], [ 15.932475313663192, 43.725655272398186 ] ] ] } },
{ "type": "Feature", "properties": { "population": 584, "longitude": 15.942600591227398, "latitude": 43.655388926476625, "BM": 54 }, "geometry": { "type": "Polygon", "coordinates": [ [ [ 15.933995156172895, 43.675563984221689 ], [ 15.96576346278311, 43.661968591561234 ], [ 15.968439678798626, 43.658250286495829 ], [ 15.939471394227535, 43.636469585602057 ], [ 15.922035432782264, 43.642459461791837 ], [ 15.933995156172895, 43.675563984221689 ] ] ] } },
{ "type": "Feature", "properties": { "population": 355, "longitude": 15.882970900550323, "latitude": 43.614326952340498, "BM": 55 }, "geometry": { "type": "Polygon", "coordinates": [ [ [ 15.851556821379374, 43.631886453870223 ], [ 15.922035432782264, 43.642459461791837 ], [ 15.939471394227535, 43.636469585602057 ], [ 15.956507974947804, 43.604690533265128 ], [ 15.953602755830158, 43.601777551153589 ], [ 15.793179582504063, 43.5895294800236 ], [ 15.804897044466907, 43.603020341731316 ], [ 15.851556821379374, 43.631886453870223 ] ] ] } },
{ "type": "Feature", "properties": { "population": 896, "longitude": 15.824814724054074, "latitude": 43.522118378126017, "BM": 56 }, "geometry": { "type": "Polygon", "coordinates": [ [ [ 15.697718472455465, 43.389354941574339 ], [ 15.791078702036735, 43.587530832370916 ], [ 15.793179582504063, 43.5895294800236 ], [ 15.953602755830158, 43.601777551153589 ], [ 15.937734216979734, 43.553721506960514 ], [ 15.804142586577273, 43.455989632469404 ], [ 15.697718472455465, 43.389354941574339 ] ] ] } },
{ "type": "Feature", "properties": { "population": 157, "longitude": 16.345397662211077, "latitude": 43.636461969867298, "BM": 57 }, "geometry": { "type": "Polygon", "coordinates": [ [ [ 16.311504405196704, 43.638285345009564 ], [ 16.3384942251488, 43.680040321332946 ], [ 16.380459505200406, 43.62803440137764 ], [ 16.365352047481938, 43.605528601028531 ], [ 16.361595822956058, 43.60497656845866 ], [ 16.337847071325339, 43.606298782579465 ], [ 16.311504405196704, 43.638285345009564 ] ] ] } },
{ "type": "Feature", "properties": { "population": 304, "longitude": 15.932688768005162, "latitude": 43.754515981191517, "BM": 58 }, "geometry": { "type": "Polygon", "coordinates": [ [ [ 15.917859123725801, 43.779218061249836 ], [ 15.926599978208083, 43.780911772575834 ], [ 15.959369847303043, 43.755892478742602 ], [ 15.932475313663192, 43.725655272398186 ], [ 15.930011722410647, 43.726934134123518 ], [ 15.92071157556437, 43.737870320731531 ], [ 15.913872024266627, 43.752000123328131 ], [ 15.917859123725801, 43.779218061249836 ] ] ] } },
{ "type": "Feature", "properties": { "population": 284, "longitude": 15.918448333925262, "latitude": 43.816869673999413, "BM": 59 }, "geometry": { "type": "Polygon", "coordinates": [ [ [ 15.882354056508209, 43.84821547166149 ], [ 15.888825222934663, 43.852966387421212 ], [ 15.963999679703122, 43.820845378975484 ], [ 15.926599978208083, 43.780911772575834 ], [ 15.917859123725801, 43.779218061249836 ], [ 15.911967357606581, 43.782258356877307 ], [ 15.885721846731309, 43.826260418497036 ], [ 15.882354056508209, 43.84821547166149 ] ] ] } },
{ "type": "Feature", "properties": { "population": 732, "longitude": 15.928283562564156, "latitude": 43.700909199750086, "BM": 60 }, "geometry": { "type": "Polygon", "coordinates": [ [ [ 15.901555220117247, 43.698496405288793 ], [ 15.939729691873621, 43.715014726869732 ], [ 15.949904878923256, 43.70481996898333 ], [ 15.935400647891695, 43.689189731385603 ], [ 15.8995287696257, 43.69608034210961 ], [ 15.901555220117247, 43.698496405288793 ] ] ] } },
{ "type": "Feature", "properties": { "population": 847, "longitude": 15.919661372285198, "latitude": 43.686568714365876, "BM": 61 }, "geometry": { "type": "Polygon", "coordinates": [ [ [ 15.8995287696257, 43.69608034210961 ], [ 15.935400647891695, 43.689189731385603 ], [ 15.933773680508322, 43.677141166089456 ], [ 15.923286276559804, 43.676928521419754 ], [ 15.896203292773004, 43.694741781336297 ], [ 15.8995287696257, 43.69608034210961 ] ] ] } },
{ "type": "Feature", "properties": { "population": 1302, "longitude": 15.921708604925872, "latitude": 43.713536490978498, "BM": 62 }, "geometry": { "type": "Polygon", "coordinates": [ [ [ 15.930011722410647, 43.726934134123518 ], [ 15.932475313663192, 43.725655272398186 ], [ 15.939729691873621, 43.715014726869732 ], [ 15.901555220117247, 43.698496405288793 ], [ 15.909787000904725, 43.713266471717851 ], [ 15.930011722410647, 43.726934134123518 ] ] ] } },
{ "type": "Feature", "properties": { "population": 473, "longitude": 15.896942772788389, "latitude": 43.710787327683335, "BM": 63 }, "geometry": { "type": "Polygon", "coordinates": [ [ [ 15.890247728324224, 43.721446985219039 ], [ 15.896191280605027, 43.723588104188785 ], [ 15.902304348363018, 43.724802487634285 ], [ 15.905132958381188, 43.724268230154919 ], [ 15.909787000904725, 43.713266471717851 ], [ 15.901555220117247, 43.698496405288793 ], [ 15.8995287696257, 43.69608034210961 ], [ 15.896203292773004, 43.694741781336297 ], [ 15.892109307125438, 43.693211421859708 ], [ 15.883964702324622, 43.717586898689518 ], [ 15.88842148808677, 43.72063644904518 ], [ 15.890247728324224, 43.721446985219039 ] ] ] } },
{ "type": "Feature", "properties": { "population": 235, "longitude": 15.89633527816394, "latitude": 43.655331397740277, "BM": 64 }, "geometry": { "type": "Polygon", "coordinates": [ [ [ 15.880171018615805, 43.672085743925486 ], [ 15.923286276559804, 43.676928521419754 ], [ 15.933773680508322, 43.677141166089456 ], [ 15.933995156172895, 43.675563984221689 ], [ 15.922035432782264, 43.642459461791837 ], [ 15.851556821379374, 43.631886453870223 ], [ 15.880171018615805, 43.672085743925486 ] ] ] } },
{ "type": "Feature", "properties": { "population": 706, "longitude": 15.899154023883312, "latitude": 43.681634757721966, "BM": 65 }, "geometry": { "type": "Polygon", "coordinates": [ [ [ 15.896203292773004, 43.694741781336297 ], [ 15.923286276559804, 43.676928521419754 ], [ 15.880171018615805, 43.672085743925486 ], [ 15.892109307125438, 43.693211421859708 ], [ 15.896203292773004, 43.694741781336297 ] ] ] } },
{ "type": "Feature", "properties": { "population": 606, "longitude": 15.849699330539329, "latitude": 43.670165185315547, "BM": 66 }, "geometry": { "type": "Polygon", "coordinates": [ [ [ 15.804897044466907, 43.603020341731316 ], [ 15.822355946047747, 43.674317035599501 ], [ 15.865244738288625, 43.731155598329771 ], [ 15.868607617183914, 43.729455393692881 ], [ 15.882677003169352, 43.718783735819628 ], [ 15.883964702324622, 43.717586898689518 ], [ 15.892109307125438, 43.693211421859708 ], [ 15.880171018615805, 43.672085743925486 ], [ 15.851556821379374, 43.631886453870223 ], [ 15.804897044466907, 43.603020341731316 ] ] ] } },
{ "type": "Feature", "properties": { "population": 164, "longitude": 15.865780361521033, "latitude": 43.887503524465991, "BM": 67 }, "geometry": { "type": "Polygon", "coordinates": [ [ [ 15.82234399197743, 43.888781805412414 ], [ 15.845202826363238, 43.921358214108622 ], [ 15.866967194742179, 43.926956604554626 ], [ 15.904502307228372, 43.917942914651562 ], [ 15.903573393717584, 43.877402140787694 ], [ 15.888825222934663, 43.852966387421212 ], [ 15.882354056508209, 43.84821547166149 ], [ 15.835668246361935, 43.8549530229282 ], [ 15.825357058448486, 43.870065070934231 ], [ 15.82234399197743, 43.888781805412414 ] ] ] } },
{ "type": "Feature", "properties": { "population": 459, "longitude": 16.487974105849979, "latitude": 43.5656282646964, "BM": 68 }, "geometry": { "type": "Polygon", "coordinates": [ [ [ 16.484615070051706, 43.575561603552806 ], [ 16.490926034832984, 43.574977493435902 ], [ 16.50106301007899, 43.552785515532733 ], [ 16.48382466691908, 43.560348530873839 ], [ 16.474361977914729, 43.569777033523472 ], [ 16.484615070051706, 43.575561603552806 ] ] ] } },
{ "type": "Feature", "properties": { "population": 765, "longitude": 15.910714999541408, "latitude": 43.73742361736673, "BM": 69 }, "geometry": { "type": "Polygon", "coordinates": [ [ [ 15.912066778024382, 43.750834926695312 ], [ 15.913872024266627, 43.752000123328131 ], [ 15.92071157556437, 43.737870320731531 ], [ 15.905132958381188, 43.724268230154919 ], [ 15.902304348363018, 43.724802487634285 ], [ 15.902522222285176, 43.734326247822302 ], [ 15.912066778024382, 43.750834926695312 ] ] ] } },
{ "type": "Feature", "properties": { "population": 48, "longitude": 16.128982817663811, "latitude": 43.962876519568319, "BM": 70 }, "geometry": { "type": "Polygon", "coordinates": [ [ [ 16.098873712494175, 43.940966970663908 ], [ 16.11841662845541, 43.997326666477967 ], [ 16.153913238669549, 43.98797385296939 ], [ 16.154013165297435, 43.987832084803799 ], [ 16.1543507847651, 43.941946187328 ], [ 16.098767234942589, 43.93192745361678 ], [ 16.098873712494175, 43.940966970663908 ] ] ] } },
{ "type": "Feature", "properties": { "population": 134, "longitude": 16.095214149406068, "latitude": 43.507172882333528, "BM": 71 }, "geometry": { "type": "Polygon", "coordinates": [ [ [ 16.075925397126518, 43.505981336827212 ], [ 16.107379547005664, 43.520305435772627 ], [ 16.112282936730939, 43.501868218280428 ], [ 16.074519739957623, 43.49837889047533 ], [ 16.075925397126518, 43.505981336827212 ] ] ] } },
{ "type": "Feature", "properties": { "population": 72, "longitude": 16.169037831529476, "latitude": 43.669418928863195, "BM": 72 }, "geometry": { "type": "Polygon", "coordinates": [ [ [ 16.196736151844217, 43.651174496857514 ], [ 16.136736445160157, 43.653101171155697 ], [ 16.152210402786707, 43.689702081906411 ], [ 16.185579756966909, 43.691423091005831 ], [ 16.198133560775648, 43.65879261314187 ], [ 16.196736151844217, 43.651174496857514 ] ] ] } },
{ "type": "Feature", "properties": { "population": 82, "longitude": 15.717827976099414, "latitude": 43.860114213667408, "BM": 73 }, "geometry": { "type": "Polygon", "coordinates": [ [ [ 15.698819250008654, 43.867236774187113 ], [ 15.723721786795464, 43.874775431060144 ], [ 15.743126118702445, 43.872167539407499 ], [ 15.739446446487516, 43.854253507238951 ], [ 15.692752125078757, 43.842642250770645 ], [ 15.698819250008654, 43.867236774187113 ] ] ] } },
{ "type": "Feature", "properties": { "population": 48, "longitude": 16.128982817663811, "latitude": 43.962876519568319, "BM": 74 }, "geometry": { "type": "Polygon", "coordinates": [ [ [ 16.098873712494175, 43.940966970663908 ], [ 16.11841662845541, 43.997326666477967 ], [ 16.153913238669549, 43.98797385296939 ], [ 16.154013165297435, 43.987832084803799 ], [ 16.1543507847651, 43.941946187328 ], [ 16.098767234942589, 43.93192745361678 ], [ 16.098873712494175, 43.940966970663908 ] ] ] } },
{ "type": "Feature", "properties": { "population": 389, "longitude": 15.765337312269533, "latitude": 43.901510033562197, "BM": 75 }, "geometry": { "type": "Polygon", "coordinates": [ [ [ 15.742529338222754, 43.904405872470207 ], [ 15.778251226979272, 43.92889978585611 ], [ 15.779125914641837, 43.928487822261054 ], [ 15.792840741909144, 43.910166813712372 ], [ 15.758891961853912, 43.874696644207823 ], [ 15.74689411063836, 43.876161015229712 ], [ 15.742529338222754, 43.904405872470207 ] ] ] } },
{ "type": "Feature", "properties": { "population": 136, "longitude": 15.794201895101754, "latitude": 43.882334034872557, "BM": 76 }, "geometry": { "type": "Polygon", "coordinates": [ [ [ 15.758891961853912, 43.874696644207823 ], [ 15.792840741909144, 43.910166813712372 ], [ 15.82234399197743, 43.888781805412414 ], [ 15.825357058448486, 43.870065070934231 ], [ 15.779405401119776, 43.861844285447695 ], [ 15.758891961853912, 43.874696644207823 ] ] ] } },
{ "type": "Feature", "properties": { "population": 203, "longitude": 15.796316247266361, "latitude": 43.833695549177698, "BM": 77 }, "geometry": { "type": "Polygon", "coordinates": [ [ [ 15.757686280530095, 43.810506538567566 ], [ 15.779405401119776, 43.861844285447695 ], [ 15.825357058448486, 43.870065070934231 ], [ 15.835668246361935, 43.8549530229282 ], [ 15.804526207190492, 43.796926176359904 ], [ 15.759242507679419, 43.804170036184146 ], [ 15.757874110144394, 43.807602934110683 ], [ 15.757686280530095, 43.810506538567566 ] ] ] } },
{ "type": "Feature", "properties": { "population": 214, "longitude": 15.720763712904693, "latitude": 43.759987958462972, "BM": 78 }, "geometry": { "type": "Polygon", "coordinates": [ [ [ 15.685926367640358, 43.765469756976294 ], [ 15.756175655449034, 43.80077699578824 ], [ 15.756202902452426, 43.799074691482005 ], [ 15.742107350078122, 43.751023967778998 ], [ 15.729149837361366, 43.721953780752607 ], [ 15.681139944607969, 43.74971606579475 ], [ 15.685926367640358, 43.765469756976294 ] ] ] } },
{ "type": "Feature", "properties": { "population": 136, "longitude": 15.794201895101754, "latitude": 43.882334034872557, "BM": 79 }, "geometry": { "type": "Polygon", "coordinates": [ [ [ 15.758891961853912, 43.874696644207823 ], [ 15.792840741909144, 43.910166813712372 ], [ 15.82234399197743, 43.888781805412414 ], [ 15.825357058448486, 43.870065070934231 ], [ 15.779405401119776, 43.861844285447695 ], [ 15.758891961853912, 43.874696644207823 ] ] ] } },
{ "type": "Feature", "properties": { "population": 734, "longitude": 15.605369143717921, "latitude": 43.731922457743217, "BM": 80 }, "geometry": { "type": "Polygon", "coordinates": [ [ [ 15.612319625566046, 43.79854937768998 ], [ 15.619235301223414, 43.805575150506883 ], [ 15.643907037156723, 43.792442246120174 ], [ 15.685734486966998, 43.766115057251376 ], [ 15.685926367640358, 43.765469756976294 ], [ 15.681139944607969, 43.74971606579475 ], [ 15.504307834277251, 43.629356045636868 ], [ 15.612319625566046, 43.79854937768998 ] ] ] } },
{ "type": "Feature", "properties": { "population": 659, "longitude": 15.747850010049497, "latitude": 43.73506168380117, "BM": 81 }, "geometry": { "type": "Polygon", "coordinates": [ [ [ 15.742107350078122, 43.751023967778998 ], [ 15.759542407283982, 43.765488444085555 ], [ 15.760131534900554, 43.762103696798548 ], [ 15.761315251771146, 43.732294452696564 ], [ 15.747657194713666, 43.708155204498254 ], [ 15.729149837361366, 43.721953780752607 ], [ 15.742107350078122, 43.751023967778998 ] ] ] } },
{ "type": "Feature", "properties": { "population": 1168, "longitude": 15.778889751638232, "latitude": 43.78068266496377, "BM": 82 }, "geometry": { "type": "Polygon", "coordinates": [ [ [ 15.756175655449034, 43.80077699578824 ], [ 15.759242507679419, 43.804170036184146 ], [ 15.804526207190492, 43.796926176359904 ], [ 15.806760033067071, 43.793170730133909 ], [ 15.788312647095383, 43.752306175391126 ], [ 15.760131534900554, 43.762103696798548 ], [ 15.759542407283982, 43.765488444085555 ], [ 15.756202902452426, 43.799074691482005 ], [ 15.756175655449034, 43.80077699578824 ] ] ] } },
{ "type": "Feature", "properties": { "population": 599, "longitude": 15.752617553271511, "latitude": 43.771862367782191, "BM": 83 }, "geometry": { "type": "Polygon", "coordinates": [ [ [ 15.759542407283982, 43.765488444085555 ], [ 15.742107350078122, 43.751023967778998 ], [ 15.756202902452426, 43.799074691482005 ], [ 15.759542407283982, 43.765488444085555 ] ] ] } },
{ "type": "Feature", "properties": { "population": 253, "longitude": 15.43129192885204, "latitude": 43.318013499022925, "BM": 84 }, "geometry": { "type": "Polygon", "coordinates": [ [ [ 15.504307834277251, 43.629356045636868 ], [ 15.681139944607969, 43.74971606579475 ], [ 15.729149837361366, 43.721953780752607 ], [ 15.747657194713666, 43.708155204498254 ], [ 15.757510161386474, 43.687357929485543 ], [ 15.791078702036735, 43.587530832370916 ], [ 15.697718472455465, 43.389354941574339 ], [ 15.544140876819407, 43.158980928459123 ], [ 14.985270924108256, 42.825237978096816 ], [ 15.175192637157467, 43.245415674679492 ], [ 15.439169202465202, 43.572527732856337 ], [ 15.504307834277251, 43.629356045636868 ] ] ] } },
{ "type": "Feature", "properties": { "population": 183, "longitude": 15.794342931950558, "latitude": 43.670137910957742, "BM": 85 }, "geometry": { "type": "Polygon", "coordinates": [ [ [ 15.757510161386474, 43.687357929485543 ], [ 15.798047897290857, 43.736214000565894 ], [ 15.819621038366039, 43.729336184327686 ], [ 15.822355946047747, 43.674317035599501 ], [ 15.804897044466907, 43.603020341731316 ], [ 15.793179582504063, 43.5895294800236 ], [ 15.791078702036735, 43.587530832370916 ], [ 15.757510161386474, 43.687357929485543 ] ] ] } },
{ "type": "Feature", "properties": { "population": 901, "longitude": 15.871527282040187, "latitude": 43.744629177637329, "BM": 86 }, "geometry": { "type": "Polygon", "coordinates": [ [ [ 15.885590534504999, 43.738292904687924 ], [ 15.868607617183914, 43.729455393692881 ], [ 15.865244738288625, 43.731155598329771 ], [ 15.85504711635028, 43.760348343753158 ], [ 15.85613091074085, 43.760584278159961 ], [ 15.890334194380682, 43.746494275542588 ], [ 15.885590534504999, 43.738292904687924 ] ] ] } },
{ "type": "Feature", "properties": { "population": 594, "longitude": 15.881163783877236, "latitude": 43.729566060203958, "BM": 87 }, "geometry": { "type": "Polygon", "coordinates": [ [ [ 15.882677003169352, 43.718783735819628 ], [ 15.868607617183914, 43.729455393692881 ], [ 15.885590534504999, 43.738292904687924 ], [ 15.889398632660878, 43.7381252259473 ], [ 15.890979472558225, 43.735360598120579 ], [ 15.882677003169352, 43.718783735819628 ] ] ] } },
{ "type": "Feature", "properties": { "population": 430, "longitude": 15.888884952222478, "latitude": 43.726617591952589, "BM": 88 }, "geometry": { "type": "Polygon", "coordinates": [ [ [ 15.890979472558225, 43.735360598120579 ], [ 15.891990572600905, 43.735660522830194 ], [ 15.893641993581026, 43.733885300773622 ], [ 15.894424344482241, 43.732577929254823 ], [ 15.894443426207383, 43.732515543942476 ], [ 15.88842148808677, 43.72063644904518 ], [ 15.883964702324622, 43.717586898689518 ], [ 15.882677003169352, 43.718783735819628 ], [ 15.890979472558225, 43.735360598120579 ] ] ] } },
{ "type": "Feature", "properties": { "population": 227, "longitude": 16.027856220531607, "latitude": 43.897751468235441, "BM": 89 }, "geometry": { "type": "Polygon", "coordinates": [ [ [ 15.98634634637073, 43.868774001935009 ], [ 15.994824020714093, 43.928078416630093 ], [ 16.009704872141729, 43.938995135621212 ], [ 16.049244411177668, 43.925696874714859 ], [ 16.078124814644248, 43.910789350694742 ], [ 16.080034921624943, 43.904812983729983 ], [ 16.048857684412969, 43.862702910483236 ], [ 15.987475913874748, 43.864952792511133 ], [ 15.98634634637073, 43.868774001935009 ] ] ] } },
{ "type": "Feature", "properties": { "population": 445, "longitude": 15.670301926712805, "latitude": 43.832614738891053, "BM": 90 }, "geometry": { "type": "Polygon", "coordinates": [ [ [ 15.636771132050262, 43.846387460151 ], [ 15.637016833322434, 43.8532497596036 ], [ 15.692569423487171, 43.842383568964173 ], [ 15.693963209118813, 43.837892406335357 ], [ 15.688444703610674, 43.803302647441271 ], [ 15.663644862037291, 43.821618478182366 ], [ 15.636771132050262, 43.846387460151 ] ] ] } },
{ "type": "Feature", "properties": { "population": 558, "longitude": 15.658800189278232, "latitude": 43.812153949604763, "BM": 91 }, "geometry": { "type": "Polygon", "coordinates": [ [ [ 15.663644862037291, 43.821618478182366 ], [ 15.685600963559875, 43.773786143600894 ], [ 15.685184516132928, 43.768974675542765 ], [ 15.63547960547564, 43.831687354873779 ], [ 15.636771132050262, 43.846387460151 ], [ 15.663644862037291, 43.821618478182366 ] ] ] } },
{ "type": "Feature", "properties": { "population": 550, "longitude": 15.679230176402612, "latitude": 43.79956908974151, "BM": 92 }, "geometry": { "type": "Polygon", "coordinates": [ [ [ 15.685600963559875, 43.773786143600894 ], [ 15.663644862037291, 43.821618478182366 ], [ 15.688444703610674, 43.803302647441271 ], [ 15.685600963559875, 43.773786143600894 ] ] ] } },
{ "type": "Feature", "properties": { "population": 671, "longitude": 15.574640339006972, "latitude": 43.940235762508507, "BM": 93 }, "geometry": { "type": "Polygon", "coordinates": [ [ [ 15.541952375662564, 43.923243829470486 ], [ 15.541422239949659, 43.924075258771325 ], [ 15.578576823023486, 43.973038037065137 ], [ 15.599371587970493, 43.965044663838121 ], [ 15.601366773130271, 43.949891821025034 ], [ 15.575559039084393, 43.908165978428329 ], [ 15.541952375662564, 43.923243829470486 ] ] ] } },
{ "type": "Feature", "properties": { "population": 367, "longitude": 16.335223345165851, "latitude": 43.403253650030194, "BM": 94 }, "geometry": { "type": "Polygon", "coordinates": [ [ [ 16.303010550600984, 43.367058160749039 ], [ 16.332551111342017, 43.441826990356944 ], [ 16.374331604026185, 43.439671385525543 ], [ 16.335470378656222, 43.369793005214213 ], [ 16.300557401849332, 43.353487840929581 ], [ 16.303010550600984, 43.367058160749039 ] ] ] } },
{ "type": "Feature", "properties": { "population": 811, "longitude": 15.632417233077748, "latitude": 43.809140768317874, "BM": 95 }, "geometry": { "type": "Polygon", "coordinates": [ [ [ 15.634109360853104, 43.829404908326559 ], [ 15.643907037156723, 43.792442246120174 ], [ 15.619235301223414, 43.805575150506883 ], [ 15.634109360853104, 43.829404908326559 ] ] ] } },
{ "type": "Feature", "properties": { "population": 564, "longitude": 16.106795562941794, "latitude": 43.483187680656087, "BM": 96 }, "geometry": { "type": "Polygon", "coordinates": [ [ [ 16.074519739957623, 43.49837889047533 ], [ 16.112282936730939, 43.501868218280428 ], [ 16.124900578391049, 43.501776531069538 ], [ 16.147110161397343, 43.48703484226813 ], [ 16.115108009117101, 43.45628568552204 ], [ 16.06848271967835, 43.480879481483811 ], [ 16.070220230866681, 43.491097916247135 ], [ 16.074519739957623, 43.49837889047533 ] ] ] } },
{ "type": "Feature", "properties": { "population": 708, "longitude": 15.89422518218432, "latitude": 43.735642551826047, "BM": 97 }, "geometry": { "type": "Polygon", "coordinates": [ [ [ 15.894828266531514, 43.73861169913674 ], [ 15.894424344482241, 43.732577929254823 ], [ 15.893641993581026, 43.733885300773622 ], [ 15.893849678913483, 43.73743827590782 ], [ 15.894828266531514, 43.73861169913674 ] ] ] } },
{ "type": "Feature", "properties": { "population": 662, "longitude": 15.893160748365139, "latitude": 43.735661366503869, "BM": 98 }, "geometry": { "type": "Polygon", "coordinates": [ [ [ 15.893849678913483, 43.73743827590782 ], [ 15.893641993581026, 43.733885300773622 ], [ 15.891990572600905, 43.735660522830194 ], [ 15.893849678913483, 43.73743827590782 ] ] ] } },
{ "type": "Feature", "properties": { "population": 844, "longitude": 15.89307540083178, "latitude": 43.738882121085737, "BM": 99 }, "geometry": { "type": "Polygon", "coordinates": [ [ [ 15.894828266531514, 43.73861169913674 ], [ 15.893849678913483, 43.73743827590782 ], [ 15.891990572600905, 43.735660522830194 ], [ 15.890979472558225, 43.735360598120579 ], [ 15.889398632660878, 43.7381252259473 ], [ 15.897633309163698, 43.743466738084074 ], [ 15.894828266531514, 43.73861169913674 ] ] ] } },
{ "type": "Feature", "properties": { "population": 1073, "longitude": 15.898174380805651, "latitude": 43.740484111178816, "BM": 100 }, "geometry": { "type": "Polygon", "coordinates": [ [ [ 15.897633309163698, 43.743466738084074 ], [ 15.900230593977563, 43.746246718197106 ], [ 15.903794701288918, 43.747370771243588 ], [ 15.895780282431124, 43.733262832854791 ], [ 15.894443426207383, 43.732515543942476 ], [ 15.894424344482241, 43.732577929254823 ], [ 15.894828266531514, 43.73861169913674 ], [ 15.897633309163698, 43.743466738084074 ] ] ] } },
{ "type": "Feature", "properties": { "population": 453, "longitude": 16.516205479889759, "latitude": 43.534556152898801, "BM": 101 }, "geometry": { "type": "Polygon", "coordinates": [ [ [ 16.50660425266668, 43.545363980573484 ], [ 16.512070171318268, 43.548603855417326 ], [ 16.520527735967757, 43.546126592564534 ], [ 16.532148583240758, 43.534050413464662 ], [ 16.526881994266603, 43.52538973417726 ], [ 16.505792409575768, 43.521664536736402 ], [ 16.505641380340244, 43.521874183986654 ], [ 16.504911118634865, 43.526075738147902 ], [ 16.50467690533797, 43.539085926888134 ], [ 16.50660425266668, 43.545363980573484 ] ] ] } },
{ "type": "Feature", "properties": { "population": 663, "longitude": 15.89361613865653, "latitude": 43.727961960733225, "BM": 102 }, "geometry": { "type": "Polygon", "coordinates": [ [ [ 15.894443426207383, 43.732515543942476 ], [ 15.895780282431124, 43.733262832854791 ], [ 15.898472925659114, 43.732359699228176 ], [ 15.890247728324224, 43.721446985219039 ], [ 15.88842148808677, 43.72063644904518 ], [ 15.894443426207383, 43.732515543942476 ] ] ] } },
{ "type": "Feature", "properties": { "population": 545, "longitude": 15.900253453443346, "latitude": 43.728010286661906, "BM": 103 }, "geometry": { "type": "Polygon", "coordinates": [ [ [ 15.902522222285176, 43.734326247822302 ], [ 15.902304348363018, 43.724802487634285 ], [ 15.896191280605027, 43.723588104188785 ], [ 15.900700512239373, 43.732987138429088 ], [ 15.902522222285176, 43.734326247822302 ] ] ] } },
{ "type": "Feature", "properties": { "population": 217, "longitude": 15.89593599794936, "latitude": 43.726864038523821, "BM": 104 }, "geometry": { "type": "Polygon", "coordinates": [ [ [ 15.890247728324224, 43.721446985219039 ], [ 15.898472925659114, 43.732359699228176 ], [ 15.900700512239373, 43.732987138429088 ], [ 15.896191280605027, 43.723588104188785 ], [ 15.890247728324224, 43.721446985219039 ] ] ] } },
{ "type": "Feature", "properties": { "population": 1134, "longitude": 15.894137383125173, "latitude": 43.762431697443986, "BM": 105 }, "geometry": { "type": "Polygon", "coordinates": [ [ [ 15.85613091074085, 43.760584278159961 ], [ 15.911967357606581, 43.782258356877307 ], [ 15.917859123725801, 43.779218061249836 ], [ 15.913872024266627, 43.752000123328131 ], [ 15.912066778024382, 43.750834926695312 ], [ 15.903794701288918, 43.747370771243588 ], [ 15.900230593977563, 43.746246718197106 ], [ 15.890334194380682, 43.746494275542588 ], [ 15.85613091074085, 43.760584278159961 ] ] ] } },
{ "type": "Feature", "properties": { "population": 653, "longitude": 15.892238557898061, "latitude": 43.742864512692371, "BM": 106 }, "geometry": { "type": "Polygon", "coordinates": [ [ [ 15.890334194380682, 43.746494275542588 ], [ 15.900230593977563, 43.746246718197106 ], [ 15.897633309163698, 43.743466738084074 ], [ 15.889398632660878, 43.7381252259473 ], [ 15.885590534504999, 43.738292904687924 ], [ 15.890334194380682, 43.746494275542588 ] ] ] } },
{ "type": "Feature", "properties": { "population": 1251, "longitude": 15.877748359948518, "latitude": 43.788266534111855, "BM": 107 }, "geometry": { "type": "Polygon", "coordinates": [ [ [ 15.840948735075205, 43.767965730195556 ], [ 15.885721846731309, 43.826260418497036 ], [ 15.911967357606581, 43.782258356877307 ], [ 15.85613091074085, 43.760584278159961 ], [ 15.85504711635028, 43.760348343753158 ], [ 15.840948735075205, 43.767965730195556 ] ] ] } },
{ "type": "Feature", "properties": { "population": 531, "longitude": 15.845495416063748, "latitude": 43.815518887452868, "BM": 108 }, "geometry": { "type": "Polygon", "coordinates": [ [ [ 15.804526207190492, 43.796926176359904 ], [ 15.835668246361935, 43.8549530229282 ], [ 15.882354056508209, 43.84821547166149 ], [ 15.885721846731309, 43.826260418497036 ], [ 15.840948735075205, 43.767965730195556 ], [ 15.838001657319282, 43.768349886685336 ], [ 15.806760033067071, 43.793170730133909 ], [ 15.804526207190492, 43.796926176359904 ] ] ] } },
{ "type": "Feature", "properties": { "population": 951, "longitude": 15.812096531549713, "latitude": 43.759164783158674, "BM": 109 }, "geometry": { "type": "Polygon", "coordinates": [ [ [ 15.788312647095383, 43.752306175391126 ], [ 15.806760033067071, 43.793170730133909 ], [ 15.838001657319282, 43.768349886685336 ], [ 15.819621038366039, 43.729336184327686 ], [ 15.798047897290857, 43.736214000565894 ], [ 15.787679876144416, 43.750406758930062 ], [ 15.788312647095383, 43.752306175391126 ] ] ] } },
{ "type": "Feature", "properties": { "population": 286, "longitude": 16.027160954929158, "latitude": 43.471864285786211, "BM": 110 }, "geometry": { "type": "Polygon", "coordinates": [ [ [ 15.996111216671643, 43.455500521227492 ], [ 16.024584872935591, 43.516714304945808 ], [ 16.03568282966604, 43.517304495749997 ], [ 16.070220230866681, 43.491097916247135 ], [ 16.06848271967835, 43.480879481483811 ], [ 15.988996981430494, 43.410613238609692 ], [ 15.996111216671643, 43.455500521227492 ] ] ] } },
{ "type": "Feature", "properties": { "population": 1067, "longitude": 15.770328779121321, "latitude": 43.748727795176784, "BM": 111 }, "geometry": { "type": "Polygon", "coordinates": [ [ [ 15.787679876144416, 43.750406758930062 ], [ 15.761315251771146, 43.732294452696564 ], [ 15.760131534900554, 43.762103696798548 ], [ 15.788312647095383, 43.752306175391126 ], [ 15.787679876144416, 43.750406758930062 ] ] ] } },
{ "type": "Feature", "properties": { "population": 905, "longitude": 15.551768370717664, "latitude": 43.881965852496208, "BM": 112 }, "geometry": { "type": "Polygon", "coordinates": [ [ [ 15.541952375662564, 43.923243829470486 ], [ 15.575559039084393, 43.908165978428329 ], [ 15.590099723113672, 43.873195288899282 ], [ 15.575886839433647, 43.859104620815131 ], [ 15.548758693385652, 43.837872571795465 ], [ 15.511743085599017, 43.882556262989354 ], [ 15.541952375662564, 43.923243829470486 ] ] ] } }
]
}
