{
"type": "FeatureCollection",
"name": "output_zupanija_17",
"crs": { "type": "name", "properties": { "name": "urn:ogc:def:crs:EPSG::3765" } },
"features": [
{ "type": "Feature", "properties": { "population": 665, "longitude": 18.348565340070039, "latitude": 45.195314647968765, "BM": 1 }, "geometry": { "type": "Polygon", "coordinates": [ [ [ 18.329496118865706, 45.182842367139877 ], [ 18.327874760906756, 45.19526344600807 ], [ 18.378460495152606, 45.218363350912753 ], [ 18.378533216376479, 45.218163102299187 ], [ 18.344725294522437, 45.176297260538803 ], [ 18.329496118865706, 45.182842367139877 ] ] ] } },
{ "type": "Feature", "properties": { "population": 713, "longitude": 18.726424849376844, "latitude": 45.083544841447122, "BM": 2 }, "geometry": { "type": "Polygon", "coordinates": [ [ [ 18.698847301155872, 45.071569280128095 ], [ 18.746611028221658, 45.103032833157819 ], [ 18.735066327804418, 45.076875093409413 ], [ 18.698987194922278, 45.070930222666753 ], [ 18.698847301155872, 45.071569280128095 ] ] ] } },
{ "type": "Feature", "properties": { "population": 676, "longitude": 18.837183229308611, "latitude": 44.913796457474817, "BM": 3 }, "geometry": { "type": "Polygon", "coordinates": [ [ [ 18.844423072929143, 44.966835788377701 ], [ 18.857931444556097, 44.933883045479583 ], [ 18.845411547204801, 44.895177906214826 ], [ 18.825062387782783, 44.841866380866669 ], [ 18.8231175972378, 44.935453784494165 ], [ 18.844423072929143, 44.966835788377701 ] ] ] } },
{ "type": "Feature", "properties": { "population": 567, "longitude": 18.785856963206687, "latitude": 44.147000685636911, "BM": 4 }, "geometry": { "type": "Polygon", "coordinates": [ [ [ 18.593403949029899, 43.746060302096573 ], [ 18.584127168670058, 43.752128276403859 ], [ 18.825062387782783, 44.841866380866669 ], [ 18.845411547204801, 44.895177906214826 ], [ 18.884475897266057, 44.804917025827969 ], [ 18.901682186880301, 43.672652026376362 ], [ 18.626563485288269, 43.734175325438208 ], [ 18.593403949029899, 43.746060302096573 ] ] ] } },
{ "type": "Feature", "properties": { "population": 172, "longitude": 18.719016656582664, "latitude": 45.428483708911436, "BM": 5 }, "geometry": { "type": "Polygon", "coordinates": [ [ [ 18.701103082000486, 45.451050859387159 ], [ 18.719902467084701, 45.463224955927892 ], [ 18.737091824004246, 45.460525360658316 ], [ 18.740923774497027, 45.44244348299847 ], [ 18.727620235112873, 45.389017435197388 ], [ 18.726880542253447, 45.388281844910452 ], [ 18.703392939376247, 45.39691580487542 ], [ 18.703377975531417, 45.396921908082696 ], [ 18.697520308186967, 45.445210300274965 ], [ 18.701103082000486, 45.451050859387159 ] ] ] } },
{ "type": "Feature", "properties": { "population": 101, "longitude": 18.682474735954806, "latitude": 45.36063199299219, "BM": 6 }, "geometry": { "type": "Polygon", "coordinates": [ [ [ 18.654633392560012, 45.340686922494534 ], [ 18.649655274698969, 45.342936818798172 ], [ 18.656894428143797, 45.367477340599912 ], [ 18.703377975531417, 45.396921908082696 ], [ 18.703392939376247, 45.39691580487542 ], [ 18.70804763934958, 45.345922047090205 ], [ 18.684194227349408, 45.335442637332832 ], [ 18.675880321801962, 45.336163092218925 ], [ 18.655469500224516, 45.340486658626332 ], [ 18.654633392560012, 45.340686922494534 ] ] ] } },
{ "type": "Feature", "properties": { "population": 36, "longitude": 18.676891815278488, "latitude": 45.406647202155291, "BM": 7 }, "geometry": { "type": "Polygon", "coordinates": [ [ [ 18.655733057211375, 45.375693798737068 ], [ 18.650427135578607, 45.417254705469489 ], [ 18.697520308186967, 45.445210300274965 ], [ 18.703377975531417, 45.396921908082696 ], [ 18.656894428143797, 45.367477340599912 ], [ 18.655733057211375, 45.375693798737068 ] ] ] } },
{ "type": "Feature", "properties": { "population": 246, "longitude": 18.716810902227621, "latitude": 45.371271818073467, "BM": 8 }, "geometry": { "type": "Polygon", "coordinates": [ [ [ 18.70804763934958, 45.345922047090205 ], [ 18.703392939376247, 45.39691580487542 ], [ 18.726880542253447, 45.388281844910452 ], [ 18.732215690750653, 45.355735740101665 ], [ 18.70804763934958, 45.345922047090205 ] ] ] } },
{ "type": "Feature", "properties": { "population": 549, "longitude": 18.75193190730019, "latitude": 45.37416845572745, "BM": 9 }, "geometry": { "type": "Polygon", "coordinates": [ [ [ 18.726880542253447, 45.388281844910452 ], [ 18.727620235112873, 45.389017435197388 ], [ 18.768661488705067, 45.398781032594556 ], [ 18.777446481606663, 45.394341063853659 ], [ 18.767951723014502, 45.357379167739047 ], [ 18.75512014232401, 45.345959487914193 ], [ 18.732215690750653, 45.355735740101665 ], [ 18.726880542253447, 45.388281844910452 ] ] ] } },
{ "type": "Feature", "properties": { "population": 266, "longitude": 18.777570376088679, "latitude": 45.435712124981755, "BM": 10 }, "geometry": { "type": "Polygon", "coordinates": [ [ [ 18.778333426239577, 45.477420038588527 ], [ 18.814872324878323, 45.435270239930929 ], [ 18.814251834958817, 45.409997630861625 ], [ 18.777446481606663, 45.394341063853659 ], [ 18.768661488705067, 45.398781032594556 ], [ 18.740923774497027, 45.44244348299847 ], [ 18.737091824004246, 45.460525360658316 ], [ 18.778333426239577, 45.477420038588527 ] ] ] } },
{ "type": "Feature", "properties": { "population": 258, "longitude": 18.745735166104989, "latitude": 45.410080650263467, "BM": 11 }, "geometry": { "type": "Polygon", "coordinates": [ [ [ 18.740923774497027, 45.44244348299847 ], [ 18.768661488705067, 45.398781032594556 ], [ 18.727620235112873, 45.389017435197388 ], [ 18.740923774497027, 45.44244348299847 ] ] ] } },
{ "type": "Feature", "properties": { "population": 956, "longitude": 18.693083313661845, "latitude": 45.262732546171009, "BM": 12 }, "geometry": { "type": "Polygon", "coordinates": [ [ [ 18.678048267653846, 45.270670771586062 ], [ 18.685631172735075, 45.288758045555859 ], [ 18.694028347753484, 45.287096007090071 ], [ 18.712274665869522, 45.255310937113919 ], [ 18.694783722686264, 45.23917998493566 ], [ 18.686533194552482, 45.238527230535375 ], [ 18.678048267653846, 45.270670771586062 ] ] ] } },
{ "type": "Feature", "properties": { "population": 618, "longitude": 18.707549643548326, "latitude": 45.197471911258567, "BM": 13 }, "geometry": { "type": "Polygon", "coordinates": [ [ [ 18.686533194552482, 45.238527230535375 ], [ 18.694783722686264, 45.23917998493566 ], [ 18.74244438139176, 45.176491863714844 ], [ 18.69389494030731, 45.167404307406741 ], [ 18.686194735874491, 45.238410222772025 ], [ 18.686533194552482, 45.238527230535375 ] ] ] } },
{ "type": "Feature", "properties": { "population": 1283, "longitude": 18.676081401626075, "latitude": 45.316604050217656, "BM": 14 }, "geometry": { "type": "Polygon", "coordinates": [ [ [ 18.655469500224516, 45.340486658626332 ], [ 18.675880321801962, 45.336163092218925 ], [ 18.694028347753484, 45.287096007090071 ], [ 18.685631172735075, 45.288758045555859 ], [ 18.655469500224516, 45.340486658626332 ] ] ] } },
{ "type": "Feature", "properties": { "population": 1205, "longitude": 18.706958881628221, "latitude": 45.293733747681401, "BM": 15 }, "geometry": { "type": "Polygon", "coordinates": [ [ [ 18.694028347753484, 45.287096007090071 ], [ 18.675880321801962, 45.336163092218925 ], [ 18.684194227349408, 45.335442637332832 ], [ 18.733413063343054, 45.289041773303431 ], [ 18.730495397791017, 45.267375833318283 ], [ 18.712274665869522, 45.255310937113919 ], [ 18.694028347753484, 45.287096007090071 ] ] ] } },
{ "type": "Feature", "properties": { "population": 939, "longitude": 18.748967569674715, "latitude": 45.218845369982212, "BM": 16 }, "geometry": { "type": "Polygon", "coordinates": [ [ [ 18.712274665869522, 45.255310937113919 ], [ 18.730495397791017, 45.267375833318283 ], [ 18.776106608512741, 45.245890925677315 ], [ 18.795283917734487, 45.226536411456671 ], [ 18.773462366158451, 45.161210342799244 ], [ 18.74244438139176, 45.176491863714844 ], [ 18.694783722686264, 45.23917998493566 ], [ 18.712274665869522, 45.255310937113919 ] ] ] } },
{ "type": "Feature", "properties": { "population": 376, "longitude": 18.672488530486255, "latitude": 45.300911832686758, "BM": 17 }, "geometry": { "type": "Polygon", "coordinates": [ [ [ 18.655469500224516, 45.340486658626332 ], [ 18.685631172735075, 45.288758045555859 ], [ 18.678048267653846, 45.270670771586062 ], [ 18.654633392560012, 45.340686922494534 ], [ 18.655469500224516, 45.340486658626332 ] ] ] } },
{ "type": "Feature", "properties": { "population": 1010, "longitude": 18.654562353019955, "latitude": 45.280341146304522, "BM": 18 }, "geometry": { "type": "Polygon", "coordinates": [ [ [ 18.649655274698969, 45.342936818798172 ], [ 18.654633392560012, 45.340686922494534 ], [ 18.678048267653846, 45.270670771586062 ], [ 18.686533194552482, 45.238527230535375 ], [ 18.686194735874491, 45.238410222772025 ], [ 18.641425600152399, 45.225540482068226 ], [ 18.63058501729752, 45.334173771289443 ], [ 18.630748061806116, 45.33615610796226 ], [ 18.649655274698969, 45.342936818798172 ] ] ] } },
{ "type": "Feature", "properties": { "population": 524, "longitude": 18.724847539148843, "latitude": 45.14357752577844, "BM": 19 }, "geometry": { "type": "Polygon", "coordinates": [ [ [ 18.69389494030731, 45.167404307406741 ], [ 18.74244438139176, 45.176491863714844 ], [ 18.773462366158451, 45.161210342799244 ], [ 18.777689626617065, 45.149438262725411 ], [ 18.784726392013695, 45.129408912643051 ], [ 18.749789110680709, 45.110176495994388 ], [ 18.747888793287331, 45.110173169685908 ], [ 18.703998936557884, 45.1162427549786 ], [ 18.646798895122526, 45.152949624814248 ], [ 18.69389494030731, 45.167404307406741 ] ] ] } },
{ "type": "Feature", "properties": { "population": 853, "longitude": 18.653851699549005, "latitude": 45.192509779608919, "BM": 20 }, "geometry": { "type": "Polygon", "coordinates": [ [ [ 18.60239447675195, 45.189597506244212 ], [ 18.641425600152399, 45.225540482068226 ], [ 18.686194735874491, 45.238410222772025 ], [ 18.69389494030731, 45.167404307406741 ], [ 18.646798895122526, 45.152949624814248 ], [ 18.643153446770782, 45.153499282412433 ], [ 18.611742515476227, 45.17044504034547 ], [ 18.60239447675195, 45.189597506244212 ] ] ] } },
{ "type": "Feature", "properties": { "population": 1014, "longitude": 18.695472260958383, "latitude": 45.073553823563643, "BM": 21 }, "geometry": { "type": "Polygon", "coordinates": [ [ [ 18.693064083556841, 45.080008658990465 ], [ 18.69666639057737, 45.080067474199168 ], [ 18.698847301155872, 45.071569280128095 ], [ 18.698987194922278, 45.070930222666753 ], [ 18.698240306053865, 45.068534155779524 ], [ 18.692780908951171, 45.067463869219459 ], [ 18.693064083556841, 45.080008658990465 ] ] ] } },
{ "type": "Feature", "properties": { "population": 636, "longitude": 18.944689262182003, "latitude": 45.169707829982123, "BM": 22 }, "geometry": { "type": "Polygon", "coordinates": [ [ [ 18.918672256564747, 45.188762426904582 ], [ 18.983643220120506, 45.18486890493233 ], [ 18.992933006939055, 45.177789172246065 ], [ 18.991763042016743, 45.169748484203659 ], [ 18.915635961983291, 45.140199677658316 ], [ 18.909586180831052, 45.187172160066993 ], [ 18.918672256564747, 45.188762426904582 ] ] ] } },
{ "type": "Feature", "properties": { "population": 801, "longitude": 18.717730741634391, "latitude": 45.061895105904064, "BM": 23 }, "geometry": { "type": "Polygon", "coordinates": [ [ [ 18.698987194922278, 45.070930222666753 ], [ 18.735066327804418, 45.076875093409413 ], [ 18.721200704122761, 45.038347036325383 ], [ 18.698240306053865, 45.068534155779524 ], [ 18.698987194922278, 45.070930222666753 ] ] ] } },
{ "type": "Feature", "properties": { "population": 731, "longitude": 18.721169649990685, "latitude": 45.090435932887665, "BM": 24 }, "geometry": { "type": "Polygon", "coordinates": [ [ [ 18.69666639057737, 45.080067474199168 ], [ 18.747888793287331, 45.110173169685908 ], [ 18.749789110680709, 45.110176495994388 ], [ 18.746611028221658, 45.103032833157819 ], [ 18.698847301155872, 45.071569280128095 ], [ 18.69666639057737, 45.080067474199168 ] ] ] } },
{ "type": "Feature", "properties": { "population": 867, "longitude": 18.67077203626749, "latitude": 45.066140416955399, "BM": 25 }, "geometry": { "type": "Polygon", "coordinates": [ [ [ 18.662608126135979, 45.079162080232884 ], [ 18.672843048541779, 45.083816939023919 ], [ 18.693064083556841, 45.080008658990465 ], [ 18.692780908951171, 45.067463869219459 ], [ 18.645443585317409, 45.039771728796303 ], [ 18.662608126135979, 45.079162080232884 ] ] ] } },
{ "type": "Feature", "properties": { "population": 123, "longitude": 18.659668446164549, "latitude": 44.993761617945481, "BM": 26 }, "geometry": { "type": "Polygon", "coordinates": [ [ [ 18.590347812359042, 44.938136007823168 ], [ 18.645443585317409, 45.039771728796303 ], [ 18.692780908951171, 45.067463869219459 ], [ 18.698240306053865, 45.068534155779524 ], [ 18.721200704122761, 45.038347036325383 ], [ 18.715932393456811, 45.014631199998284 ], [ 18.710099781660624, 44.989250499573046 ], [ 18.707403602597584, 44.978066829306393 ], [ 18.590117550987944, 44.91086475795894 ], [ 18.590347812359042, 44.938136007823168 ] ] ] } },
{ "type": "Feature", "properties": { "population": 713, "longitude": 18.726424849376844, "latitude": 45.083544841447122, "BM": 27 }, "geometry": { "type": "Polygon", "coordinates": [ [ [ 18.698847301155872, 45.071569280128095 ], [ 18.746611028221658, 45.103032833157819 ], [ 18.735066327804418, 45.076875093409413 ], [ 18.698987194922278, 45.070930222666753 ], [ 18.698847301155872, 45.071569280128095 ] ] ] } },
{ "type": "Feature", "properties": { "population": 806, "longitude": 18.760429996649421, "latitude": 45.082348731915303, "BM": 28 }, "geometry": { "type": "Polygon", "coordinates": [ [ [ 18.721200704122761, 45.038347036325383 ], [ 18.735066327804418, 45.076875093409413 ], [ 18.746611028221658, 45.103032833157819 ], [ 18.749789110680709, 45.110176495994388 ], [ 18.784726392013695, 45.129408912643051 ], [ 18.80494826504529, 45.117556569742973 ], [ 18.80875525108954, 45.11242041792152 ], [ 18.759892685227342, 45.05506262239598 ], [ 18.715932393456811, 45.014631199998284 ], [ 18.721200704122761, 45.038347036325383 ] ] ] } },
{ "type": "Feature", "properties": { "population": 493, "longitude": 18.670240582650514, "latitude": 45.115855598936605, "BM": 29 }, "geometry": { "type": "Polygon", "coordinates": [ [ [ 18.643153446770782, 45.153499282412433 ], [ 18.646798895122526, 45.152949624814248 ], [ 18.703998936557884, 45.1162427549786 ], [ 18.672843048541779, 45.083816939023919 ], [ 18.662608126135979, 45.079162080232884 ], [ 18.643153446770782, 45.153499282412433 ] ] ] } },
{ "type": "Feature", "properties": { "population": 735, "longitude": 18.829770188139467, "latitude": 45.165639342343781, "BM": 30 }, "geometry": { "type": "Polygon", "coordinates": [ [ [ 18.777689626617065, 45.149438262725411 ], [ 18.867599198214386, 45.216124347361756 ], [ 18.885739760446782, 45.193542927326888 ], [ 18.879285179963723, 45.187351203375933 ], [ 18.869892663151177, 45.178420055089006 ], [ 18.80494826504529, 45.117556569742973 ], [ 18.784726392013695, 45.129408912643051 ], [ 18.777689626617065, 45.149438262725411 ] ] ] } },
{ "type": "Feature", "properties": { "population": 805, "longitude": 18.811021035425398, "latitude": 45.297344531552099, "BM": 31 }, "geometry": { "type": "Polygon", "coordinates": [ [ [ 18.808518542711489, 45.296918928574605 ], [ 18.813388795118101, 45.301381152948679 ], [ 18.811710316505252, 45.294874554698232 ], [ 18.810024258174543, 45.29445826062161 ], [ 18.808518542711489, 45.296918928574605 ] ] ] } },
{ "type": "Feature", "properties": { "population": 1027, "longitude": 18.727625632336451, "latitude": 45.32672352404591, "BM": 32 }, "geometry": { "type": "Polygon", "coordinates": [ [ [ 18.70804763934958, 45.345922047090205 ], [ 18.732215690750653, 45.355735740101665 ], [ 18.75512014232401, 45.345959487914193 ], [ 18.759873121048088, 45.323195087366557 ], [ 18.734398491113851, 45.290087477080412 ], [ 18.733413063343054, 45.289041773303431 ], [ 18.684194227349408, 45.335442637332832 ], [ 18.70804763934958, 45.345922047090205 ] ] ] } },
{ "type": "Feature", "properties": { "population": 612, "longitude": 18.757966594758233, "latitude": 45.271922632650451, "BM": 33 }, "geometry": { "type": "Polygon", "coordinates": [ [ [ 18.733413063343054, 45.289041773303431 ], [ 18.734398491113851, 45.290087477080412 ], [ 18.779303279665392, 45.287077071543671 ], [ 18.782149305804339, 45.281251875123239 ], [ 18.776106608512741, 45.245890925677315 ], [ 18.730495397791017, 45.267375833318283 ], [ 18.733413063343054, 45.289041773303431 ] ] ] } },
{ "type": "Feature", "properties": { "population": 633, "longitude": 18.790916835698994, "latitude": 45.034296614428342, "BM": 34 }, "geometry": { "type": "Polygon", "coordinates": [ [ [ 18.710099781660624, 44.989250499573046 ], [ 18.759892685227342, 45.05506262239598 ], [ 18.80875525108954, 45.11242041792152 ], [ 18.855609674669946, 45.051095018906899 ], [ 18.834650744163664, 44.99768312635554 ], [ 18.707403602597584, 44.978066829306393 ], [ 18.710099781660624, 44.989250499573046 ] ] ] } },
{ "type": "Feature", "properties": { "population": 638, "longitude": 18.884081757625111, "latitude": 44.934733193323261, "BM": 35 }, "geometry": { "type": "Polygon", "coordinates": [ [ [ 18.844599374083341, 44.971472682014756 ], [ 18.855199346212292, 44.96854929123058 ], [ 18.917265100939876, 44.950550128189036 ], [ 18.912727772063157, 44.924629443608019 ], [ 18.90792277370802, 44.899606924788344 ], [ 18.884038184526041, 44.89610170979531 ], [ 18.857931444556097, 44.933883045479583 ], [ 18.844423072929143, 44.966835788377701 ], [ 18.844599374083341, 44.971472682014756 ] ] ] } },
{ "type": "Feature", "properties": { "population": 477, "longitude": 18.881303766222644, "latitude": 45.012684095110664, "BM": 36 }, "geometry": { "type": "Polygon", "coordinates": [ [ [ 18.834650744163664, 44.99768312635554 ], [ 18.855609674669946, 45.051095018906899 ], [ 18.907593258680741, 45.064933788433628 ], [ 18.90856203046037, 45.065186437567384 ], [ 18.927775883970469, 44.982308421851052 ], [ 18.925451871101206, 44.981130282964209 ], [ 18.855199346212292, 44.96854929123058 ], [ 18.844599374083341, 44.971472682014756 ], [ 18.834650744163664, 44.99768312635554 ] ] ] } },
{ "type": "Feature", "properties": { "population": 676, "longitude": 18.837183229308611, "latitude": 44.913796457474817, "BM": 37 }, "geometry": { "type": "Polygon", "coordinates": [ [ [ 18.844423072929143, 44.966835788377701 ], [ 18.857931444556097, 44.933883045479583 ], [ 18.845411547204801, 44.895177906214826 ], [ 18.825062387782783, 44.841866380866669 ], [ 18.8231175972378, 44.935453784494165 ], [ 18.844423072929143, 44.966835788377701 ] ] ] } },
{ "type": "Feature", "properties": { "population": 814, "longitude": 18.860074796860214, "latitude": 45.108094710727855, "BM": 38 }, "geometry": { "type": "Polygon", "coordinates": [ [ [ 18.80494826504529, 45.117556569742973 ], [ 18.869892663151177, 45.178420055089006 ], [ 18.884217876922353, 45.144939450098171 ], [ 18.907593258680741, 45.064933788433628 ], [ 18.855609674669946, 45.051095018906899 ], [ 18.80875525108954, 45.11242041792152 ], [ 18.80494826504529, 45.117556569742973 ] ] ] } },
{ "type": "Feature", "properties": { "population": 1054, "longitude": 18.793763071162967, "latitude": 45.255254245332907, "BM": 39 }, "geometry": { "type": "Polygon", "coordinates": [ [ [ 18.782149305804339, 45.281251875123239 ], [ 18.789493313440385, 45.285365730053705 ], [ 18.797806588286278, 45.283959023452212 ], [ 18.809666917077262, 45.254533482874379 ], [ 18.811424922758047, 45.234625864342703 ], [ 18.795283917734487, 45.226536411456671 ], [ 18.776106608512741, 45.245890925677315 ], [ 18.782149305804339, 45.281251875123239 ] ] ] } },
{ "type": "Feature", "properties": { "population": 412, "longitude": 18.596997924201773, "latitude": 45.301215454190967, "BM": 40 }, "geometry": { "type": "Polygon", "coordinates": [ [ [ 18.592251432399962, 45.328317745189061 ], [ 18.615761118554836, 45.340180274148253 ], [ 18.630748061806116, 45.33615610796226 ], [ 18.63058501729752, 45.334173771289443 ], [ 18.576714216711373, 45.24127249613371 ], [ 18.57563615086838, 45.298331131866931 ], [ 18.592251432399962, 45.328317745189061 ] ] ] } },
{ "type": "Feature", "properties": { "population": 832, "longitude": 18.609536862037974, "latitude": 45.247351342798474, "BM": 41 }, "geometry": { "type": "Polygon", "coordinates": [ [ [ 18.571298424365427, 45.216828982233139 ], [ 18.576714216711373, 45.24127249613371 ], [ 18.63058501729752, 45.334173771289443 ], [ 18.641425600152399, 45.225540482068226 ], [ 18.60239447675195, 45.189597506244212 ], [ 18.568905462096879, 45.202754389447087 ], [ 18.571298424365427, 45.216828982233139 ] ] ] } },
{ "type": "Feature", "properties": { "population": 602, "longitude": 18.573345067503357, "latitude": 45.155107882368704, "BM": 42 }, "geometry": { "type": "Polygon", "coordinates": [ [ [ 18.541595713303867, 45.176433577539441 ], [ 18.557987217381992, 45.203121697724384 ], [ 18.568905462096879, 45.202754389447087 ], [ 18.60239447675195, 45.189597506244212 ], [ 18.611742515476227, 45.17044504034547 ], [ 18.59225724553826, 45.104181124003574 ], [ 18.538185887566168, 45.12225506927426 ], [ 18.541595713303867, 45.176433577539441 ] ] ] } },
{ "type": "Feature", "properties": { "population": 793, "longitude": 18.61531463564539, "latitude": 45.064004231451698, "BM": 43 }, "geometry": { "type": "Polygon", "coordinates": [ [ [ 18.590347812359042, 44.938136007823168 ], [ 18.573924336635944, 45.021603577154515 ], [ 18.57547580612383, 45.031509445580717 ], [ 18.59225724553826, 45.104181124003574 ], [ 18.611742515476227, 45.17044504034547 ], [ 18.643153446770782, 45.153499282412433 ], [ 18.662608126135979, 45.079162080232884 ], [ 18.645443585317409, 45.039771728796303 ], [ 18.590347812359042, 44.938136007823168 ] ] ] } },
{ "type": "Feature", "properties": { "population": 635, "longitude": 18.546112789030801, "latitude": 45.249297812341773, "BM": 44 }, "geometry": { "type": "Polygon", "coordinates": [ [ [ 18.521709170834093, 45.237896805855762 ], [ 18.53049558804635, 45.299839718489089 ], [ 18.555026100333858, 45.295211102816992 ], [ 18.565766433089259, 45.245507196654152 ], [ 18.571298424365427, 45.216828982233139 ], [ 18.568905462096879, 45.202754389447087 ], [ 18.557987217381992, 45.203121697724384 ], [ 18.534656251568066, 45.215134423825617 ], [ 18.521709170834093, 45.237896805855762 ] ] ] } },
{ "type": "Feature", "properties": { "population": 253, "longitude": 18.529758451567226, "latitude": 45.142397728804838, "BM": 45 }, "geometry": { "type": "Polygon", "coordinates": [ [ [ 18.538185887566168, 45.12225506927426 ], [ 18.538079076576444, 45.121930108874913 ], [ 18.524998598821963, 45.112565493124961 ], [ 18.514251803593208, 45.147009568858287 ], [ 18.541595713303867, 45.176433577539441 ], [ 18.538185887566168, 45.12225506927426 ] ] ] } },
{ "type": "Feature", "properties": { "population": 830, "longitude": 18.56854706789634, "latitude": 45.08601220871072, "BM": 46 }, "geometry": { "type": "Polygon", "coordinates": [ [ [ 18.538079076576444, 45.121930108874913 ], [ 18.538185887566168, 45.12225506927426 ], [ 18.59225724553826, 45.104181124003574 ], [ 18.57547580612383, 45.031509445580717 ], [ 18.538079076576444, 45.121930108874913 ] ] ] } },
{ "type": "Feature", "properties": { "population": 310, "longitude": 18.500681676492601, "latitude": 45.174276831961144, "BM": 47 }, "geometry": { "type": "Polygon", "coordinates": [ [ [ 18.455914903030681, 45.189148411271532 ], [ 18.534656251568066, 45.215134423825617 ], [ 18.557987217381992, 45.203121697724384 ], [ 18.541595713303867, 45.176433577539441 ], [ 18.514251803593208, 45.147009568858287 ], [ 18.487559471410254, 45.127606143085572 ], [ 18.459847695289444, 45.141175664737624 ], [ 18.454814000777574, 45.188163791013899 ], [ 18.455914903030681, 45.189148411271532 ] ] ] } },
{ "type": "Feature", "properties": { "population": 602, "longitude": 18.573345067503357, "latitude": 45.155107882368704, "BM": 48 }, "geometry": { "type": "Polygon", "coordinates": [ [ [ 18.541595713303867, 45.176433577539441 ], [ 18.557987217381992, 45.203121697724384 ], [ 18.568905462096879, 45.202754389447087 ], [ 18.60239447675195, 45.189597506244212 ], [ 18.611742515476227, 45.17044504034547 ], [ 18.59225724553826, 45.104181124003574 ], [ 18.538185887566168, 45.12225506927426 ], [ 18.541595713303867, 45.176433577539441 ] ] ] } },
{ "type": "Feature", "properties": { "population": 492, "longitude": 18.556217759524142, "latitude": 45.313579933789669, "BM": 49 }, "geometry": { "type": "Polygon", "coordinates": [ [ [ 18.527954419680146, 45.326739400903129 ], [ 18.532524247803103, 45.32779503749321 ], [ 18.592251432399962, 45.328317745189061 ], [ 18.57563615086838, 45.298331131866931 ], [ 18.559329725169526, 45.295520967336643 ], [ 18.555026100333858, 45.295211102816992 ], [ 18.53049558804635, 45.299839718489089 ], [ 18.524668641440851, 45.325807632709257 ], [ 18.527954419680146, 45.326739400903129 ] ] ] } },
{ "type": "Feature", "properties": { "population": 523, "longitude": 18.560040752864211, "latitude": 45.278746422269258, "BM": 50 }, "geometry": { "type": "Polygon", "coordinates": [ [ [ 18.555026100333858, 45.295211102816992 ], [ 18.559329725169526, 45.295520967336643 ], [ 18.565766433089259, 45.245507196654152 ], [ 18.555026100333858, 45.295211102816992 ] ] ] } },
{ "type": "Feature", "properties": { "population": 596, "longitude": 18.569695255140289, "latitude": 45.265820709152962, "BM": 51 }, "geometry": { "type": "Polygon", "coordinates": [ [ [ 18.565766433089259, 45.245507196654152 ], [ 18.559329725169526, 45.295520967336643 ], [ 18.57563615086838, 45.298331131866931 ], [ 18.576714216711373, 45.24127249613371 ], [ 18.571298424365427, 45.216828982233139 ], [ 18.565766433089259, 45.245507196654152 ] ] ] } },
{ "type": "Feature", "properties": { "population": 327, "longitude": 18.50704579441939, "latitude": 45.285237546751361, "BM": 52 }, "geometry": { "type": "Polygon", "coordinates": [ [ [ 18.475655138818858, 45.27507621629055 ], [ 18.498157398534854, 45.321633058086086 ], [ 18.519842252310557, 45.328532611869413 ], [ 18.524668641440851, 45.325807632709257 ], [ 18.53049558804635, 45.299839718489089 ], [ 18.521709170834093, 45.237896805855762 ], [ 18.478681015871725, 45.266512062801901 ], [ 18.475655138818858, 45.27507621629055 ] ] ] } },
{ "type": "Feature", "properties": { "population": 518, "longitude": 18.507164733687556, "latitude": 45.117146331366769, "BM": 53 }, "geometry": { "type": "Polygon", "coordinates": [ [ [ 18.487559471410254, 45.127606143085572 ], [ 18.514251803593208, 45.147009568858287 ], [ 18.524998598821963, 45.112565493124961 ], [ 18.513537826587044, 45.087401887066143 ], [ 18.493270313864606, 45.10298246129112 ], [ 18.487559471410254, 45.127606143085572 ] ] ] } },
{ "type": "Feature", "properties": { "population": 576, "longitude": 19.072091688485447, "latitude": 45.359457617569582, "BM": 54 }, "geometry": { "type": "Polygon", "coordinates": [ [ [ 19.088403832920879, 45.420478967991698 ], [ 19.146330177171567, 45.406744120602163 ], [ 19.116067284796838, 45.346328829758825 ], [ 19.051115128842579, 45.295830226464631 ], [ 18.997988614450918, 45.312545203477775 ], [ 19.009087245241375, 45.338875729157074 ], [ 19.063247894144197, 45.407624115468849 ], [ 19.088403832920879, 45.420478967991698 ] ] ] } },
{ "type": "Feature", "properties": { "population": 501, "longitude": 18.998687857293376, "latitude": 45.329489371298365, "BM": 55 }, "geometry": { "type": "Polygon", "coordinates": [ [ [ 18.998893702489433, 45.345988859814597 ], [ 19.005812622521983, 45.34764670939731 ], [ 19.009087245241375, 45.338875729157074 ], [ 18.997988614450918, 45.312545203477775 ], [ 18.986843646929714, 45.313839465940895 ], [ 18.998893702489433, 45.345988859814597 ] ] ] } },
{ "type": "Feature", "properties": { "population": 233, "longitude": 19.092634928270389, "latitude": 45.286816234036365, "BM": 56 }, "geometry": { "type": "Polygon", "coordinates": [ [ [ 19.051115128842579, 45.295830226464631 ], [ 19.116067284796838, 45.346328829758825 ], [ 19.12786726150885, 45.257825897253838 ], [ 19.085156780396627, 45.241886279278908 ], [ 19.074800425297337, 45.238252407581719 ], [ 19.049329317883192, 45.290307758602204 ], [ 19.051115128842579, 45.295830226464631 ] ] ] } },
{ "type": "Feature", "properties": { "population": 213, "longitude": 19.174436528860006, "latitude": 45.341432019814832, "BM": 57 }, "geometry": { "type": "Polygon", "coordinates": [ [ [ 19.116067284796838, 45.346328829758825 ], [ 19.146330177171567, 45.406744120602163 ], [ 19.227275019670447, 45.440885757732289 ], [ 19.245178127328941, 45.448330516405335 ], [ 19.190369780172759, 45.242747220314961 ], [ 19.131434145253639, 45.247573742365624 ], [ 19.12786726150885, 45.257825897253838 ], [ 19.116067284796838, 45.346328829758825 ] ] ] } },
{ "type": "Feature", "properties": { "population": 583, "longitude": 19.027940890453486, "latitude": 45.415121915147992, "BM": 58 }, "geometry": { "type": "Polygon", "coordinates": [ [ [ 19.088403832920879, 45.420478967991698 ], [ 19.063247894144197, 45.407624115468849 ], [ 19.057230237273178, 45.404994162059069 ], [ 18.975636046398233, 45.406992030111773 ], [ 18.964385644131621, 45.419437991158553 ], [ 19.080081812928434, 45.426180914488022 ], [ 19.088403832920879, 45.420478967991698 ] ] ] } },
{ "type": "Feature", "properties": { "population": 621, "longitude": 19.031634956663275, "latitude": 45.373949897112105, "BM": 59 }, "geometry": { "type": "Polygon", "coordinates": [ [ [ 19.046870773675092, 45.400085085627531 ], [ 19.057230237273178, 45.404994162059069 ], [ 19.063247894144197, 45.407624115468849 ], [ 19.009087245241375, 45.338875729157074 ], [ 19.005812622521983, 45.34764670939731 ], [ 19.042705585362775, 45.395653093165301 ], [ 19.046870773675092, 45.400085085627531 ] ] ] } },
{ "type": "Feature", "properties": { "population": 455, "longitude": 19.001876644480394, "latitude": 45.286060770755405, "BM": 60 }, "geometry": { "type": "Polygon", "coordinates": [ [ [ 18.967566798904379, 45.312815256895938 ], [ 18.986843646929714, 45.313839465940895 ], [ 18.997988614450918, 45.312545203477775 ], [ 19.051115128842579, 45.295830226464631 ], [ 19.049329317883192, 45.290307758602204 ], [ 19.027414805627892, 45.258314933893452 ], [ 18.991985812937692, 45.254300607820838 ], [ 18.95332139383018, 45.296648081207991 ], [ 18.967566798904379, 45.312815256895938 ] ] ] } },
{ "type": "Feature", "properties": { "population": 212, "longitude": 19.050023398048666, "latitude": 45.242398671410243, "BM": 61 }, "geometry": { "type": "Polygon", "coordinates": [ [ [ 19.049329317883192, 45.290307758602204 ], [ 19.074800425297337, 45.238252407581719 ], [ 19.073927952384558, 45.229315493520062 ], [ 19.071328887620353, 45.212717437241608 ], [ 19.033919893395346, 45.207691033084586 ], [ 19.027414805627892, 45.258314933893452 ], [ 19.049329317883192, 45.290307758602204 ] ] ] } },
{ "type": "Feature", "properties": { "population": 77, "longitude": 19.055983111418843, "latitude": 45.18587977462208, "BM": 62 }, "geometry": { "type": "Polygon", "coordinates": [ [ [ 19.018158253718088, 45.186217537656532 ], [ 19.033919893395346, 45.207691033084586 ], [ 19.071328887620353, 45.212717437241608 ], [ 19.081826865388276, 45.206942712874508 ], [ 19.077407319867824, 45.148405108135108 ], [ 19.034633572090836, 45.173893846470889 ], [ 19.018158253718088, 45.186217537656532 ] ] ] } },
{ "type": "Feature", "properties": { "population": 528, "longitude": 19.102146098549188, "latitude": 45.221623232307465, "BM": 63 }, "geometry": { "type": "Polygon", "coordinates": [ [ [ 19.073927952384558, 45.229315493520062 ], [ 19.091999931368093, 45.233872891986223 ], [ 19.130338524022378, 45.237784923913971 ], [ 19.128042505380186, 45.210007567461702 ], [ 19.081826865388276, 45.206942712874508 ], [ 19.071328887620353, 45.212717437241608 ], [ 19.073927952384558, 45.229315493520062 ] ] ] } },
{ "type": "Feature", "properties": { "population": 79, "longitude": 19.081763942197352, "latitude": 45.23551656560641, "BM": 64 }, "geometry": { "type": "Polygon", "coordinates": [ [ [ 19.074800425297337, 45.238252407581719 ], [ 19.085156780396627, 45.241886279278908 ], [ 19.091999931368093, 45.233872891986223 ], [ 19.073927952384558, 45.229315493520062 ], [ 19.074800425297337, 45.238252407581719 ] ] ] } },
{ "type": "Feature", "properties": { "population": 266, "longitude": 19.005217955856747, "latitude": 45.219201425207743, "BM": 65 }, "geometry": { "type": "Polygon", "coordinates": [ [ [ 18.983643220120506, 45.18486890493233 ], [ 18.97563569410293, 45.225202193415321 ], [ 18.991985812937692, 45.254300607820838 ], [ 19.027414805627892, 45.258314933893452 ], [ 19.033919893395346, 45.207691033084586 ], [ 19.018158253718088, 45.186217537656532 ], [ 18.992933006939055, 45.177789172246065 ], [ 18.983643220120506, 45.18486890493233 ] ] ] } },
{ "type": "Feature", "properties": { "population": 684, "longitude": 18.982899412256824, "latitude": 45.332296778205333, "BM": 66 }, "geometry": { "type": "Polygon", "coordinates": [ [ [ 18.966247289534206, 45.320438891549742 ], [ 18.982728324581235, 45.353845743860695 ], [ 18.995573335116582, 45.351707774298291 ], [ 18.998644230728868, 45.349030234119638 ], [ 18.998893702489433, 45.345988859814597 ], [ 18.986843646929714, 45.313839465940895 ], [ 18.967566798904379, 45.312815256895938 ], [ 18.966247289534206, 45.320438891549742 ] ] ] } },
{ "type": "Feature", "properties": { "population": 548, "longitude": 19.015535033396468, "latitude": 45.364863609227328, "BM": 67 }, "geometry": { "type": "Polygon", "coordinates": [ [ [ 19.042705585362775, 45.395653093165301 ], [ 19.005812622521983, 45.34764670939731 ], [ 18.998893702489433, 45.345988859814597 ], [ 18.998644230728868, 45.349030234119638 ], [ 19.010439357701863, 45.364610012513744 ], [ 19.042705585362775, 45.395653093165301 ] ] ] } },
{ "type": "Feature", "properties": { "population": 260, "longitude": 19.011309697552825, "latitude": 45.156481555776296, "BM": 68 }, "geometry": { "type": "Polygon", "coordinates": [ [ [ 18.992933006939055, 45.177789172246065 ], [ 19.018158253718088, 45.186217537656532 ], [ 19.034633572090836, 45.173893846470889 ], [ 19.035967284417989, 45.144488295201022 ], [ 19.035087004975288, 45.142516360884024 ], [ 19.034540643058623, 45.141418814658934 ], [ 18.987597802286516, 45.12439273455584 ], [ 18.991763042016743, 45.169748484203659 ], [ 18.992933006939055, 45.177789172246065 ] ] ] } },
{ "type": "Feature", "properties": { "population": 199, "longitude": 19.111881633980303, "latitude": 45.243810227911439, "BM": 69 }, "geometry": { "type": "Polygon", "coordinates": [ [ [ 19.12786726150885, 45.257825897253838 ], [ 19.131434145253639, 45.247573742365624 ], [ 19.130338524022378, 45.237784923913971 ], [ 19.091999931368093, 45.233872891986223 ], [ 19.085156780396627, 45.241886279278908 ], [ 19.12786726150885, 45.257825897253838 ] ] ] } },
{ "type": "Feature", "properties": { "population": 385, "longitude": 19.07630864042142, "latitude": 45.102650898082139, "BM": 70 }, "geometry": { "type": "Polygon", "coordinates": [ [ [ 19.034633572090836, 45.173893846470889 ], [ 19.077407319867824, 45.148405108135108 ], [ 19.099541642945724, 45.118542607773648 ], [ 19.112984180802901, 45.035287684258954 ], [ 19.087901595207789, 45.03238603684472 ], [ 19.035967284417989, 45.144488295201022 ], [ 19.034633572090836, 45.173893846470889 ] ] ] } },
{ "type": "Feature", "properties": { "population": 339, "longitude": 19.039380360998081, "latitude": 45.070101914077057, "BM": 71 }, "geometry": { "type": "Polygon", "coordinates": [ [ [ 19.035087004975288, 45.142516360884024 ], [ 19.062837298848802, 45.029054310273949 ], [ 19.056183877124031, 45.028163272582724 ], [ 19.019935588998116, 45.040599926410643 ], [ 19.034540643058623, 45.141418814658934 ], [ 19.035087004975288, 45.142516360884024 ] ] ] } },
{ "type": "Feature", "properties": { "population": 636, "longitude": 18.944689262182003, "latitude": 45.169707829982123, "BM": 72 }, "geometry": { "type": "Polygon", "coordinates": [ [ [ 18.918672256564747, 45.188762426904582 ], [ 18.983643220120506, 45.18486890493233 ], [ 18.992933006939055, 45.177789172246065 ], [ 18.991763042016743, 45.169748484203659 ], [ 18.915635961983291, 45.140199677658316 ], [ 18.909586180831052, 45.187172160066993 ], [ 18.918672256564747, 45.188762426904582 ] ] ] } },
{ "type": "Feature", "properties": { "population": 555, "longitude": 19.008073575310231, "latitude": 45.376740822056249, "BM": 73 }, "geometry": { "type": "Polygon", "coordinates": [ [ [ 19.042705585362775, 45.395653093165301 ], [ 19.010439357701863, 45.364610012513744 ], [ 18.996770696738256, 45.356259022390766 ], [ 18.983816257463008, 45.359180283833744 ], [ 18.984683411645083, 45.377140122635069 ], [ 18.998842928381976, 45.384874053001681 ], [ 19.046870773675092, 45.400085085627531 ], [ 19.042705585362775, 45.395653093165301 ] ] ] } },
{ "type": "Feature", "properties": { "population": 1210, "longitude": 19.007402022934045, "latitude": 45.091635729061466, "BM": 74 }, "geometry": { "type": "Polygon", "coordinates": [ [ [ 18.987597802286516, 45.12439273455584 ], [ 19.034540643058623, 45.141418814658934 ], [ 19.019935588998116, 45.040599926410643 ], [ 19.004644813074052, 45.045630671461161 ], [ 18.981041606774038, 45.061309062847997 ], [ 18.987597802286516, 45.12439273455584 ] ] ] } },
{ "type": "Feature", "properties": { "population": 350, "longitude": 19.250630634587221, "latitude": 44.412897251179039, "BM": 75 }, "geometry": { "type": "Polygon", "coordinates": [ [ [ 19.4035844, 43.548178661502845 ], [ 19.290936563916247, 43.578542235127266 ], [ 18.99556067629878, 44.876143905513047 ], [ 19.056183877124031, 45.028163272582724 ], [ 19.062837298848802, 45.029054310273949 ], [ 19.087901595207789, 45.03238603684472 ], [ 19.112984180802901, 45.035287684258954 ], [ 19.325453619455576, 44.962706893214751 ], [ 19.368308704942745, 44.919518645941288 ], [ 19.4035844, 44.88045984263433 ], [ 19.4035844, 43.548178661502845 ] ] ] } },
{ "type": "Feature", "properties": { "population": 578, "longitude": 19.101353340764497, "latitude": 45.173345939157358, "BM": 76 }, "geometry": { "type": "Polygon", "coordinates": [ [ [ 19.077407319867824, 45.148405108135108 ], [ 19.081826865388276, 45.206942712874508 ], [ 19.128042505380186, 45.210007567461702 ], [ 19.132211035959656, 45.203052019452258 ], [ 19.123480584587494, 45.174366976580863 ], [ 19.099541642945724, 45.118542607773648 ], [ 19.077407319867824, 45.148405108135108 ] ] ] } },
{ "type": "Feature", "properties": { "population": 409, "longitude": 19.205043046694446, "latitude": 45.068512088066214, "BM": 77 }, "geometry": { "type": "Polygon", "coordinates": [ [ [ 19.112984180802901, 45.035287684258954 ], [ 19.099541642945724, 45.118542607773648 ], [ 19.123480584587494, 45.174366976580863 ], [ 19.285417755885142, 45.102655861221642 ], [ 19.308121630262416, 45.024725297969937 ], [ 19.315811509528949, 44.997485319310037 ], [ 19.325453619455576, 44.962706893214751 ], [ 19.112984180802901, 45.035287684258954 ] ] ] } },
{ "type": "Feature", "properties": { "population": 199, "longitude": 19.111881633980303, "latitude": 45.243810227911439, "BM": 78 }, "geometry": { "type": "Polygon", "coordinates": [ [ [ 19.12786726150885, 45.257825897253838 ], [ 19.131434145253639, 45.247573742365624 ], [ 19.130338524022378, 45.237784923913971 ], [ 19.091999931368093, 45.233872891986223 ], [ 19.085156780396627, 45.241886279278908 ], [ 19.12786726150885, 45.257825897253838 ] ] ] } },
{ "type": "Feature", "properties": { "population": 409, "longitude": 19.205043046694446, "latitude": 45.068512088066214, "BM": 79 }, "geometry": { "type": "Polygon", "coordinates": [ [ [ 19.112984180802901, 45.035287684258954 ], [ 19.099541642945724, 45.118542607773648 ], [ 19.123480584587494, 45.174366976580863 ], [ 19.285417755885142, 45.102655861221642 ], [ 19.308121630262416, 45.024725297969937 ], [ 19.315811509528949, 44.997485319310037 ], [ 19.325453619455576, 44.962706893214751 ], [ 19.112984180802901, 45.035287684258954 ] ] ] } },
{ "type": "Feature", "properties": { "population": 604, "longitude": 19.169592901622313, "latitude": 45.216641789773227, "BM": 80 }, "geometry": { "type": "Polygon", "coordinates": [ [ [ 19.131434145253639, 45.247573742365624 ], [ 19.190369780172759, 45.242747220314961 ], [ 19.220427985402633, 45.180112025196742 ], [ 19.132211035959656, 45.203052019452258 ], [ 19.128042505380186, 45.210007567461702 ], [ 19.130338524022378, 45.237784923913971 ], [ 19.131434145253639, 45.247573742365624 ] ] ] } },
{ "type": "Feature", "properties": { "population": 156, "longitude": 19.264161354249282, "latitude": 45.319856310420732, "BM": 81 }, "geometry": { "type": "Polygon", "coordinates": [ [ [ 19.220427985402633, 45.180112025196742 ], [ 19.190369780172759, 45.242747220314961 ], [ 19.245178127328941, 45.448330516405335 ], [ 19.339558329066708, 45.501713948449904 ], [ 19.276203759367551, 45.137100978931826 ], [ 19.220427985402633, 45.180112025196742 ] ] ] } },
{ "type": "Feature", "properties": { "population": 942, "longitude": 19.335878580135724, "latitude": 45.094169433113436, "BM": 82 }, "geometry": { "type": "Polygon", "coordinates": [ [ [ 19.374883448959, 45.225033666811925 ], [ 19.315811509528949, 44.997485319310037 ], [ 19.308121630262416, 45.024725297969937 ], [ 19.375032174512558, 45.234283428047888 ], [ 19.374883448959, 45.225033666811925 ] ] ] } },
{ "type": "Feature", "properties": { "population": 650, "longitude": 19.376200737694784, "latitude": 45.231334501442646, "BM": 83 }, "geometry": { "type": "Polygon", "coordinates": [ [ [ 19.375032174512558, 45.234283428047888 ], [ 19.377065491007954, 45.246619453978369 ], [ 19.377104107611213, 45.219031752539237 ], [ 19.374883448959, 45.225033666811925 ], [ 19.375032174512558, 45.234283428047888 ] ] ] } },
{ "type": "Feature", "properties": { "population": 974, "longitude": 19.343908284753031, "latitude": 45.305476492770104, "BM": 84 }, "geometry": { "type": "Polygon", "coordinates": [ [ [ 19.4035844, 45.433297014631897 ], [ 19.377065491007954, 45.246619453978369 ], [ 19.375032174512558, 45.234283428047888 ], [ 19.308121630262416, 45.024725297969937 ], [ 19.285417755885142, 45.102655861221642 ], [ 19.276203759367551, 45.137100978931826 ], [ 19.339558329066708, 45.501713948449904 ], [ 19.4035844, 45.56700410961593 ], [ 19.4035844, 45.433297014631897 ] ] ] } },
{ "type": "Feature", "properties": { "population": 367, "longitude": 19.356363827461376, "latitude": 45.053712617007577, "BM": 85 }, "geometry": { "type": "Polygon", "coordinates": [ [ [ 19.315811509528949, 44.997485319310037 ], [ 19.374883448959, 45.225033666811925 ], [ 19.377104107611213, 45.219031752539237 ], [ 19.386178164607365, 45.174885555457834 ], [ 19.368308704942745, 44.919518645941288 ], [ 19.325453619455576, 44.962706893214751 ], [ 19.315811509528949, 44.997485319310037 ] ] ] } },
{ "type": "Feature", "properties": { "population": 399, "longitude": 19.20468170228412, "latitude": 45.158346575189363, "BM": 86 }, "geometry": { "type": "Polygon", "coordinates": [ [ [ 19.285417755885142, 45.102655861221642 ], [ 19.123480584587494, 45.174366976580863 ], [ 19.132211035959656, 45.203052019452258 ], [ 19.220427985402633, 45.180112025196742 ], [ 19.276203759367551, 45.137100978931826 ], [ 19.285417755885142, 45.102655861221642 ] ] ] } },
{ "type": "Feature", "properties": { "population": 967, "longitude": 19.390780774579312, "latitude": 45.290935407461411, "BM": 87 }, "geometry": { "type": "Polygon", "coordinates": [ [ [ 19.4035844, 45.357191563166019 ], [ 19.386178164607365, 45.174885555457834 ], [ 19.377104107611213, 45.219031752539237 ], [ 19.377065491007954, 45.246619453978369 ], [ 19.4035844, 45.433297014631897 ], [ 19.4035844, 45.357191563166019 ] ] ] } },
{ "type": "Feature", "properties": { "population": 533, "longitude": 19.391443225779337, "latitude": 45.058861835211658, "BM": 88 }, "geometry": { "type": "Polygon", "coordinates": [ [ [ 19.4035844, 44.88045984263433 ], [ 19.368308704942745, 44.919518645941288 ], [ 19.386178164607365, 45.174885555457834 ], [ 19.4035844, 45.357191563166019 ], [ 19.4035844, 44.88045984263433 ] ] ] } },
{ "type": "Feature", "properties": { "population": 522, "longitude": 18.93067487441002, "latitude": 45.323017365465361, "BM": 89 }, "geometry": { "type": "Polygon", "coordinates": [ [ [ 18.889193813476911, 45.319877425753653 ], [ 18.929923701304599, 45.359490738174671 ], [ 18.94129343068818, 45.356316907834064 ], [ 18.952452319804891, 45.347106078692676 ], [ 18.966247289534206, 45.320438891549742 ], [ 18.967566798904379, 45.312815256895938 ], [ 18.95332139383018, 45.296648081207991 ], [ 18.94402925327481, 45.2928598243167 ], [ 18.890106682964916, 45.307015185753222 ], [ 18.889193813476911, 45.319877425753653 ] ] ] } },
{ "type": "Feature", "properties": { "population": 252, "longitude": 18.962434919024357, "latitude": 45.259646456564873, "BM": 90 }, "geometry": { "type": "Polygon", "coordinates": [ [ [ 18.94402925327481, 45.2928598243167 ], [ 18.95332139383018, 45.296648081207991 ], [ 18.991985812937692, 45.254300607820838 ], [ 18.97563569410293, 45.225202193415321 ], [ 18.948813971574516, 45.240528121541814 ], [ 18.938594706279428, 45.25736731963682 ], [ 18.94402925327481, 45.2928598243167 ] ] ] } },
{ "type": "Feature", "properties": { "population": 586, "longitude": 18.953400387935361, "latitude": 45.362095431383132, "BM": 91 }, "geometry": { "type": "Polygon", "coordinates": [ [ [ 18.96676640991442, 45.367676807004429 ], [ 18.952452319804891, 45.347106078692676 ], [ 18.94129343068818, 45.356316907834064 ], [ 18.948438642980388, 45.371356348316056 ], [ 18.955257939949025, 45.375333837633868 ], [ 18.96676640991442, 45.367676807004429 ] ] ] } },
{ "type": "Feature", "properties": { "population": 502, "longitude": 18.969867242220285, "latitude": 45.351265665756159, "BM": 92 }, "geometry": { "type": "Polygon", "coordinates": [ [ [ 18.952452319804891, 45.347106078692676 ], [ 18.96676640991442, 45.367676807004429 ], [ 18.980658275905835, 45.377406491428928 ], [ 18.984683411645083, 45.377140122635069 ], [ 18.983816257463008, 45.359180283833744 ], [ 18.982728324581235, 45.353845743860695 ], [ 18.966247289534206, 45.320438891549742 ], [ 18.952452319804891, 45.347106078692676 ] ] ] } },
{ "type": "Feature", "properties": { "population": 435, "longitude": 18.864579452121344, "latitude": 45.331679540783107, "BM": 93 }, "geometry": { "type": "Polygon", "coordinates": [ [ [ 18.846383623344373, 45.30901756987469 ], [ 18.843187064315963, 45.328111715198844 ], [ 18.851277459636414, 45.376618853131092 ], [ 18.8611966212449, 45.375309461907115 ], [ 18.866252540598929, 45.369879952630882 ], [ 18.889193813476911, 45.319877425753653 ], [ 18.890106682964916, 45.307015185753222 ], [ 18.875679891427424, 45.294010960651057 ], [ 18.846383623344373, 45.30901756987469 ] ] ] } },
{ "type": "Feature", "properties": { "population": 472, "longitude": 18.935357991939512, "latitude": 45.381938993265521, "BM": 94 }, "geometry": { "type": "Polygon", "coordinates": [ [ [ 18.937088326086421, 45.415125644850967 ], [ 18.937914864470116, 45.414087253809122 ], [ 18.948438642980388, 45.371356348316056 ], [ 18.94129343068818, 45.356316907834064 ], [ 18.929923701304599, 45.359490738174671 ], [ 18.921754416642369, 45.376249886566725 ], [ 18.931648612487379, 45.409584205947311 ], [ 18.937088326086421, 45.415125644850967 ] ] ] } },
{ "type": "Feature", "properties": { "population": 326, "longitude": 18.913781053271311, "latitude": 45.280723204316324, "BM": 95 }, "geometry": { "type": "Polygon", "coordinates": [ [ [ 18.875679891427424, 45.294010960651057 ], [ 18.890106682964916, 45.307015185753222 ], [ 18.94402925327481, 45.2928598243167 ], [ 18.938594706279428, 45.25736731963682 ], [ 18.924130314095713, 45.247293809402308 ], [ 18.874794662332761, 45.29199292414188 ], [ 18.875679891427424, 45.294010960651057 ] ] ] } },
{ "type": "Feature", "properties": { "population": 738, "longitude": 18.897837584325828, "latitude": 45.354448547023246, "BM": 96 }, "geometry": { "type": "Polygon", "coordinates": [ [ [ 18.866252540598929, 45.369879952630882 ], [ 18.921754416642369, 45.376249886566725 ], [ 18.929923701304599, 45.359490738174671 ], [ 18.889193813476911, 45.319877425753653 ], [ 18.866252540598929, 45.369879952630882 ] ] ] } },
{ "type": "Feature", "properties": { "population": 658, "longitude": 18.91308635862114, "latitude": 44.965466100839222, "BM": 97 }, "geometry": { "type": "Polygon", "coordinates": [ [ [ 18.855199346212292, 44.96854929123058 ], [ 18.925451871101206, 44.981130282964209 ], [ 18.929107414265832, 44.981013211672099 ], [ 18.951603760218678, 44.970100555800258 ], [ 18.937372599819351, 44.947671803192229 ], [ 18.91931435616441, 44.950100670464835 ], [ 18.917265100939876, 44.950550128189036 ], [ 18.855199346212292, 44.96854929123058 ] ] ] } },
{ "type": "Feature", "properties": { "population": 517, "longitude": 18.916022529205861, "latitude": 44.931465167348584, "BM": 98 }, "geometry": { "type": "Polygon", "coordinates": [ [ [ 18.917265100939876, 44.950550128189036 ], [ 18.91931435616441, 44.950100670464835 ], [ 18.915627580137247, 44.909752524564986 ], [ 18.912727772063157, 44.924629443608019 ], [ 18.917265100939876, 44.950550128189036 ] ] ] } },
{ "type": "Feature", "properties": { "population": 696, "longitude": 18.951481435045274, "latitude": 45.027283705542523, "BM": 99 }, "geometry": { "type": "Polygon", "coordinates": [ [ [ 18.918941174174027, 45.067988529419132 ], [ 18.981041606774038, 45.061309062847997 ], [ 19.004644813074052, 45.045630671461161 ], [ 18.951603760218678, 44.970100555800258 ], [ 18.929107414265832, 44.981013211672099 ], [ 18.927775883970469, 44.982308421851052 ], [ 18.90856203046037, 45.065186437567384 ], [ 18.918941174174027, 45.067988529419132 ] ] ] } },
{ "type": "Feature", "properties": { "population": 387, "longitude": 18.927445056445833, "latitude": 44.981483972162458, "BM": 100 }, "geometry": { "type": "Polygon", "coordinates": [ [ [ 18.927775883970469, 44.982308421851052 ], [ 18.929107414265832, 44.981013211672099 ], [ 18.925451871101206, 44.981130282964209 ], [ 18.927775883970469, 44.982308421851052 ] ] ] } },
{ "type": "Feature", "properties": { "population": 924, "longitude": 18.937031422449103, "latitude": 44.91859467639955, "BM": 101 }, "geometry": { "type": "Polygon", "coordinates": [ [ [ 18.91931435616441, 44.950100670464835 ], [ 18.937372599819351, 44.947671803192229 ], [ 18.971767646932562, 44.894633573335646 ], [ 18.914825732483834, 44.899929936946847 ], [ 18.915627580137247, 44.909752524564986 ], [ 18.91931435616441, 44.950100670464835 ] ] ] } },
{ "type": "Feature", "properties": { "population": 850, "longitude": 18.912315952737064, "latitude": 44.908701354922684, "BM": 102 }, "geometry": { "type": "Polygon", "coordinates": [ [ [ 18.90792277370802, 44.899606924788344 ], [ 18.912727772063157, 44.924629443608019 ], [ 18.915627580137247, 44.909752524564986 ], [ 18.914825732483834, 44.899929936946847 ], [ 18.90792277370802, 44.899606924788344 ] ] ] } },
{ "type": "Feature", "properties": { "population": 976, "longitude": 18.901450775094705, "latitude": 45.137314230830064, "BM": 103 }, "geometry": { "type": "Polygon", "coordinates": [ [ [ 18.885739760446782, 45.193542927326888 ], [ 18.901664130435556, 45.191622602332082 ], [ 18.909586180831052, 45.187172160066993 ], [ 18.915635961983291, 45.140199677658316 ], [ 18.918941174174027, 45.067988529419132 ], [ 18.90856203046037, 45.065186437567384 ], [ 18.907593258680741, 45.064933788433628 ], [ 18.884217876922353, 45.144939450098171 ], [ 18.879285179963723, 45.187351203375933 ], [ 18.885739760446782, 45.193542927326888 ] ] ] } },
{ "type": "Feature", "properties": { "population": 206, "longitude": 19.03228803001327, "latitude": 44.141870102440755, "BM": 104 }, "geometry": { "type": "Polygon", "coordinates": [ [ [ 18.901682186880301, 43.672652026376362 ], [ 18.884475897266057, 44.804917025827969 ], [ 18.884038184526041, 44.89610170979531 ], [ 18.90792277370802, 44.899606924788344 ], [ 18.914825732483834, 44.899929936946847 ], [ 18.971767646932562, 44.894633573335646 ], [ 18.99556067629878, 44.876143905513047 ], [ 19.290936563916247, 43.578542235127266 ], [ 19.199080470984477, 43.597776395287141 ], [ 18.901682186880301, 43.672652026376362 ] ] ] } },
{ "type": "Feature", "properties": { "population": 653, "longitude": 18.949039320863481, "latitude": 45.391329174239608, "BM": 105 }, "geometry": { "type": "Polygon", "coordinates": [ [ [ 18.937914864470116, 45.414087253809122 ], [ 18.957660159794059, 45.39520614976248 ], [ 18.955930882756796, 45.37689993244993 ], [ 18.955257939949025, 45.375333837633868 ], [ 18.948438642980388, 45.371356348316056 ], [ 18.937914864470116, 45.414087253809122 ] ] ] } },
{ "type": "Feature", "properties": { "population": 687, "longitude": 18.967439665327252, "latitude": 45.374239643334164, "BM": 106 }, "geometry": { "type": "Polygon", "coordinates": [ [ [ 18.955257939949025, 45.375333837633868 ], [ 18.955930882756796, 45.37689993244993 ], [ 18.979249846065656, 45.378342486495569 ], [ 18.980658275905835, 45.377406491428928 ], [ 18.96676640991442, 45.367676807004429 ], [ 18.955257939949025, 45.375333837633868 ] ] ] } },
{ "type": "Feature", "properties": { "population": 505, "longitude": 18.964295705806808, "latitude": 45.383575273376515, "BM": 107 }, "geometry": { "type": "Polygon", "coordinates": [ [ [ 18.957660159794059, 45.39520614976248 ], [ 18.958877020615219, 45.394569022721079 ], [ 18.979249846065656, 45.378342486495569 ], [ 18.955930882756796, 45.37689993244993 ], [ 18.957660159794059, 45.39520614976248 ] ] ] } },
{ "type": "Feature", "properties": { "population": 277, "longitude": 18.957040632870129, "latitude": 45.409968641872368, "BM": 108 }, "geometry": { "type": "Polygon", "coordinates": [ [ [ 18.937088326086421, 45.415125644850967 ], [ 18.93940022177901, 45.425066352959597 ], [ 18.964385644131621, 45.419437991158553 ], [ 18.975636046398233, 45.406992030111773 ], [ 18.977771592783309, 45.400356558218107 ], [ 18.958877020615219, 45.394569022721079 ], [ 18.957660159794059, 45.39520614976248 ], [ 18.937914864470116, 45.414087253809122 ], [ 18.937088326086421, 45.415125644850967 ] ] ] } },
{ "type": "Feature", "properties": { "population": 701, "longitude": 18.954478312774302, "latitude": 45.207343776856717, "BM": 109 }, "geometry": { "type": "Polygon", "coordinates": [ [ [ 18.948813971574516, 45.240528121541814 ], [ 18.97563569410293, 45.225202193415321 ], [ 18.983643220120506, 45.18486890493233 ], [ 18.918672256564747, 45.188762426904582 ], [ 18.948813971574516, 45.240528121541814 ] ] ] } },
{ "type": "Feature", "properties": { "population": 313, "longitude": 18.924125627019546, "latitude": 45.222428684806893, "BM": 110 }, "geometry": { "type": "Polygon", "coordinates": [ [ [ 18.91493145341742, 45.240819881696346 ], [ 18.924130314095713, 45.247293809402308 ], [ 18.938594706279428, 45.25736731963682 ], [ 18.948813971574516, 45.240528121541814 ], [ 18.918672256564747, 45.188762426904582 ], [ 18.909586180831052, 45.187172160066993 ], [ 18.901664130435556, 45.191622602332082 ], [ 18.91493145341742, 45.240819881696346 ] ] ] } },
{ "type": "Feature", "properties": { "population": 386, "longitude": 18.979326507805599, "latitude": 45.388806259048145, "BM": 111 }, "geometry": { "type": "Polygon", "coordinates": [ [ [ 18.979249846065656, 45.378342486495569 ], [ 18.958877020615219, 45.394569022721079 ], [ 18.977771592783309, 45.400356558218107 ], [ 18.998842928381976, 45.384874053001681 ], [ 18.984683411645083, 45.377140122635069 ], [ 18.980658275905835, 45.377406491428928 ], [ 18.979249846065656, 45.378342486495569 ] ] ] } },
{ "type": "Feature", "properties": { "population": 555, "longitude": 19.008073575310231, "latitude": 45.376740822056249, "BM": 112 }, "geometry": { "type": "Polygon", "coordinates": [ [ [ 19.042705585362775, 45.395653093165301 ], [ 19.010439357701863, 45.364610012513744 ], [ 18.996770696738256, 45.356259022390766 ], [ 18.983816257463008, 45.359180283833744 ], [ 18.984683411645083, 45.377140122635069 ], [ 18.998842928381976, 45.384874053001681 ], [ 19.046870773675092, 45.400085085627531 ], [ 19.042705585362775, 45.395653093165301 ] ] ] } },
{ "type": "Feature", "properties": { "population": 785, "longitude": 18.989565706963408, "latitude": 45.355288161180653, "BM": 113 }, "geometry": { "type": "Polygon", "coordinates": [ [ [ 18.983816257463008, 45.359180283833744 ], [ 18.996770696738256, 45.356259022390766 ], [ 18.995573335116582, 45.351707774298291 ], [ 18.982728324581235, 45.353845743860695 ], [ 18.983816257463008, 45.359180283833744 ] ] ] } },
{ "type": "Feature", "properties": { "population": 237, "longitude": 18.995691320012359, "latitude": 45.44718626690689, "BM": 114 }, "geometry": { "type": "Polygon", "coordinates": [ [ [ 18.938708462754338, 45.429568119039921 ], [ 18.932954314923428, 45.46881012600312 ], [ 19.012600157828849, 45.482044826712439 ], [ 19.052893078883685, 45.44964588845022 ], [ 19.080081812928434, 45.426180914488022 ], [ 18.964385644131621, 45.419437991158553 ], [ 18.93940022177901, 45.425066352959597 ], [ 18.938708462754338, 45.429568119039921 ] ] ] } },
{ "type": "Feature", "properties": { "population": 754, "longitude": 18.906470164837309, "latitude": 45.446303577154929, "BM": 115 }, "geometry": { "type": "Polygon", "coordinates": [ [ [ 18.918904234222225, 45.477165043330615 ], [ 18.924156191405547, 45.47464768740624 ], [ 18.932954314923428, 45.46881012600312 ], [ 18.938708462754338, 45.429568119039921 ], [ 18.877824382304475, 45.414006371504534 ], [ 18.879614497549014, 45.463981624394521 ], [ 18.882905273492213, 45.467852203579 ], [ 18.918904234222225, 45.477165043330615 ] ] ] } },
{ "type": "Feature", "properties": { "population": 54, "longitude": 18.908443114753663, "latitude": 45.413499707070578, "BM": 116 }, "geometry": { "type": "Polygon", "coordinates": [ [ [ 18.877824382304475, 45.414006371504534 ], [ 18.938708462754338, 45.429568119039921 ], [ 18.93940022177901, 45.425066352959597 ], [ 18.937088326086421, 45.415125644850967 ], [ 18.931648612487379, 45.409584205947311 ], [ 18.877068460501029, 45.39847212857353 ], [ 18.877824382304475, 45.414006371504534 ] ] ] } },
{ "type": "Feature", "properties": { "population": 699, "longitude": 19.010070164336309, "latitude": 45.398775851468137, "BM": 117 }, "geometry": { "type": "Polygon", "coordinates": [ [ [ 18.977771592783309, 45.400356558218107 ], [ 18.975636046398233, 45.406992030111773 ], [ 19.057230237273178, 45.404994162059069 ], [ 19.046870773675092, 45.400085085627531 ], [ 18.998842928381976, 45.384874053001681 ], [ 18.977771592783309, 45.400356558218107 ] ] ] } },
{ "type": "Feature", "properties": { "population": 307, "longitude": 19.001304610381819, "latitude": 45.356071715576746, "BM": 118 }, "geometry": { "type": "Polygon", "coordinates": [ [ [ 18.996770696738256, 45.356259022390766 ], [ 19.010439357701863, 45.364610012513744 ], [ 18.998644230728868, 45.349030234119638 ], [ 18.995573335116582, 45.351707774298291 ], [ 18.996770696738256, 45.356259022390766 ] ] ] } },
{ "type": "Feature", "properties": { "population": 1021, "longitude": 18.829596304144246, "latitude": 45.333160694920984, "BM": 119 }, "geometry": { "type": "Polygon", "coordinates": [ [ [ 18.817035481006645, 45.35053040743307 ], [ 18.825568153705976, 45.360399146308197 ], [ 18.843187064315963, 45.328111715198844 ], [ 18.846383623344373, 45.30901756987469 ], [ 18.830723823662233, 45.314792927783976 ], [ 18.814651513126869, 45.332255712683619 ], [ 18.817035481006645, 45.35053040743307 ] ] ] } },
{ "type": "Feature", "properties": { "population": 1237, "longitude": 18.848250422128849, "latitude": 45.29254923454495, "BM": 120 }, "geometry": { "type": "Polygon", "coordinates": [ [ [ 18.830723823662233, 45.314792927783976 ], [ 18.846383623344373, 45.30901756987469 ], [ 18.875679891427424, 45.294010960651057 ], [ 18.874794662332761, 45.29199292414188 ], [ 18.867579077145109, 45.27562909839078 ], [ 18.861633105127087, 45.26846778144273 ], [ 18.839629422372809, 45.28028864392531 ], [ 18.820864140761355, 45.298368542024356 ], [ 18.821038017860136, 45.302546708381641 ], [ 18.830723823662233, 45.314792927783976 ] ] ] } },
{ "type": "Feature", "properties": { "population": 620, "longitude": 18.839818978627424, "latitude": 45.357951864837993, "BM": 121 }, "geometry": { "type": "Polygon", "coordinates": [ [ [ 18.839861996834628, 45.378506077091657 ], [ 18.851277459636414, 45.376618853131092 ], [ 18.843187064315963, 45.328111715198844 ], [ 18.825568153705976, 45.360399146308197 ], [ 18.839861996834628, 45.378506077091657 ] ] ] } },
{ "type": "Feature", "properties": { "population": 360, "longitude": 18.784592515909619, "latitude": 45.33772104074373, "BM": 122 }, "geometry": { "type": "Polygon", "coordinates": [ [ [ 18.75512014232401, 45.345959487914193 ], [ 18.767951723014502, 45.357379167739047 ], [ 18.817035481006645, 45.35053040743307 ], [ 18.814651513126869, 45.332255712683619 ], [ 18.807969231614152, 45.32708191602152 ], [ 18.780504128293824, 45.315920295010876 ], [ 18.775905058121943, 45.316145730662662 ], [ 18.759873121048088, 45.323195087366557 ], [ 18.75512014232401, 45.345959487914193 ] ] ] } },
{ "type": "Feature", "properties": { "population": 600, "longitude": 18.803125061250196, "latitude": 45.377613174917066, "BM": 123 }, "geometry": { "type": "Polygon", "coordinates": [ [ [ 18.777446481606663, 45.394341063853659 ], [ 18.814251834958817, 45.409997630861625 ], [ 18.839861996834628, 45.378506077091657 ], [ 18.825568153705976, 45.360399146308197 ], [ 18.817035481006645, 45.35053040743307 ], [ 18.767951723014502, 45.357379167739047 ], [ 18.777446481606663, 45.394341063853659 ] ] ] } },
{ "type": "Feature", "properties": { "population": 760, "longitude": 18.816883297206438, "latitude": 45.315584030909882, "BM": 124 }, "geometry": { "type": "Polygon", "coordinates": [ [ [ 18.807969231614152, 45.32708191602152 ], [ 18.814651513126869, 45.332255712683619 ], [ 18.830723823662233, 45.314792927783976 ], [ 18.821038017860136, 45.302546708381641 ], [ 18.813579990067552, 45.301939279934921 ], [ 18.808075184213497, 45.304477220474304 ], [ 18.807969231614152, 45.32708191602152 ] ] ] } },
{ "type": "Feature", "properties": { "population": 805, "longitude": 18.811021035425398, "latitude": 45.297344531552099, "BM": 125 }, "geometry": { "type": "Polygon", "coordinates": [ [ [ 18.808518542711489, 45.296918928574605 ], [ 18.813388795118101, 45.301381152948679 ], [ 18.811710316505252, 45.294874554698232 ], [ 18.810024258174543, 45.29445826062161 ], [ 18.808518542711489, 45.296918928574605 ] ] ] } },
{ "type": "Feature", "properties": { "population": 690, "longitude": 18.811221958909762, "latitude": 45.291898025083661, "BM": 126 }, "geometry": { "type": "Polygon", "coordinates": [ [ [ 18.810024258174543, 45.29445826062161 ], [ 18.811710316505252, 45.294874554698232 ], [ 18.814074044444766, 45.29376526730794 ], [ 18.81382186550108, 45.291264923215529 ], [ 18.810934143034586, 45.288016306735493 ], [ 18.807950099587352, 45.292056569130821 ], [ 18.810024258174543, 45.29445826062161 ] ] ] } },
{ "type": "Feature", "properties": { "population": 674, "longitude": 18.816504086538934, "latitude": 45.298289645079002, "BM": 127 }, "geometry": { "type": "Polygon", "coordinates": [ [ [ 18.813579990067552, 45.301939279934921 ], [ 18.821038017860136, 45.302546708381641 ], [ 18.820864140761355, 45.298368542024356 ], [ 18.818866065808159, 45.294753592920308 ], [ 18.814074044444766, 45.29376526730794 ], [ 18.811710316505252, 45.294874554698232 ], [ 18.813388795118101, 45.301381152948679 ], [ 18.813579990067552, 45.301939279934921 ] ] ] } },
{ "type": "Feature", "properties": { "population": 773, "longitude": 18.805568229860977, "latitude": 45.296302743863912, "BM": 128 }, "geometry": { "type": "Polygon", "coordinates": [ [ [ 18.804569783360002, 45.301413519483219 ], [ 18.808518542711489, 45.296918928574605 ], [ 18.810024258174543, 45.29445826062161 ], [ 18.807950099587352, 45.292056569130821 ], [ 18.806744265536583, 45.291950234394612 ], [ 18.805902983556461, 45.292060436571802 ], [ 18.802660514823724, 45.294385142379923 ], [ 18.802383622551869, 45.296178669056921 ], [ 18.802211423891212, 45.300502485426669 ], [ 18.804569783360002, 45.301413519483219 ] ] ] } },
{ "type": "Feature", "properties": { "population": 782, "longitude": 18.808913305835446, "latitude": 45.301014855841906, "BM": 129 }, "geometry": { "type": "Polygon", "coordinates": [ [ [ 18.808075184213497, 45.304477220474304 ], [ 18.813579990067552, 45.301939279934921 ], [ 18.813388795118101, 45.301381152948679 ], [ 18.808518542711489, 45.296918928574605 ], [ 18.804569783360002, 45.301413519483219 ], [ 18.808075184213497, 45.304477220474304 ] ] ] } },
{ "type": "Feature", "properties": { "population": 645, "longitude": 18.805810584434816, "latitude": 45.286979754660855, "BM": 130 }, "geometry": { "type": "Polygon", "coordinates": [ [ [ 18.803995755537105, 45.288289144685749 ], [ 18.806554806860149, 45.287907019420494 ], [ 18.806881190907188, 45.284743099876295 ], [ 18.803995755537105, 45.288289144685749 ] ] ] } },
{ "type": "Feature", "properties": { "population": 974, "longitude": 19.343908284753031, "latitude": 45.305476492770104, "BM": 131 }, "geometry": { "type": "Polygon", "coordinates": [ [ [ 19.4035844, 45.433297014631897 ], [ 19.377065491007954, 45.246619453978369 ], [ 19.375032174512558, 45.234283428047888 ], [ 19.308121630262416, 45.024725297969937 ], [ 19.285417755885142, 45.102655861221642 ], [ 19.276203759367551, 45.137100978931826 ], [ 19.339558329066708, 45.501713948449904 ], [ 19.4035844, 45.56700410961593 ], [ 19.4035844, 45.433297014631897 ] ] ] } },
{ "type": "Feature", "properties": { "population": 758, "longitude": 18.809060295626466, "latitude": 45.286054038947277, "BM": 132 }, "geometry": { "type": "Polygon", "coordinates": [ [ [ 18.806881190907188, 45.284743099876295 ], [ 18.806554806860149, 45.287907019420494 ], [ 18.806744265536583, 45.291950234394612 ], [ 18.807950099587352, 45.292056569130821 ], [ 18.810934143034586, 45.288016306735493 ], [ 18.811999016762279, 45.282435448303936 ], [ 18.810751443972684, 45.280068982157609 ], [ 18.807777087901115, 45.28274948164453 ], [ 18.806881190907188, 45.284743099876295 ] ] ] } },
{ "type": "Feature", "properties": { "population": 755, "longitude": 18.805616434607835, "latitude": 45.289713232387811, "BM": 133 }, "geometry": { "type": "Polygon", "coordinates": [ [ [ 18.803780589885061, 45.288516048112854 ], [ 18.805902983556461, 45.292060436571802 ], [ 18.806744265536583, 45.291950234394612 ], [ 18.806554806860149, 45.287907019420494 ], [ 18.803995755537105, 45.288289144685749 ], [ 18.803780589885061, 45.288516048112854 ] ] ] } },
{ "type": "Feature", "properties": { "population": 1330, "longitude": 18.817196701602736, "latitude": 45.291134759742036, "BM": 134 }, "geometry": { "type": "Polygon", "coordinates": [ [ [ 18.820079706776049, 45.287424744832734 ], [ 18.818527039835431, 45.286828369995995 ], [ 18.81382186550108, 45.291264923215529 ], [ 18.814074044444766, 45.29376526730794 ], [ 18.818866065808159, 45.294753592920308 ], [ 18.820079706776049, 45.287424744832734 ] ] ] } },
{ "type": "Feature", "properties": { "population": 987, "longitude": 18.814066749193415, "latitude": 45.286954917707888, "BM": 135 }, "geometry": { "type": "Polygon", "coordinates": [ [ [ 18.810934143034586, 45.288016306735493 ], [ 18.81382186550108, 45.291264923215529 ], [ 18.818527039835431, 45.286828369995995 ], [ 18.811999016762279, 45.282435448303936 ], [ 18.810934143034586, 45.288016306735493 ] ] ] } },
{ "type": "Feature", "properties": { "population": 763, "longitude": 18.868686496243406, "latitude": 44.878138074639416, "BM": 136 }, "geometry": { "type": "Polygon", "coordinates": [ [ [ 18.857931444556097, 44.933883045479583 ], [ 18.884038184526041, 44.89610170979531 ], [ 18.884475897266057, 44.804917025827969 ], [ 18.845411547204801, 44.895177906214826 ], [ 18.857931444556097, 44.933883045479583 ] ] ] } },
{ "type": "Feature", "properties": { "population": 908, "longitude": 18.826305671462428, "latitude": 45.28907859122922, "BM": 137 }, "geometry": { "type": "Polygon", "coordinates": [ [ [ 18.820864140761355, 45.298368542024356 ], [ 18.839629422372809, 45.28028864392531 ], [ 18.820079706776049, 45.287424744832734 ], [ 18.818866065808159, 45.294753592920308 ], [ 18.820864140761355, 45.298368542024356 ] ] ] } },
{ "type": "Feature", "properties": { "population": 987, "longitude": 18.814066749193415, "latitude": 45.286954917707888, "BM": 138 }, "geometry": { "type": "Polygon", "coordinates": [ [ [ 18.810934143034586, 45.288016306735493 ], [ 18.81382186550108, 45.291264923215529 ], [ 18.818527039835431, 45.286828369995995 ], [ 18.811999016762279, 45.282435448303936 ], [ 18.810934143034586, 45.288016306735493 ] ] ] } },
{ "type": "Feature", "properties": { "population": 667, "longitude": 18.882515957407549, "latitude": 45.233473413694831, "BM": 139 }, "geometry": { "type": "Polygon", "coordinates": [ [ [ 18.861633105127087, 45.26846778144273 ], [ 18.867579077145109, 45.27562909839078 ], [ 18.91493145341742, 45.240819881696346 ], [ 18.901664130435556, 45.191622602332082 ], [ 18.885739760446782, 45.193542927326888 ], [ 18.867599198214386, 45.216124347361756 ], [ 18.84715874193245, 45.242326453325006 ], [ 18.861633105127087, 45.26846778144273 ] ] ] } },
{ "type": "Feature", "properties": { "population": 391, "longitude": 18.893608302816155, "latitude": 45.265552409808933, "BM": 140 }, "geometry": { "type": "Polygon", "coordinates": [ [ [ 18.874794662332761, 45.29199292414188 ], [ 18.924130314095713, 45.247293809402308 ], [ 18.91493145341742, 45.240819881696346 ], [ 18.867579077145109, 45.27562909839078 ], [ 18.874794662332761, 45.29199292414188 ] ] ] } },
{ "type": "Feature", "properties": { "population": 771, "longitude": 18.85018710674785, "latitude": 45.417892427775932, "BM": 141 }, "geometry": { "type": "Polygon", "coordinates": [ [ [ 18.814872324878323, 45.435270239930929 ], [ 18.879614497549014, 45.463981624394521 ], [ 18.877824382304475, 45.414006371504534 ], [ 18.877068460501029, 45.39847212857353 ], [ 18.8611966212449, 45.375309461907115 ], [ 18.851277459636414, 45.376618853131092 ], [ 18.839861996834628, 45.378506077091657 ], [ 18.814251834958817, 45.409997630861625 ], [ 18.814872324878323, 45.435270239930929 ] ] ] } },
{ "type": "Feature", "properties": { "population": 241, "longitude": 18.898024046935888, "latitude": 45.388109913390714, "BM": 142 }, "geometry": { "type": "Polygon", "coordinates": [ [ [ 18.877068460501029, 45.39847212857353 ], [ 18.931648612487379, 45.409584205947311 ], [ 18.921754416642369, 45.376249886566725 ], [ 18.866252540598929, 45.369879952630882 ], [ 18.8611966212449, 45.375309461907115 ], [ 18.877068460501029, 45.39847212857353 ] ] ] } },
{ "type": "Feature", "properties": { "population": 173, "longitude": 18.823582806547854, "latitude": 45.482946988730319, "BM": 143 }, "geometry": { "type": "Polygon", "coordinates": [ [ [ 18.799000613749993, 45.533761632709393 ], [ 18.810876098583204, 45.53830467140417 ], [ 18.882905273492213, 45.467852203579 ], [ 18.879614497549014, 45.463981624394521 ], [ 18.814872324878323, 45.435270239930929 ], [ 18.778333426239577, 45.477420038588527 ], [ 18.79768730811913, 45.530211352842599 ], [ 18.799000613749993, 45.533761632709393 ] ] ] } },
{ "type": "Feature", "properties": { "population": 838, "longitude": 18.87779857334575, "latitude": 45.170236902854377, "BM": 144 }, "geometry": { "type": "Polygon", "coordinates": [ [ [ 18.879285179963723, 45.187351203375933 ], [ 18.884217876922353, 45.144939450098171 ], [ 18.869892663151177, 45.178420055089006 ], [ 18.879285179963723, 45.187351203375933 ] ] ] } },
{ "type": "Feature", "properties": { "population": 754, "longitude": 18.906470164837309, "latitude": 45.446303577154929, "BM": 145 }, "geometry": { "type": "Polygon", "coordinates": [ [ [ 18.918904234222225, 45.477165043330615 ], [ 18.924156191405547, 45.47464768740624 ], [ 18.932954314923428, 45.46881012600312 ], [ 18.938708462754338, 45.429568119039921 ], [ 18.877824382304475, 45.414006371504534 ], [ 18.879614497549014, 45.463981624394521 ], [ 18.882905273492213, 45.467852203579 ], [ 18.918904234222225, 45.477165043330615 ] ] ] } },
{ "type": "Feature", "properties": { "population": 696, "longitude": 18.951481435045274, "latitude": 45.027283705542523, "BM": 146 }, "geometry": { "type": "Polygon", "coordinates": [ [ [ 18.918941174174027, 45.067988529419132 ], [ 18.981041606774038, 45.061309062847997 ], [ 19.004644813074052, 45.045630671461161 ], [ 18.951603760218678, 44.970100555800258 ], [ 18.929107414265832, 44.981013211672099 ], [ 18.927775883970469, 44.982308421851052 ], [ 18.90856203046037, 45.065186437567384 ], [ 18.918941174174027, 45.067988529419132 ] ] ] } },
{ "type": "Feature", "properties": { "population": 923, "longitude": 18.793220490577518, "latitude": 45.290997471403472, "BM": 147 }, "geometry": { "type": "Polygon", "coordinates": [ [ [ 18.791507439706297, 45.292914780119055 ], [ 18.795618305748114, 45.293881474073629 ], [ 18.796346122759907, 45.293083222304901 ], [ 18.796857503306743, 45.291833455265483 ], [ 18.790193640134852, 45.286742066334789 ], [ 18.790355810798964, 45.288321416713011 ], [ 18.791507439706297, 45.292914780119055 ] ] ] } },
{ "type": "Feature", "properties": { "population": 974, "longitude": 19.343908284753031, "latitude": 45.305476492770104, "BM": 148 }, "geometry": { "type": "Polygon", "coordinates": [ [ [ 19.4035844, 45.433297014631897 ], [ 19.377065491007954, 45.246619453978369 ], [ 19.375032174512558, 45.234283428047888 ], [ 19.308121630262416, 45.024725297969937 ], [ 19.285417755885142, 45.102655861221642 ], [ 19.276203759367551, 45.137100978931826 ], [ 19.339558329066708, 45.501713948449904 ], [ 19.4035844, 45.56700410961593 ], [ 19.4035844, 45.433297014631897 ] ] ] } },
{ "type": "Feature", "properties": { "population": 783, "longitude": 18.792659971611108, "latitude": 45.297367245797815, "BM": 149 }, "geometry": { "type": "Polygon", "coordinates": [ [ [ 18.795618305748114, 45.293881474073629 ], [ 18.791507439706297, 45.292914780119055 ], [ 18.790854169378903, 45.30530548320074 ], [ 18.795618305748114, 45.293881474073629 ] ] ] } },
{ "type": "Feature", "properties": { "population": 660, "longitude": 18.795045125103414, "latitude": 45.29975552794086, "BM": 150 }, "geometry": { "type": "Polygon", "coordinates": [ [ [ 18.790854169378903, 45.30530548320074 ], [ 18.790807501748965, 45.305523886553345 ], [ 18.797372522524498, 45.302348505798015 ], [ 18.797500840459982, 45.294862869403737 ], [ 18.796346122759907, 45.293083222304901 ], [ 18.795618305748114, 45.293881474073629 ], [ 18.790854169378903, 45.30530548320074 ] ] ] } },
{ "type": "Feature", "properties": { "population": 843, "longitude": 18.799483044657443, "latitude": 45.293711656248966, "BM": 151 }, "geometry": { "type": "Polygon", "coordinates": [ [ [ 18.796857503306743, 45.291833455265483 ], [ 18.796346122759907, 45.293083222304901 ], [ 18.797500840459982, 45.294862869403737 ], [ 18.802383622551869, 45.296178669056921 ], [ 18.802660514823724, 45.294385142379923 ], [ 18.799312382154827, 45.291258890431145 ], [ 18.796857503306743, 45.291833455265483 ] ] ] } },
{ "type": "Feature", "properties": { "population": 875, "longitude": 18.79583796083687, "latitude": 45.287480689758404, "BM": 152 }, "geometry": { "type": "Polygon", "coordinates": [ [ [ 18.789493313440385, 45.285365730053705 ], [ 18.790193640134852, 45.286742066334789 ], [ 18.796857503306743, 45.291833455265483 ], [ 18.799312382154827, 45.291258890431145 ], [ 18.800317969197721, 45.287056031081249 ], [ 18.799955230063755, 45.285866547741776 ], [ 18.797806588286278, 45.283959023452212 ], [ 18.789493313440385, 45.285365730053705 ] ] ] } },
{ "type": "Feature", "properties": { "population": 1177, "longitude": 18.797883746835286, "latitude": 45.313268747488806, "BM": 153 }, "geometry": { "type": "Polygon", "coordinates": [ [ [ 18.780504128293824, 45.315920295010876 ], [ 18.807969231614152, 45.32708191602152 ], [ 18.808075184213497, 45.304477220474304 ], [ 18.804569783360002, 45.301413519483219 ], [ 18.802211423891212, 45.300502485426669 ], [ 18.797372522524498, 45.302348505798015 ], [ 18.790807501748965, 45.305523886553345 ], [ 18.781432206826992, 45.314920554164168 ], [ 18.780504128293824, 45.315920295010876 ] ] ] } },
{ "type": "Feature", "properties": { "population": 938, "longitude": 18.805795722635182, "latitude": 45.274072820378045, "BM": 154 }, "geometry": { "type": "Polygon", "coordinates": [ [ [ 18.799955230063755, 45.285866547741776 ], [ 18.807777087901115, 45.28274948164453 ], [ 18.810751443972684, 45.280068982157609 ], [ 18.809666917077262, 45.254533482874379 ], [ 18.797806588286278, 45.283959023452212 ], [ 18.799955230063755, 45.285866547741776 ] ] ] } },
{ "type": "Feature", "properties": { "population": 527, "longitude": 18.799650053216634, "latitude": 45.298472383414136, "BM": 155 }, "geometry": { "type": "Polygon", "coordinates": [ [ [ 18.797372522524498, 45.302348505798015 ], [ 18.802211423891212, 45.300502485426669 ], [ 18.802383622551869, 45.296178669056921 ], [ 18.797500840459982, 45.294862869403737 ], [ 18.797372522524498, 45.302348505798015 ] ] ] } },
{ "type": "Feature", "properties": { "population": 942, "longitude": 19.335878580135724, "latitude": 45.094169433113436, "BM": 156 }, "geometry": { "type": "Polygon", "coordinates": [ [ [ 19.374883448959, 45.225033666811925 ], [ 19.315811509528949, 44.997485319310037 ], [ 19.308121630262416, 45.024725297969937 ], [ 19.375032174512558, 45.234283428047888 ], [ 19.374883448959, 45.225033666811925 ] ] ] } }
]
}
