{
"type": "FeatureCollection",
"name": "output_zupanija_16",
"crs": { "type": "name", "properties": { "name": "urn:ogc:def:crs:EPSG::3765" } },
"features": [
{ "type": "Feature", "properties": { "population": 33, "longitude": 17.941984931056069, "latitude": 45.619927025757065, "BM": 1 }, "geometry": { "type": "Polygon", "coordinates": [ [ [ 17.929547248448248, 45.632004161818045 ], [ 17.958987674581952, 45.628957785747126 ], [ 17.957064626965558, 45.609947770122908 ], [ 17.924320367782524, 45.609318958197399 ], [ 17.929547248448248, 45.632004161818045 ] ] ] } },
{ "type": "Feature", "properties": { "population": 89, "longitude": 17.94262805983416, "latitude": 45.64853208071635, "BM": 2 }, "geometry": { "type": "Polygon", "coordinates": [ [ [ 17.917719559031738, 45.662130363212178 ], [ 17.953932847637315, 45.669615847839232 ], [ 17.965311169735347, 45.63405910320494 ], [ 17.958987674581952, 45.628957785747126 ], [ 17.929547248448248, 45.632004161818045 ], [ 17.917719559031738, 45.662130363212178 ] ] ] } },
{ "type": "Feature", "properties": { "population": 109, "longitude": 18.593022004162549, "latitude": 45.516341045689188, "BM": 3 }, "geometry": { "type": "Polygon", "coordinates": [ [ [ 18.578675804329087, 45.523613816727028 ], [ 18.600297262275415, 45.535885406146043 ], [ 18.603267194389925, 45.494123944087178 ], [ 18.582699052247403, 45.510382584922745 ], [ 18.578675804329087, 45.523613816727028 ] ] ] } },
{ "type": "Feature", "properties": { "population": 129, "longitude": 17.975653665842433, "latitude": 45.613641556951713, "BM": 4 }, "geometry": { "type": "Polygon", "coordinates": [ [ [ 17.965311169735347, 45.63405910320494 ], [ 17.995355288882418, 45.629999609861351 ], [ 17.986341263095778, 45.589674983779588 ], [ 17.976205297720046, 45.590647490062025 ], [ 17.96524186627391, 45.596639030244631 ], [ 17.957064626965558, 45.609947770122908 ], [ 17.958987674581952, 45.628957785747126 ], [ 17.965311169735347, 45.63405910320494 ] ] ] } },
{ "type": "Feature", "properties": { "population": 116, "longitude": 17.910489175381553, "latitude": 45.627755455030858, "BM": 5 }, "geometry": { "type": "Polygon", "coordinates": [ [ [ 17.901965756010039, 45.655926011463578 ], [ 17.911283623500225, 45.664975201755624 ], [ 17.917719559031738, 45.662130363212178 ], [ 17.929547248448248, 45.632004161818045 ], [ 17.924320367782524, 45.609318958197399 ], [ 17.914721258627246, 45.595195373018392 ], [ 17.907765744239107, 45.5921771533258 ], [ 17.889870665642515, 45.615551661894003 ], [ 17.901965756010039, 45.655926011463578 ] ] ] } },
{ "type": "Feature", "properties": { "population": 437, "longitude": 18.874562188803818, "latitude": 45.538157480928952, "BM": 6 }, "geometry": { "type": "Polygon", "coordinates": [ [ [ 18.810876098583204, 45.53830467140417 ], [ 18.876696541347368, 45.609335480281317 ], [ 18.899131934943458, 45.617978857343147 ], [ 18.918904234222225, 45.477165043330615 ], [ 18.882905273492213, 45.467852203579 ], [ 18.810876098583204, 45.53830467140417 ] ] ] } },
{ "type": "Feature", "properties": { "population": 474, "longitude": 18.472435480583329, "latitude": 45.51018496730336, "BM": 7 }, "geometry": { "type": "Polygon", "coordinates": [ [ [ 18.439033538193456, 45.517035635702058 ], [ 18.460497016787627, 45.5379051125107 ], [ 18.492481400847375, 45.54672355668756 ], [ 18.505177175653607, 45.54100036439722 ], [ 18.510515650255879, 45.49322668190829 ], [ 18.448000793840151, 45.475721450887733 ], [ 18.438694166947649, 45.478503424767446 ], [ 18.43014708321202, 45.507521246093894 ], [ 18.439033538193456, 45.517035635702058 ] ] ] } },
{ "type": "Feature", "properties": { "population": 330, "longitude": 17.959090214528516, "latitude": 45.583606140454549, "BM": 8 }, "geometry": { "type": "Polygon", "coordinates": [ [ [ 17.944665698631422, 45.573217030099855 ], [ 17.957342009221136, 45.594371790245319 ], [ 17.96524186627391, 45.596639030244631 ], [ 17.976205297720046, 45.590647490062025 ], [ 17.949277749396291, 45.56697805988437 ], [ 17.944665698631422, 45.573217030099855 ] ] ] } },
{ "type": "Feature", "properties": { "population": 341, "longitude": 18.320998513929954, "latitude": 45.593989276763352, "BM": 9 }, "geometry": { "type": "Polygon", "coordinates": [ [ [ 18.280191462727835, 45.610547996248719 ], [ 18.310269814196158, 45.626397519469805 ], [ 18.335105379408279, 45.619922986509792 ], [ 18.364460609394008, 45.583288289690621 ], [ 18.331396071138801, 45.556095378911088 ], [ 18.292225996691574, 45.585810270967293 ], [ 18.275535780496956, 45.604368952852134 ], [ 18.280191462727835, 45.610547996248719 ] ] ] } },
{ "type": "Feature", "properties": { "population": 133, "longitude": 17.924628652503976, "latitude": 45.575163244719604, "BM": 10 }, "geometry": { "type": "Polygon", "coordinates": [ [ [ 17.907765744239107, 45.5921771533258 ], [ 17.914721258627246, 45.595195373018392 ], [ 17.930451367884515, 45.589048081567931 ], [ 17.944665698631422, 45.573217030099855 ], [ 17.949277749396291, 45.56697805988437 ], [ 17.948946551605637, 45.562112252069291 ], [ 17.919034308186674, 45.557155142593444 ], [ 17.902386664769423, 45.581674626322375 ], [ 17.906378060673529, 45.589493967320045 ], [ 17.907765744239107, 45.5921771533258 ] ] ] } },
{ "type": "Feature", "properties": { "population": 99, "longitude": 17.976729886903783, "latitude": 45.565644579589716, "BM": 11 }, "geometry": { "type": "Polygon", "coordinates": [ [ [ 17.949277749396291, 45.56697805988437 ], [ 17.976205297720046, 45.590647490062025 ], [ 17.986341263095778, 45.589674983779588 ], [ 18.000427802736656, 45.572501702897583 ], [ 18.003957208810572, 45.561038287725424 ], [ 18.002455139818736, 45.556824564583721 ], [ 18.000171943157536, 45.552815205033141 ], [ 17.960615609815513, 45.54267449067784 ], [ 17.948946551605637, 45.562112252069291 ], [ 17.949277749396291, 45.56697805988437 ] ] ] } },
{ "type": "Feature", "properties": { "population": 221, "longitude": 17.938380947701777, "latitude": 45.548911293342108, "BM": 12 }, "geometry": { "type": "Polygon", "coordinates": [ [ [ 17.919034308186674, 45.557155142593444 ], [ 17.948946551605637, 45.562112252069291 ], [ 17.960615609815513, 45.54267449067784 ], [ 17.959243643706788, 45.54067397847971 ], [ 17.928631731505781, 45.536879780171311 ], [ 17.919987172009009, 45.54277165612595 ], [ 17.919034308186674, 45.557155142593444 ] ] ] } },
{ "type": "Feature", "properties": { "population": 88, "longitude": 17.950974811398151, "latitude": 45.703874443063206, "BM": 13 }, "geometry": { "type": "Polygon", "coordinates": [ [ [ 17.938205534491935, 45.728149038425769 ], [ 17.990317288357101, 45.697696938081073 ], [ 17.962504604563399, 45.677053497584666 ], [ 17.909986545721392, 45.716089030131904 ], [ 17.938205534491935, 45.728149038425769 ] ] ] } },
{ "type": "Feature", "properties": { "population": 209, "longitude": 17.654682440290461, "latitude": 45.874933252384842, "BM": 14 }, "geometry": { "type": "Polygon", "coordinates": [ [ [ 17.595470903609453, 45.857819911147239 ], [ 17.733302369692684, 45.956714389402826 ], [ 17.727232904238814, 45.939834304371963 ], [ 17.638464484820339, 45.821085981713928 ], [ 17.627086330557507, 45.806779517030463 ], [ 17.611367009761498, 45.82529301321518 ], [ 17.595470903609453, 45.857819911147239 ] ] ] } },
{ "type": "Feature", "properties": { "population": 255, "longitude": 17.690416785016772, "latitude": 45.856478078795782, "BM": 15 }, "geometry": { "type": "Polygon", "coordinates": [ [ [ 17.727232904238814, 45.939834304371963 ], [ 17.724085599886383, 45.920460671734212 ], [ 17.705988712150255, 45.811044305577525 ], [ 17.702321608283896, 45.808915807917572 ], [ 17.638464484820339, 45.821085981713928 ], [ 17.727232904238814, 45.939834304371963 ] ] ] } },
{ "type": "Feature", "properties": { "population": 137, "longitude": 17.578249139833723, "latitude": 45.8392513117034, "BM": 16 }, "geometry": { "type": "Polygon", "coordinates": [ [ [ 17.564265967223729, 45.862459582370406 ], [ 17.595470903609453, 45.857819911147239 ], [ 17.611367009761498, 45.82529301321518 ], [ 17.565172987856062, 45.81621534099034 ], [ 17.548903923686563, 45.838963459733606 ], [ 17.555479250295111, 45.854870663513907 ], [ 17.564265967223729, 45.862459582370406 ] ] ] } },
{ "type": "Feature", "properties": { "population": 120, "longitude": 17.885691214414166, "latitude": 45.604989309734464, "BM": 17 }, "geometry": { "type": "Polygon", "coordinates": [ [ [ 17.868899108841365, 45.604178422826443 ], [ 17.869181825437312, 45.619085513544519 ], [ 17.889870665642515, 45.615551661894003 ], [ 17.907765744239107, 45.5921771533258 ], [ 17.906378060673529, 45.589493967320045 ], [ 17.87336507596514, 45.6002323202379 ], [ 17.868899108841365, 45.604178422826443 ] ] ] } },
{ "type": "Feature", "properties": { "population": 193, "longitude": 17.765122040623446, "latitude": 46.115707920870321, "BM": 18 }, "geometry": { "type": "Polygon", "coordinates": [ [ [ 17.963033498742995, 46.481309156621634 ], [ 17.898747089101473, 46.244583862385525 ], [ 17.733302369692684, 45.956714389402826 ], [ 17.595470903609453, 45.857819911147239 ], [ 17.564265967223729, 45.862459582370406 ], [ 17.563381573793233, 45.890037188089124 ], [ 17.963033498742995, 46.481309156621634 ] ] ] } },
{ "type": "Feature", "properties": { "population": 274, "longitude": 18.810276517597007, "latitude": 45.589631260614709, "BM": 19 }, "geometry": { "type": "Polygon", "coordinates": [ [ [ 18.762490646619742, 45.581138682209023 ], [ 18.787835777166951, 45.641401260705521 ], [ 18.876696541347368, 45.609335480281317 ], [ 18.810876098583204, 45.53830467140417 ], [ 18.799000613749993, 45.533761632709393 ], [ 18.788205372331305, 45.539919766993805 ], [ 18.775264558326786, 45.555095464840491 ], [ 18.761686229640297, 45.57324808889021 ], [ 18.762490646619742, 45.581138682209023 ] ] ] } },
{ "type": "Feature", "properties": { "population": 211, "longitude": 18.091790880491576, "latitude": 45.503769148267239, "BM": 20 }, "geometry": { "type": "Polygon", "coordinates": [ [ [ 18.085210777240007, 45.510102006587239 ], [ 18.101782098078669, 45.506364593100891 ], [ 18.097839364306733, 45.500041850611389 ], [ 18.087237959250732, 45.497618103172293 ], [ 18.086121472526106, 45.497804675107261 ], [ 18.08520766857195, 45.498203541685569 ], [ 18.085210777240007, 45.510102006587239 ] ] ] } },
{ "type": "Feature", "properties": { "population": 206, "longitude": 17.827249132315213, "latitude": 45.661436337553575, "BM": 21 }, "geometry": { "type": "Polygon", "coordinates": [ [ [ 17.81736746559865, 45.670065917653766 ], [ 17.840201035228951, 45.683313242173618 ], [ 17.840648969459732, 45.683099137498708 ], [ 17.835186168564213, 45.64409857418169 ], [ 17.811078016577515, 45.648983985372155 ], [ 17.81736746559865, 45.670065917653766 ] ] ] } },
{ "type": "Feature", "properties": { "population": 111, "longitude": 17.804229473924156, "latitude": 45.559369656945805, "BM": 22 }, "geometry": { "type": "Polygon", "coordinates": [ [ [ 17.780217125952575, 45.591558915803375 ], [ 17.833500162069278, 45.603073771030758 ], [ 17.848626180033623, 45.561346869829009 ], [ 17.836641098941193, 45.545574604573694 ], [ 17.794143340949464, 45.510309572045173 ], [ 17.776379336695278, 45.516192673139685 ], [ 17.763594512288083, 45.558493998300769 ], [ 17.780217125952575, 45.591558915803375 ] ] ] } },
{ "type": "Feature", "properties": { "population": 192, "longitude": 17.863130856368677, "latitude": 45.546879608506302, "BM": 23 }, "geometry": { "type": "Polygon", "coordinates": [ [ [ 17.865309953779917, 45.564892380537664 ], [ 17.872993051918122, 45.565406730393747 ], [ 17.882420793335584, 45.551397957979198 ], [ 17.881500809763281, 45.53205023566575 ], [ 17.880768182218496, 45.531482328566703 ], [ 17.868265151150521, 45.526159919116573 ], [ 17.836641098941193, 45.545574604573694 ], [ 17.848626180033623, 45.561346869829009 ], [ 17.865309953779917, 45.564892380537664 ] ] ] } },
{ "type": "Feature", "properties": { "population": 110, "longitude": 17.8028579042624, "latitude": 45.666410269196902, "BM": 24 }, "geometry": { "type": "Polygon", "coordinates": [ [ [ 17.788486401057622, 45.675119372499438 ], [ 17.801143930634261, 45.683734205619672 ], [ 17.81736746559865, 45.670065917653766 ], [ 17.811078016577515, 45.648983985372155 ], [ 17.809125868008323, 45.648618621859754 ], [ 17.792031495171678, 45.658106201769719 ], [ 17.788486401057622, 45.675119372499438 ] ] ] } },
{ "type": "Feature", "properties": { "population": 77, "longitude": 17.626995654565036, "latitude": 45.703824399245036, "BM": 25 }, "geometry": { "type": "Polygon", "coordinates": [ [ [ 17.637309268913786, 45.718762165455161 ], [ 17.64173824370231, 45.717734890353512 ], [ 17.645958779322999, 45.712896438666533 ], [ 17.6587697467459, 45.695884569327845 ], [ 17.653182996678822, 45.690854831929258 ], [ 17.586829705509718, 45.698860231927007 ], [ 17.603411369735518, 45.710929964111152 ], [ 17.637309268913786, 45.718762165455161 ] ] ] } },
{ "type": "Feature", "properties": { "population": 66, "longitude": 17.639540502853734, "latitude": 45.741464081482995, "BM": 26 }, "geometry": { "type": "Polygon", "coordinates": [ [ [ 17.627676842027618, 45.764948857573458 ], [ 17.656067414667532, 45.743536482316749 ], [ 17.64173824370231, 45.717734890353512 ], [ 17.637309268913786, 45.718762165455161 ], [ 17.625895611044736, 45.755469701134722 ], [ 17.627676842027618, 45.764948857573458 ] ] ] } },
{ "type": "Feature", "properties": { "population": 340, "longitude": 18.437301248830199, "latitude": 45.67577698028515, "BM": 27 }, "geometry": { "type": "Polygon", "coordinates": [ [ [ 18.428864547653678, 45.677776180801509 ], [ 18.4610202876183, 45.690876883157593 ], [ 18.462936497821161, 45.689793172689328 ], [ 18.461321048182469, 45.686875138019431 ], [ 18.420950344872097, 45.659763742409694 ], [ 18.420393736290862, 45.660179677574135 ], [ 18.418792368557856, 45.66978034102479 ], [ 18.428864547653678, 45.677776180801509 ] ] ] } },
{ "type": "Feature", "properties": { "population": 95, "longitude": 17.550222251176741, "latitude": 45.806271861785447, "BM": 28 }, "geometry": { "type": "Polygon", "coordinates": [ [ [ 17.530242100641281, 45.789209283107958 ], [ 17.544361472342278, 45.836161163946898 ], [ 17.548903923686563, 45.838963459733606 ], [ 17.565172987856062, 45.81621534099034 ], [ 17.571709707599382, 45.797366470403411 ], [ 17.549048366295157, 45.781533567685578 ], [ 17.532896954608361, 45.786263019115943 ], [ 17.530242100641281, 45.789209283107958 ] ] ] } },
{ "type": "Feature", "properties": { "population": 444, "longitude": 17.524864455628588, "latitude": 45.85349714895316, "BM": 29 }, "geometry": { "type": "Polygon", "coordinates": [ [ [ 17.4958467098194, 45.868955638844433 ], [ 17.527419350616597, 45.870001116787684 ], [ 17.555479250295111, 45.854870663513907 ], [ 17.548903923686563, 45.838963459733606 ], [ 17.544361472342278, 45.836161163946898 ], [ 17.529994134562472, 45.834146010339616 ], [ 17.504866458875838, 45.847484387946608 ], [ 17.494775879933453, 45.854631883421412 ], [ 17.4958467098194, 45.868955638844433 ] ] ] } },
{ "type": "Feature", "properties": { "population": 63, "longitude": 17.559428398572877, "latitude": 45.742840534979308, "BM": 30 }, "geometry": { "type": "Polygon", "coordinates": [ [ [ 17.537157726381324, 45.753065924582735 ], [ 17.552993035864962, 45.769083059863895 ], [ 17.577696983256935, 45.748217066017446 ], [ 17.568035543247348, 45.708776627952993 ], [ 17.537157726381324, 45.753065924582735 ] ] ] } },
{ "type": "Feature", "properties": { "population": 228, "longitude": 17.575333808360629, "latitude": 45.774650526624839, "BM": 31 }, "geometry": { "type": "Polygon", "coordinates": [ [ [ 17.571709707599382, 45.797366470403411 ], [ 17.605090444432513, 45.779562547308714 ], [ 17.577696983256935, 45.748217066017446 ], [ 17.552993035864962, 45.769083059863895 ], [ 17.549048366295157, 45.781533567685578 ], [ 17.571709707599382, 45.797366470403411 ] ] ] } },
{ "type": "Feature", "properties": { "population": 68, "longitude": 17.609378162844852, "latitude": 45.681996915151949, "BM": 32 }, "geometry": { "type": "Polygon", "coordinates": [ [ [ 17.586829705509718, 45.698860231927007 ], [ 17.653182996678822, 45.690854831929258 ], [ 17.647400211325841, 45.677361706337621 ], [ 17.581834340037165, 45.660492962837822 ], [ 17.581817669429647, 45.660515019554531 ], [ 17.577885555804833, 45.695010921088773 ], [ 17.586829705509718, 45.698860231927007 ] ] ] } },
{ "type": "Feature", "properties": { "population": 37, "longitude": 17.535758417627754, "latitude": 45.729769691013388, "BM": 33 }, "geometry": { "type": "Polygon", "coordinates": [ [ [ 17.512144567536875, 45.751161496097211 ], [ 17.524256542294609, 45.756892956341815 ], [ 17.537157726381324, 45.753065924582735 ], [ 17.568035543247348, 45.708776627952993 ], [ 17.56800447900239, 45.705864068595801 ], [ 17.543865096239458, 45.706488280085424 ], [ 17.512079764407581, 45.725415079212148 ], [ 17.512144567536875, 45.751161496097211 ] ] ] } },
{ "type": "Feature", "properties": { "population": 142, "longitude": 17.53375379055106, "latitude": 45.668542177554322, "BM": 34 }, "geometry": { "type": "Polygon", "coordinates": [ [ [ 17.480548900690682, 45.65656759914075 ], [ 17.543865096239458, 45.706488280085424 ], [ 17.56800447900239, 45.705864068595801 ], [ 17.577885555804833, 45.695010921088773 ], [ 17.581817669429647, 45.660515019554531 ], [ 17.48312963343389, 45.627987084707513 ], [ 17.480548900690682, 45.65656759914075 ] ] ] } },
{ "type": "Feature", "properties": { "population": 173, "longitude": 18.823582806547854, "latitude": 45.482946988730319, "BM": 35 }, "geometry": { "type": "Polygon", "coordinates": [ [ [ 18.799000613749993, 45.533761632709393 ], [ 18.810876098583204, 45.53830467140417 ], [ 18.882905273492213, 45.467852203579 ], [ 18.879614497549014, 45.463981624394521 ], [ 18.814872324878323, 45.435270239930929 ], [ 18.778333426239577, 45.477420038588527 ], [ 18.79768730811913, 45.530211352842599 ], [ 18.799000613749993, 45.533761632709393 ] ] ] } },
{ "type": "Feature", "properties": { "population": 69, "longitude": 17.53830360484751, "latitude": 45.769518782167708, "BM": 36 }, "geometry": { "type": "Polygon", "coordinates": [ [ [ 17.532896954608361, 45.786263019115943 ], [ 17.549048366295157, 45.781533567685578 ], [ 17.552993035864962, 45.769083059863895 ], [ 17.537157726381324, 45.753065924582735 ], [ 17.524256542294609, 45.756892956341815 ], [ 17.532896954608361, 45.786263019115943 ] ] ] } },
{ "type": "Feature", "properties": { "population": 57, "longitude": 17.825406420732573, "latitude": 45.93513840148627, "BM": 37 }, "geometry": { "type": "Polygon", "coordinates": [ [ [ 17.8929960506421, 46.1385406042399 ], [ 17.79738764882649, 45.771479700406267 ], [ 17.781148946658664, 45.766126895759228 ], [ 17.772596174821672, 45.768334724698455 ], [ 17.760941287118051, 45.781628188975873 ], [ 17.767971220905554, 45.806176778662106 ], [ 17.894421748959751, 46.188844677405669 ], [ 17.8929960506421, 46.1385406042399 ] ] ] } },
{ "type": "Feature", "properties": { "population": 407, "longitude": 18.548229060256723, "latitude": 45.542910786476845, "BM": 38 }, "geometry": { "type": "Polygon", "coordinates": [ [ [ 18.540913553307863, 45.565277121663293 ], [ 18.547484799285634, 45.567003646874909 ], [ 18.557999246722222, 45.5308376186914 ], [ 18.562289914594857, 45.51257399026224 ], [ 18.559111273881946, 45.510273932237183 ], [ 18.532554701760439, 45.558905974363483 ], [ 18.540913553307863, 45.565277121663293 ] ] ] } },
{ "type": "Feature", "properties": { "population": 107, "longitude": 18.141218251502973, "latitude": 45.306139137704058, "BM": 39 }, "geometry": { "type": "Polygon", "coordinates": [ [ [ 18.141248820399547, 45.328048848319405 ], [ 18.159248873884668, 45.309298293124321 ], [ 18.164908261298102, 45.288759646356752 ], [ 18.161497613338355, 45.284481649736357 ], [ 18.116511558697553, 45.301800244204181 ], [ 18.118995426103822, 45.316743633672871 ], [ 18.141248820399547, 45.328048848319405 ] ] ] } },
{ "type": "Feature", "properties": { "population": 907, "longitude": 17.533016869726897, "latitude": 45.590199594649995, "BM": 40 }, "geometry": { "type": "Polygon", "coordinates": [ [ [ 17.478723604122617, 45.615889075450582 ], [ 17.48312963343389, 45.627987084707513 ], [ 17.581817669429647, 45.660515019554531 ], [ 17.581834340037165, 45.660492962837822 ], [ 17.618015618436544, 45.586763384988963 ], [ 17.618118390634596, 45.57953868387925 ], [ 17.492021631762082, 45.523450066765669 ], [ 17.450182248589616, 45.533670932655504 ], [ 17.478723604122617, 45.615889075450582 ] ] ] } },
{ "type": "Feature", "properties": { "population": 30, "longitude": 17.67002061572547, "latitude": 45.66717307895933, "BM": 41 }, "geometry": { "type": "Polygon", "coordinates": [ [ [ 17.653182996678822, 45.690854831929258 ], [ 17.6587697467459, 45.695884569327845 ], [ 17.669765671018915, 45.696912504729539 ], [ 17.685047749830403, 45.68131138957439 ], [ 17.703576083280264, 45.660236020770377 ], [ 17.655321062490508, 45.634675021187782 ], [ 17.647400211325841, 45.677361706337621 ], [ 17.653182996678822, 45.690854831929258 ] ] ] } },
{ "type": "Feature", "properties": { "population": 16, "longitude": 17.622263164551615, "latitude": 45.639251114337341, "BM": 42 }, "geometry": { "type": "Polygon", "coordinates": [ [ [ 17.581834340037165, 45.660492962837822 ], [ 17.647400211325841, 45.677361706337621 ], [ 17.655321062490508, 45.634675021187782 ], [ 17.618015618436544, 45.586763384988963 ], [ 17.581834340037165, 45.660492962837822 ] ] ] } },
{ "type": "Feature", "properties": { "population": 201, "longitude": 17.946200903634054, "latitude": 45.526151258709362, "BM": 43 }, "geometry": { "type": "Polygon", "coordinates": [ [ [ 17.928631731505781, 45.536879780171311 ], [ 17.959243643706788, 45.54067397847971 ], [ 17.957595232200521, 45.517456730043264 ], [ 17.951962583242057, 45.509872637311616 ], [ 17.942526040962367, 45.50810598824765 ], [ 17.928651023702439, 45.536620195044996 ], [ 17.928631731505781, 45.536879780171311 ] ] ] } },
{ "type": "Feature", "properties": { "population": 394, "longitude": 17.510780894950688, "latitude": 45.831726864434856, "BM": 44 }, "geometry": { "type": "Polygon", "coordinates": [ [ [ 17.497351950751963, 45.819223863486954 ], [ 17.504866458875838, 45.847484387946608 ], [ 17.529994134562472, 45.834146010339616 ], [ 17.505560125190428, 45.817243011865294 ], [ 17.497351950751963, 45.819223863486954 ] ] ] } },
{ "type": "Feature", "properties": { "population": 289, "longitude": 17.474149869064686, "latitude": 45.854100587323742, "BM": 45 }, "geometry": { "type": "Polygon", "coordinates": [ [ [ 17.448646314266387, 45.844122771307212 ], [ 17.472259156356518, 45.876241207935443 ], [ 17.491412327108726, 45.875945764872348 ], [ 17.4958467098194, 45.868955638844433 ], [ 17.494775879933453, 45.854631883421412 ], [ 17.468456649766615, 45.827017121118054 ], [ 17.448646314266387, 45.844122771307212 ] ] ] } },
{ "type": "Feature", "properties": { "population": 66, "longitude": 17.639540502853734, "latitude": 45.741464081482995, "BM": 46 }, "geometry": { "type": "Polygon", "coordinates": [ [ [ 17.627676842027618, 45.764948857573458 ], [ 17.656067414667532, 45.743536482316749 ], [ 17.64173824370231, 45.717734890353512 ], [ 17.637309268913786, 45.718762165455161 ], [ 17.625895611044736, 45.755469701134722 ], [ 17.627676842027618, 45.764948857573458 ] ] ] } },
{ "type": "Feature", "properties": { "population": 563, "longitude": 18.016114889512341, "latitude": 46.166803594407611, "BM": 47 }, "geometry": { "type": "Polygon", "coordinates": [ [ [ 18.165571998345968, 46.525343199999988 ], [ 18.088581699327744, 45.901276278718896 ], [ 18.01546752237385, 45.749958663047046 ], [ 17.947189779605427, 45.772744692302382 ], [ 17.898404579148053, 45.867897990094583 ], [ 17.8929960506421, 46.1385406042399 ], [ 17.894421748959751, 46.188844677405669 ], [ 17.898747089101473, 46.244583862385525 ], [ 17.963033498742995, 46.481309156621634 ], [ 17.976761118531723, 46.525343199999988 ], [ 18.165571998345968, 46.525343199999988 ] ] ] } },
{ "type": "Feature", "properties": { "population": 205, "longitude": 17.514328642204443, "latitude": 45.910032201558387, "BM": 48 }, "geometry": { "type": "Polygon", "coordinates": [ [ [ 17.522104805141669, 45.936291023078198 ], [ 17.534247881138882, 45.9090158016784 ], [ 17.520804584559471, 45.892536841668061 ], [ 17.496334492748847, 45.893810823348836 ], [ 17.493081673912471, 45.907385155531337 ], [ 17.522104805141669, 45.936291023078198 ] ] ] } },
{ "type": "Feature", "properties": { "population": 242, "longitude": 17.534218571627925, "latitude": 46.13972919444803, "BM": 49 }, "geometry": { "type": "Polygon", "coordinates": [ [ [ 17.575812439010306, 46.413053769428103 ], [ 17.598237954433419, 46.443863695682296 ], [ 17.522104805141669, 45.936291023078198 ], [ 17.493081673912471, 45.907385155531337 ], [ 17.471518714406731, 45.914938851469159 ], [ 17.561311621867642, 46.369145385483982 ], [ 17.575812439010306, 46.413053769428103 ] ] ] } },
{ "type": "Feature", "properties": { "population": 54, "longitude": 17.508722301294927, "latitude": 45.880707793759306, "BM": 50 }, "geometry": { "type": "Polygon", "coordinates": [ [ [ 17.491412327108726, 45.875945764872348 ], [ 17.496334492748847, 45.893810823348836 ], [ 17.520804584559471, 45.892536841668061 ], [ 17.527419350616597, 45.870001116787684 ], [ 17.4958467098194, 45.868955638844433 ], [ 17.491412327108726, 45.875945764872348 ] ] ] } },
{ "type": "Feature", "properties": { "population": 147, "longitude": 17.477480322090688, "latitude": 45.894912353831558, "BM": 51 }, "geometry": { "type": "Polygon", "coordinates": [ [ [ 17.463303204701383, 45.911951800806357 ], [ 17.471518714406731, 45.914938851469159 ], [ 17.493081673912471, 45.907385155531337 ], [ 17.496334492748847, 45.893810823348836 ], [ 17.491412327108726, 45.875945764872348 ], [ 17.472259156356518, 45.876241207935443 ], [ 17.45663450560901, 45.893482615781465 ], [ 17.463303204701383, 45.911951800806357 ] ] ] } },
{ "type": "Feature", "properties": { "population": 859, "longitude": 17.503750225041962, "latitude": 45.795741185081425, "BM": 52 }, "geometry": { "type": "Polygon", "coordinates": [ [ [ 17.492441171190592, 45.800289180914703 ], [ 17.508036900265356, 45.806814281806169 ], [ 17.51320564673377, 45.79107811143583 ], [ 17.502886622839601, 45.783618293919638 ], [ 17.492441171190592, 45.800289180914703 ] ] ] } },
{ "type": "Feature", "properties": { "population": 296, "longitude": 17.51336372685369, "latitude": 45.772436657993232, "BM": 53 }, "geometry": { "type": "Polygon", "coordinates": [ [ [ 17.502886622839601, 45.783618293919638 ], [ 17.51320564673377, 45.79107811143583 ], [ 17.530242100641281, 45.789209283107958 ], [ 17.532896954608361, 45.786263019115943 ], [ 17.524256542294609, 45.756892956341815 ], [ 17.512144567536875, 45.751161496097211 ], [ 17.489501862570464, 45.769309507304591 ], [ 17.502886622839601, 45.783618293919638 ] ] ] } },
{ "type": "Feature", "properties": { "population": 139, "longitude": 17.524551244434637, "latitude": 45.812509213140459, "BM": 54 }, "geometry": { "type": "Polygon", "coordinates": [ [ [ 17.505560125190428, 45.817243011865294 ], [ 17.529994134562472, 45.834146010339616 ], [ 17.544361472342278, 45.836161163946898 ], [ 17.530242100641281, 45.789209283107958 ], [ 17.51320564673377, 45.79107811143583 ], [ 17.508036900265356, 45.806814281806169 ], [ 17.505560125190428, 45.817243011865294 ] ] ] } },
{ "type": "Feature", "properties": { "population": 683, "longitude": 17.484105419353526, "latitude": 45.793065912565744, "BM": 55 }, "geometry": { "type": "Polygon", "coordinates": [ [ [ 17.469241530384494, 45.820727055365694 ], [ 17.492441171190592, 45.800289180914703 ], [ 17.502886622839601, 45.783618293919638 ], [ 17.489501862570464, 45.769309507304591 ], [ 17.486867360333701, 45.769191135662282 ], [ 17.48375250795511, 45.770397946855645 ], [ 17.466400621598449, 45.812632224115525 ], [ 17.469241530384494, 45.820727055365694 ] ] ] } },
{ "type": "Feature", "properties": { "population": 642, "longitude": 17.676480548249007, "latitude": 45.611040825420204, "BM": 56 }, "geometry": { "type": "Polygon", "coordinates": [ [ [ 17.618015618436544, 45.586763384988963 ], [ 17.655321062490508, 45.634675021187782 ], [ 17.703576083280264, 45.660236020770377 ], [ 17.706162100738215, 45.659856744918073 ], [ 17.725338818937175, 45.643560912594843 ], [ 17.71667406199067, 45.591917295108658 ], [ 17.635487972606594, 45.567132518737225 ], [ 17.618118390634596, 45.57953868387925 ], [ 17.618015618436544, 45.586763384988963 ] ] ] } },
{ "type": "Feature", "properties": { "population": 115, "longitude": 18.117040009940364, "latitude": 45.458478559262709, "BM": 57 }, "geometry": { "type": "Polygon", "coordinates": [ [ [ 18.089035620017665, 45.450974486133482 ], [ 18.096000994119557, 45.464781827135752 ], [ 18.101295485018611, 45.473354234089193 ], [ 18.108137983113657, 45.481705612009335 ], [ 18.113695995657785, 45.485490634098234 ], [ 18.133348813802229, 45.485862903846467 ], [ 18.142111204169041, 45.453473844578781 ], [ 18.13323237043814, 45.434501455900445 ], [ 18.095816793998743, 45.437275604172079 ], [ 18.088710211266498, 45.446945103057153 ], [ 18.089035620017665, 45.450974486133482 ] ] ] } },
{ "type": "Feature", "properties": { "population": 138, "longitude": 18.463919268702821, "latitude": 45.722701753933578, "BM": 58 }, "geometry": { "type": "Polygon", "coordinates": [ [ [ 18.441938421579827, 45.708638116626418 ], [ 18.438399633696868, 45.75458466996345 ], [ 18.493771797036832, 45.739942463242642 ], [ 18.478009824834292, 45.689341448722494 ], [ 18.462936497821161, 45.689793172689328 ], [ 18.4610202876183, 45.690876883157593 ], [ 18.441938421579827, 45.708638116626418 ] ] ] } },
{ "type": "Feature", "properties": { "population": 387, "longitude": 17.455850573157658, "latitude": 45.78123188927767, "BM": 59 }, "geometry": { "type": "Polygon", "coordinates": [ [ [ 17.427918622975753, 45.766182079129827 ], [ 17.442046929036533, 45.794850962482812 ], [ 17.466400621598449, 45.812632224115525 ], [ 17.48375250795511, 45.770397946855645 ], [ 17.435717192633515, 45.757398641054316 ], [ 17.427701561227469, 45.764598635591298 ], [ 17.427918622975753, 45.766182079129827 ] ] ] } },
{ "type": "Feature", "properties": { "population": 70, "longitude": 17.462453450639224, "latitude": 45.747666067094158, "BM": 60 }, "geometry": { "type": "Polygon", "coordinates": [ [ [ 17.441806072473284, 45.735184756298722 ], [ 17.435717192633515, 45.757398641054316 ], [ 17.48375250795511, 45.770397946855645 ], [ 17.486867360333701, 45.769191135662282 ], [ 17.479195987791147, 45.731196230624818 ], [ 17.472945953617639, 45.729001146998272 ], [ 17.452521574376707, 45.725721836615776 ], [ 17.441806072473284, 45.735184756298722 ] ] ] } },
{ "type": "Feature", "properties": { "population": 405, "longitude": 17.450962103454319, "latitude": 45.870024795174331, "BM": 61 }, "geometry": { "type": "Polygon", "coordinates": [ [ [ 17.436893801701462, 45.880357010891174 ], [ 17.439868836198375, 45.886550961241994 ], [ 17.45663450560901, 45.893482615781465 ], [ 17.472259156356518, 45.876241207935443 ], [ 17.448646314266387, 45.844122771307212 ], [ 17.437102402929241, 45.847436028271055 ], [ 17.436893801701462, 45.880357010891174 ] ] ] } },
{ "type": "Feature", "properties": { "population": 363, "longitude": 17.435948977245996, "latitude": 45.914474984784555, "BM": 62 }, "geometry": { "type": "Polygon", "coordinates": [ [ [ 17.409460218445915, 45.931022986768902 ], [ 17.414596636469646, 45.945282424609431 ], [ 17.463303204701383, 45.911951800806357 ], [ 17.45663450560901, 45.893482615781465 ], [ 17.439868836198375, 45.886550961241994 ], [ 17.411086293005631, 45.925431572920679 ], [ 17.409460218445915, 45.931022986768902 ] ] ] } },
{ "type": "Feature", "properties": { "population": 312, "longitude": 17.480118589077179, "latitude": 46.076196358694446, "BM": 63 }, "geometry": { "type": "Polygon", "coordinates": [ [ [ 17.561311621867642, 46.369145385483982 ], [ 17.471518714406731, 45.914938851469159 ], [ 17.463303204701383, 45.911951800806357 ], [ 17.414596636469646, 45.945282424609431 ], [ 17.414114451243616, 45.966091838932634 ], [ 17.561311621867642, 46.369145385483982 ] ] ] } },
{ "type": "Feature", "properties": { "population": 1240, "longitude": 17.469500359132077, "latitude": 45.69976276200299, "BM": 64 }, "geometry": { "type": "Polygon", "coordinates": [ [ [ 17.452521574376707, 45.725721836615776 ], [ 17.472945953617639, 45.729001146998272 ], [ 17.486818067277774, 45.693209023198023 ], [ 17.476471266658262, 45.66492470728776 ], [ 17.459787892460014, 45.680833431052797 ], [ 17.452521574376707, 45.725721836615776 ] ] ] } },
{ "type": "Feature", "properties": { "population": 68, "longitude": 17.609378162844852, "latitude": 45.681996915151949, "BM": 65 }, "geometry": { "type": "Polygon", "coordinates": [ [ [ 17.586829705509718, 45.698860231927007 ], [ 17.653182996678822, 45.690854831929258 ], [ 17.647400211325841, 45.677361706337621 ], [ 17.581834340037165, 45.660492962837822 ], [ 17.581817669429647, 45.660515019554531 ], [ 17.577885555804833, 45.695010921088773 ], [ 17.586829705509718, 45.698860231927007 ] ] ] } },
{ "type": "Feature", "properties": { "population": 58, "longitude": 17.433205398741809, "latitude": 45.702832242058072, "BM": 66 }, "geometry": { "type": "Polygon", "coordinates": [ [ [ 17.441806072473284, 45.735184756298722 ], [ 17.452521574376707, 45.725721836615776 ], [ 17.459787892460014, 45.680833431052797 ], [ 17.401557022757242, 45.687470022813891 ], [ 17.39189348352938, 45.68884301137129 ], [ 17.441806072473284, 45.735184756298722 ] ] ] } },
{ "type": "Feature", "properties": { "population": 611, "longitude": 17.426063532498457, "latitude": 45.793738531644564, "BM": 67 }, "geometry": { "type": "Polygon", "coordinates": [ [ [ 17.408948619590191, 45.804555069244621 ], [ 17.425654939317905, 45.815072275683029 ], [ 17.442046929036533, 45.794850962482812 ], [ 17.427918622975753, 45.766182079129827 ], [ 17.408948619590191, 45.804555069244621 ] ] ] } },
{ "type": "Feature", "properties": { "population": 261, "longitude": 17.396882454386688, "latitude": 45.77642704674961, "BM": 68 }, "geometry": { "type": "Polygon", "coordinates": [ [ [ 17.358654186024797, 45.756047530222745 ], [ 17.402198059205382, 45.807808064908464 ], [ 17.408948619590191, 45.804555069244621 ], [ 17.427918622975753, 45.766182079129827 ], [ 17.427701561227469, 45.764598635591298 ], [ 17.359514368509384, 45.754150597997395 ], [ 17.358654186024797, 45.756047530222745 ] ] ] } },
{ "type": "Feature", "properties": { "population": 640, "longitude": 18.56896974965548, "latitude": 45.534421984819154, "BM": 69 }, "geometry": { "type": "Polygon", "coordinates": [ [ [ 18.566203145980779, 45.520349571147591 ], [ 18.565840635442502, 45.557304484263852 ], [ 18.574791627569628, 45.529300197393717 ], [ 18.56664660340121, 45.517046475654091 ], [ 18.566203145980779, 45.520349571147591 ] ] ] } },
{ "type": "Feature", "properties": { "population": 350, "longitude": 17.426355885140797, "latitude": 45.866667147858642, "BM": 70 }, "geometry": { "type": "Polygon", "coordinates": [ [ [ 17.408204778543166, 45.875175887271922 ], [ 17.419639182139878, 45.882236431868535 ], [ 17.436893801701462, 45.880357010891174 ], [ 17.437102402929241, 45.847436028271055 ], [ 17.430202346760169, 45.845219020507059 ], [ 17.408204778543166, 45.875175887271922 ] ] ] } },
{ "type": "Feature", "properties": { "population": 162, "longitude": 17.40476881542768, "latitude": 45.860221010697103, "BM": 71 }, "geometry": { "type": "Polygon", "coordinates": [ [ [ 17.376932539787354, 45.869600993669394 ], [ 17.399006404526148, 45.877740154745638 ], [ 17.408204778543166, 45.875175887271922 ], [ 17.430202346760169, 45.845219020507059 ], [ 17.428352340426379, 45.844019458736341 ], [ 17.415531229870169, 45.841947426245369 ], [ 17.414251320035529, 45.842421064881584 ], [ 17.399713305082471, 45.850563494131514 ], [ 17.376932539787354, 45.869600993669394 ] ] ] } },
{ "type": "Feature", "properties": { "population": 640, "longitude": 18.56896974965548, "latitude": 45.534421984819154, "BM": 72 }, "geometry": { "type": "Polygon", "coordinates": [ [ [ 18.566203145980779, 45.520349571147591 ], [ 18.565840635442502, 45.557304484263852 ], [ 18.574791627569628, 45.529300197393717 ], [ 18.56664660340121, 45.517046475654091 ], [ 18.566203145980779, 45.520349571147591 ] ] ] } },
{ "type": "Feature", "properties": { "population": 183, "longitude": 18.316398666675692, "latitude": 45.25078085636126, "BM": 73 }, "geometry": { "type": "Polygon", "coordinates": [ [ [ 18.319492314327722, 45.287944097783402 ], [ 18.335118996231959, 45.279933084796923 ], [ 18.330340499409747, 45.234861392672506 ], [ 18.312340310830738, 45.220056620687309 ], [ 18.290525878679244, 45.226786630761389 ], [ 18.319492314327722, 45.287944097783402 ] ] ] } },
{ "type": "Feature", "properties": { "population": 59, "longitude": 18.294382826977404, "latitude": 45.26200031406109, "BM": 74 }, "geometry": { "type": "Polygon", "coordinates": [ [ [ 18.274266837968135, 45.268260611799022 ], [ 18.313306705052277, 45.295503575429798 ], [ 18.319492314327722, 45.287944097783402 ], [ 18.290525878679244, 45.226786630761389 ], [ 18.281684783834113, 45.226554952875702 ], [ 18.274266837968135, 45.268260611799022 ] ] ] } },
{ "type": "Feature", "properties": { "population": 93, "longitude": 17.428311258447753, "latitude": 46.143216964985299, "BM": 75 }, "geometry": { "type": "Polygon", "coordinates": [ [ [ 17.419919945442476, 46.252174005515542 ], [ 17.575812439010306, 46.413053769428103 ], [ 17.561311621867642, 46.369145385483982 ], [ 17.414114451243616, 45.966091838932634 ], [ 17.34280197154278, 45.946591115263409 ], [ 17.304836945874126, 46.000517538775568 ], [ 17.419919945442476, 46.252174005515542 ] ] ] } },
{ "type": "Feature", "properties": { "population": 610, "longitude": 18.666008725947577, "latitude": 45.498982370650623, "BM": 76 }, "geometry": { "type": "Polygon", "coordinates": [ [ [ 18.641487183257727, 45.500261854429795 ], [ 18.655963424207926, 45.514867725455318 ], [ 18.671492868045213, 45.517589769291696 ], [ 18.702604923334658, 45.503212269515288 ], [ 18.705353998511907, 45.496075393674644 ], [ 18.643087660973432, 45.481926720812403 ], [ 18.636918974236636, 45.480912336506279 ], [ 18.62848175711353, 45.484153441634206 ], [ 18.641487183257727, 45.500261854429795 ] ] ] } },
{ "type": "Feature", "properties": { "population": 773, "longitude": 17.376315796655756, "latitude": 45.834087849670169, "BM": 77 }, "geometry": { "type": "Polygon", "coordinates": [ [ [ 17.370583139922598, 45.824454559654491 ], [ 17.377662555463989, 45.844871701565886 ], [ 17.380315164978811, 45.841220105789844 ], [ 17.379411096199043, 45.832060585949357 ], [ 17.378817541323386, 45.83057208424664 ], [ 17.371464825005209, 45.824077714371661 ], [ 17.370583139922598, 45.824454559654491 ] ] ] } },
{ "type": "Feature", "properties": { "population": 591, "longitude": 17.3825381182629, "latitude": 45.832237643594887, "BM": 78 }, "geometry": { "type": "Polygon", "coordinates": [ [ [ 17.379411096199043, 45.832060585949357 ], [ 17.382025532554032, 45.833567481373692 ], [ 17.384916186952111, 45.834185498190649 ], [ 17.385477762381491, 45.833634991761002 ], [ 17.38567835296891, 45.832056812234477 ], [ 17.383020225823035, 45.830877950798609 ], [ 17.378817541323386, 45.83057208424664 ], [ 17.379411096199043, 45.832060585949357 ] ] ] } },
{ "type": "Feature", "properties": { "population": 535, "longitude": 17.383590668306013, "latitude": 45.853786578822849, "BM": 79 }, "geometry": { "type": "Polygon", "coordinates": [ [ [ 17.381721825281453, 45.840166739017768 ], [ 17.380315164978811, 45.841220105789844 ], [ 17.377662555463989, 45.844871701565886 ], [ 17.369701661650634, 45.870821151929803 ], [ 17.376932539787354, 45.869600993669394 ], [ 17.399713305082471, 45.850563494131514 ], [ 17.38839444508999, 45.838977218739352 ], [ 17.388176144386289, 45.838876793735587 ], [ 17.38184026074622, 45.840086921743037 ], [ 17.381721825281453, 45.840166739017768 ] ] ] } },
{ "type": "Feature", "properties": { "population": 389, "longitude": 17.382886428070833, "latitude": 45.836023213968716, "BM": 80 }, "geometry": { "type": "Polygon", "coordinates": [ [ [ 17.38184026074622, 45.840086921743037 ], [ 17.384916186952111, 45.834185498190649 ], [ 17.382025532554032, 45.833567481373692 ], [ 17.381721825281453, 45.840166739017768 ], [ 17.38184026074622, 45.840086921743037 ] ] ] } },
{ "type": "Feature", "properties": { "population": 413, "longitude": 17.385451083363311, "latitude": 45.837232098374301, "BM": 81 }, "geometry": { "type": "Polygon", "coordinates": [ [ [ 17.384916186952111, 45.834185498190649 ], [ 17.38184026074622, 45.840086921743037 ], [ 17.388176144386289, 45.838876793735587 ], [ 17.387978668908282, 45.836259399425984 ], [ 17.38741803253075, 45.835123548265621 ], [ 17.385477762381491, 45.833634991761002 ], [ 17.384916186952111, 45.834185498190649 ] ] ] } },
{ "type": "Feature", "properties": { "population": 630, "longitude": 17.388245270813769, "latitude": 45.832388104121563, "BM": 82 }, "geometry": { "type": "Polygon", "coordinates": [ [ [ 17.38741803253075, 45.835123548265621 ], [ 17.391367977956588, 45.832853628418675 ], [ 17.390507607052811, 45.83107970223282 ], [ 17.388408381835273, 45.829391210312842 ], [ 17.38567835296891, 45.832056812234477 ], [ 17.385477762381491, 45.833634991761002 ], [ 17.38741803253075, 45.835123548265621 ] ] ] } },
{ "type": "Feature", "properties": { "population": 595, "longitude": 17.389984060549086, "latitude": 45.836459141445253, "BM": 83 }, "geometry": { "type": "Polygon", "coordinates": [ [ [ 17.38839444508999, 45.838977218739352 ], [ 17.393126694830983, 45.834669939112828 ], [ 17.392671089308418, 45.8343225683331 ], [ 17.387978668908282, 45.836259399425984 ], [ 17.388176144386289, 45.838876793735587 ], [ 17.38839444508999, 45.838977218739352 ] ] ] } },
{ "type": "Feature", "properties": { "population": 715, "longitude": 18.484417013436655, "latitude": 45.649223816588425, "BM": 84 }, "geometry": { "type": "Polygon", "coordinates": [ [ [ 18.455330773291866, 45.634178682703379 ], [ 18.498841819636166, 45.67521365116982 ], [ 18.510663718094275, 45.66745489335095 ], [ 18.507788760407252, 45.659966529916957 ], [ 18.473744400931306, 45.624531359487982 ], [ 18.455330773291866, 45.634178682703379 ] ] ] } },
{ "type": "Feature", "properties": { "population": 621, "longitude": 17.385784809829321, "latitude": 45.828709937588087, "BM": 85 }, "geometry": { "type": "Polygon", "coordinates": [ [ [ 17.384679506876452, 45.825257916372038 ], [ 17.383020225823035, 45.830877950798609 ], [ 17.38567835296891, 45.832056812234477 ], [ 17.388408381835273, 45.829391210312842 ], [ 17.388160926347339, 45.826554144068865 ], [ 17.384679506876452, 45.825257916372038 ] ] ] } },
{ "type": "Feature", "properties": { "population": 440, "longitude": 17.395052073589508, "latitude": 45.82638543096337, "BM": 86 }, "geometry": { "type": "Polygon", "coordinates": [ [ [ 17.388408381835273, 45.829391210312842 ], [ 17.390507607052811, 45.83107970223282 ], [ 17.403806239446784, 45.824469664696913 ], [ 17.402664242185736, 45.822247893913314 ], [ 17.389405784317056, 45.825501049382481 ], [ 17.388160926347339, 45.826554144068865 ], [ 17.388408381835273, 45.829391210312842 ] ] ] } },
{ "type": "Feature", "properties": { "population": 806, "longitude": 17.378550843621898, "latitude": 45.825723471949054, "BM": 87 }, "geometry": { "type": "Polygon", "coordinates": [ [ [ 17.37586357104804, 45.820134186506898 ], [ 17.371464825005209, 45.824077714371661 ], [ 17.378817541323386, 45.83057208424664 ], [ 17.383020225823035, 45.830877950798609 ], [ 17.384679506876452, 45.825257916372038 ], [ 17.37586357104804, 45.820134186506898 ] ] ] } },
{ "type": "Feature", "properties": { "population": 847, "longitude": 17.383519430111935, "latitude": 45.820082967168858, "BM": 88 }, "geometry": { "type": "Polygon", "coordinates": [ [ [ 17.384679506876452, 45.825257916372038 ], [ 17.388160926347339, 45.826554144068865 ], [ 17.389405784317056, 45.825501049382481 ], [ 17.387956521034191, 45.815450461025314 ], [ 17.378320890151496, 45.815345246499923 ], [ 17.37586357104804, 45.820134186506898 ], [ 17.384679506876452, 45.825257916372038 ] ] ] } },
{ "type": "Feature", "properties": { "population": 722, "longitude": 17.378582239096129, "latitude": 45.789255082779896, "BM": 89 }, "geometry": { "type": "Polygon", "coordinates": [ [ [ 17.376744293918978, 45.806018043510136 ], [ 17.402129050958798, 45.807947812804677 ], [ 17.402198059205382, 45.807808064908464 ], [ 17.358654186024797, 45.756047530222745 ], [ 17.357900783376657, 45.757169742569467 ], [ 17.376744293918978, 45.806018043510136 ] ] ] } },
{ "type": "Feature", "properties": { "population": 660, "longitude": 17.387896088442648, "latitude": 45.81066421130074, "BM": 90 }, "geometry": { "type": "Polygon", "coordinates": [ [ [ 17.378320890151496, 45.815345246499923 ], [ 17.387956521034191, 45.815450461025314 ], [ 17.400934060229257, 45.811600126981965 ], [ 17.402129050958798, 45.807947812804677 ], [ 17.376744293918978, 45.806018043510136 ], [ 17.378320890151496, 45.815345246499923 ] ] ] } },
{ "type": "Feature", "properties": { "population": 579, "longitude": 18.717294139685869, "latitude": 45.532919540913667, "BM": 91 }, "geometry": { "type": "Polygon", "coordinates": [ [ [ 18.714232886205249, 45.545092651973761 ], [ 18.714914810666688, 45.545650468915099 ], [ 18.720368180200495, 45.541714657454186 ], [ 18.723145931011057, 45.526972171247344 ], [ 18.71261593066189, 45.520928460911527 ], [ 18.714232886205249, 45.545092651973761 ] ] ] } },
{ "type": "Feature", "properties": { "population": 479, "longitude": 18.612827318377704, "latitude": 45.512517472298661, "BM": 92 }, "geometry": { "type": "Polygon", "coordinates": [ [ [ 18.603267194389925, 45.494123944087178 ], [ 18.600297262275415, 45.535885406146043 ], [ 18.600658000742598, 45.544619565919142 ], [ 18.617246879372018, 45.546606830211601 ], [ 18.627860538385431, 45.48388529956889 ], [ 18.618526920465385, 45.478853438843757 ], [ 18.607550306201226, 45.485243690869432 ], [ 18.603267194389925, 45.494123944087178 ] ] ] } },
{ "type": "Feature", "properties": { "population": 491, "longitude": 18.713474952900768, "latitude": 45.577412300686596, "BM": 93 }, "geometry": { "type": "Polygon", "coordinates": [ [ [ 18.702926127964918, 45.593935163779982 ], [ 18.702937220135777, 45.593940170004267 ], [ 18.716196305402871, 45.592214488286729 ], [ 18.729635952581852, 45.582731179280842 ], [ 18.727785465605461, 45.577073319232369 ], [ 18.727522101410859, 45.576323496117652 ], [ 18.71546479226074, 45.558513644524389 ], [ 18.712452969082548, 45.557073136768409 ], [ 18.707276360882858, 45.560637907712184 ], [ 18.70222445438193, 45.574721259695394 ], [ 18.700695464318564, 45.585688631037712 ], [ 18.702926127964918, 45.593935163779982 ] ] ] } },
{ "type": "Feature", "properties": { "population": 843, "longitude": 18.062297877182218, "latitude": 45.493515195805344, "BM": 94 }, "geometry": { "type": "Polygon", "coordinates": [ [ [ 18.044293347140158, 45.492436880612097 ], [ 18.044246109864247, 45.498838832876594 ], [ 18.068263029899924, 45.503306931624145 ], [ 18.07755022729302, 45.493512115661531 ], [ 18.074120518671389, 45.481618487391479 ], [ 18.044293347140158, 45.492436880612097 ] ] ] } },
{ "type": "Feature", "properties": { "population": 548, "longitude": 17.385601387046275, "latitude": 45.895887748913566, "BM": 95 }, "geometry": { "type": "Polygon", "coordinates": [ [ [ 17.411086293005631, 45.925431572920679 ], [ 17.409106196607706, 45.901042680152713 ], [ 17.399006404526148, 45.877740154745638 ], [ 17.376932539787354, 45.869600993669394 ], [ 17.369701661650634, 45.870821151929803 ], [ 17.364777905236362, 45.872975574179115 ], [ 17.352271272664801, 45.891844733515498 ], [ 17.409460218445915, 45.931022986768902 ], [ 17.411086293005631, 45.925431572920679 ] ] ] } },
{ "type": "Feature", "properties": { "population": 290, "longitude": 18.180618585357923, "latitude": 45.469215937397266, "BM": 96 }, "geometry": { "type": "Polygon", "coordinates": [ [ [ 18.168032783376255, 45.487428330569173 ], [ 18.199820780061732, 45.46819520007093 ], [ 18.194688003405901, 45.455319668769874 ], [ 18.191807626353857, 45.45388482255445 ], [ 18.163571506321638, 45.465979774235819 ], [ 18.168032783376255, 45.487428330569173 ] ] ] } },
{ "type": "Feature", "properties": { "population": 605, "longitude": 17.36423814397715, "latitude": 45.84487050603434, "BM": 97 }, "geometry": { "type": "Polygon", "coordinates": [ [ [ 17.348959254776137, 45.834390269985072 ], [ 17.364777905236362, 45.872975574179115 ], [ 17.369701661650634, 45.870821151929803 ], [ 17.377662555463989, 45.844871701565886 ], [ 17.370583139922598, 45.824454559654491 ], [ 17.350206150965597, 45.827354835583471 ], [ 17.348959254776137, 45.834390269985072 ] ] ] } },
{ "type": "Feature", "properties": { "population": 645, "longitude": 17.340705489892034, "latitude": 45.864838746706099, "BM": 98 }, "geometry": { "type": "Polygon", "coordinates": [ [ [ 17.319293050750868, 45.86025181821099 ], [ 17.327719071723994, 45.886009195316895 ], [ 17.342598164758069, 45.895930305311182 ], [ 17.352271272664801, 45.891844733515498 ], [ 17.364777905236362, 45.872975574179115 ], [ 17.348959254776137, 45.834390269985072 ], [ 17.327729658880219, 45.841609974839749 ], [ 17.317563847540075, 45.84540419492307 ], [ 17.318303579457456, 45.855000833773069 ], [ 17.319293050750868, 45.86025181821099 ] ] ] } },
{ "type": "Feature", "properties": { "population": 479, "longitude": 18.612827318377704, "latitude": 45.512517472298661, "BM": 99 }, "geometry": { "type": "Polygon", "coordinates": [ [ [ 18.603267194389925, 45.494123944087178 ], [ 18.600297262275415, 45.535885406146043 ], [ 18.600658000742598, 45.544619565919142 ], [ 18.617246879372018, 45.546606830211601 ], [ 18.627860538385431, 45.48388529956889 ], [ 18.618526920465385, 45.478853438843757 ], [ 18.607550306201226, 45.485243690869432 ], [ 18.603267194389925, 45.494123944087178 ] ] ] } },
{ "type": "Feature", "properties": { "population": 193, "longitude": 17.765122040623446, "latitude": 46.115707920870321, "BM": 100 }, "geometry": { "type": "Polygon", "coordinates": [ [ [ 17.963033498742995, 46.481309156621634 ], [ 17.898747089101473, 46.244583862385525 ], [ 17.733302369692684, 45.956714389402826 ], [ 17.595470903609453, 45.857819911147239 ], [ 17.564265967223729, 45.862459582370406 ], [ 17.563381573793233, 45.890037188089124 ], [ 17.963033498742995, 46.481309156621634 ] ] ] } },
{ "type": "Feature", "properties": { "population": 430, "longitude": 18.405032434317, "latitude": 45.289629214077173, "BM": 101 }, "geometry": { "type": "Polygon", "coordinates": [ [ [ 18.424726194841099, 45.28528167413694 ], [ 18.416057939393827, 45.276704819193121 ], [ 18.378060730096905, 45.285581911926506 ], [ 18.409966168623949, 45.30644184094384 ], [ 18.420339342478474, 45.2929189865933 ], [ 18.424726194841099, 45.28528167413694 ] ] ] } },
{ "type": "Feature", "properties": { "population": 471, "longitude": 17.282331875843884, "latitude": 45.857659677190853, "BM": 102 }, "geometry": { "type": "Polygon", "coordinates": [ [ [ 17.282058783822166, 45.863911384613921 ], [ 17.301609685353274, 45.860488309271638 ], [ 17.301512226440117, 45.856424551049997 ], [ 17.256476986118074, 45.851215688508724 ], [ 17.282058783822166, 45.863911384613921 ] ] ] } },
{ "type": "Feature", "properties": { "population": 576, "longitude": 17.310558902277592, "latitude": 45.858040078794225, "BM": 103 }, "geometry": { "type": "Polygon", "coordinates": [ [ [ 17.318303579457456, 45.855000833773069 ], [ 17.301512226440117, 45.856424551049997 ], [ 17.301609685353274, 45.860488309271638 ], [ 17.319293050750868, 45.86025181821099 ], [ 17.318303579457456, 45.855000833773069 ] ] ] } },
{ "type": "Feature", "properties": { "population": 307, "longitude": 19.001304610381819, "latitude": 45.356071715576746, "BM": 104 }, "geometry": { "type": "Polygon", "coordinates": [ [ [ 18.996770696738256, 45.356259022390766 ], [ 19.010439357701863, 45.364610012513744 ], [ 18.998644230728868, 45.349030234119638 ], [ 18.995573335116582, 45.351707774298291 ], [ 18.996770696738256, 45.356259022390766 ] ] ] } },
{ "type": "Feature", "properties": { "population": 244, "longitude": 17.977754315140405, "latitude": 45.735250112058374, "BM": 105 }, "geometry": { "type": "Polygon", "coordinates": [ [ [ 17.947189779605427, 45.772744692302382 ], [ 18.01546752237385, 45.749958663047046 ], [ 18.015987451533228, 45.73679181426774 ], [ 18.003110914850193, 45.698693216696029 ], [ 17.990317288357101, 45.697696938081073 ], [ 17.938205534491935, 45.728149038425769 ], [ 17.947189779605427, 45.772744692302382 ] ] ] } },
{ "type": "Feature", "properties": { "population": 460, "longitude": 17.309024043550291, "latitude": 45.87126993371416, "BM": 106 }, "geometry": { "type": "Polygon", "coordinates": [ [ [ 17.282058783822166, 45.863911384613921 ], [ 17.314734689698888, 45.885120932983483 ], [ 17.327719071723994, 45.886009195316895 ], [ 17.319293050750868, 45.86025181821099 ], [ 17.301609685353274, 45.860488309271638 ], [ 17.282058783822166, 45.863911384613921 ] ] ] } },
{ "type": "Feature", "properties": { "population": 161, "longitude": 17.312501660269373, "latitude": 45.902059840544958, "BM": 107 }, "geometry": { "type": "Polygon", "coordinates": [ [ [ 17.271486597590464, 45.903847097377117 ], [ 17.314944142070058, 45.919860935241239 ], [ 17.33690035040506, 45.910809237062701 ], [ 17.342598164758069, 45.895930305311182 ], [ 17.327719071723994, 45.886009195316895 ], [ 17.314734689698888, 45.885120932983483 ], [ 17.271486597590464, 45.903847097377117 ] ] ] } },
{ "type": "Feature", "properties": { "population": 179, "longitude": 17.315578954401428, "latitude": 45.951998993414961, "BM": 108 }, "geometry": { "type": "Polygon", "coordinates": [ [ [ 17.304836945874126, 46.000517538775568 ], [ 17.34280197154278, 45.946591115263409 ], [ 17.33690035040506, 45.910809237062701 ], [ 17.314944142070058, 45.919860935241239 ], [ 17.290117677078275, 45.943992355295784 ], [ 17.298056265624183, 45.993583983657999 ], [ 17.301691440276745, 45.997985429225544 ], [ 17.304836945874126, 46.000517538775568 ] ] ] } },
{ "type": "Feature", "properties": { "population": 481, "longitude": 18.200560823214641, "latitude": 45.543993449222292, "BM": 109 }, "geometry": { "type": "Polygon", "coordinates": [ [ [ 18.154269643795171, 45.52617976869108 ], [ 18.169042823732923, 45.580251508118771 ], [ 18.198771791630687, 45.585517159323629 ], [ 18.235263166144833, 45.579840692931874 ], [ 18.241982540027603, 45.520508508074151 ], [ 18.226868420338924, 45.501849889048259 ], [ 18.225132510776668, 45.501357818233821 ], [ 18.165416241087723, 45.513871501571096 ], [ 18.156430082928569, 45.521344831462315 ], [ 18.154269643795171, 45.52617976869108 ] ] ] } },
{ "type": "Feature", "properties": { "population": 456, "longitude": 17.899302183880138, "latitude": 45.556465845860771, "BM": 110 }, "geometry": { "type": "Polygon", "coordinates": [ [ [ 17.872993051918122, 45.565406730393747 ], [ 17.891048923162693, 45.575497739767769 ], [ 17.902386664769423, 45.581674626322375 ], [ 17.919034308186674, 45.557155142593444 ], [ 17.919987172009009, 45.54277165612595 ], [ 17.902528123775088, 45.530364075439664 ], [ 17.882420793335584, 45.551397957979198 ], [ 17.872993051918122, 45.565406730393747 ] ] ] } },
{ "type": "Feature", "properties": { "population": 428, "longitude": 17.891160430015521, "latitude": 45.587834804656126, "BM": 111 }, "geometry": { "type": "Polygon", "coordinates": [ [ [ 17.87336507596514, 45.6002323202379 ], [ 17.906378060673529, 45.589493967320045 ], [ 17.902386664769423, 45.581674626322375 ], [ 17.891048923162693, 45.575497739767769 ], [ 17.87336507596514, 45.6002323202379 ] ] ] } },
{ "type": "Feature", "properties": { "population": 500, "longitude": 17.891639871164063, "latitude": 45.529040992057219, "BM": 112 }, "geometry": { "type": "Polygon", "coordinates": [ [ [ 17.882420793335584, 45.551397957979198 ], [ 17.902528123775088, 45.530364075439664 ], [ 17.897215063746195, 45.504780023853378 ], [ 17.881500809763281, 45.53205023566575 ], [ 17.882420793335584, 45.551397957979198 ] ] ] } },
{ "type": "Feature", "properties": { "population": 130, "longitude": 17.911171400177412, "latitude": 45.514064432605572, "BM": 113 }, "geometry": { "type": "Polygon", "coordinates": [ [ [ 17.897215063746195, 45.504780023853378 ], [ 17.902528123775088, 45.530364075439664 ], [ 17.919987172009009, 45.54277165612595 ], [ 17.928631731505781, 45.536879780171311 ], [ 17.928651023702439, 45.536620195044996 ], [ 17.916460948612499, 45.494186826379838 ], [ 17.900459060327751, 45.481195043867466 ], [ 17.896798231387777, 45.501181316098567 ], [ 17.897215063746195, 45.504780023853378 ] ] ] } },
{ "type": "Feature", "properties": { "population": 456, "longitude": 17.899302183880138, "latitude": 45.556465845860771, "BM": 114 }, "geometry": { "type": "Polygon", "coordinates": [ [ [ 17.872993051918122, 45.565406730393747 ], [ 17.891048923162693, 45.575497739767769 ], [ 17.902386664769423, 45.581674626322375 ], [ 17.919034308186674, 45.557155142593444 ], [ 17.919987172009009, 45.54277165612595 ], [ 17.902528123775088, 45.530364075439664 ], [ 17.882420793335584, 45.551397957979198 ], [ 17.872993051918122, 45.565406730393747 ] ] ] } },
{ "type": "Feature", "properties": { "population": 192, "longitude": 17.863130856368677, "latitude": 45.546879608506302, "BM": 115 }, "geometry": { "type": "Polygon", "coordinates": [ [ [ 17.865309953779917, 45.564892380537664 ], [ 17.872993051918122, 45.565406730393747 ], [ 17.882420793335584, 45.551397957979198 ], [ 17.881500809763281, 45.53205023566575 ], [ 17.880768182218496, 45.531482328566703 ], [ 17.868265151150521, 45.526159919116573 ], [ 17.836641098941193, 45.545574604573694 ], [ 17.848626180033623, 45.561346869829009 ], [ 17.865309953779917, 45.564892380537664 ] ] ] } },
{ "type": "Feature", "properties": { "population": 120, "longitude": 17.885691214414166, "latitude": 45.604989309734464, "BM": 116 }, "geometry": { "type": "Polygon", "coordinates": [ [ [ 17.868899108841365, 45.604178422826443 ], [ 17.869181825437312, 45.619085513544519 ], [ 17.889870665642515, 45.615551661894003 ], [ 17.907765744239107, 45.5921771533258 ], [ 17.906378060673529, 45.589493967320045 ], [ 17.87336507596514, 45.6002323202379 ], [ 17.868899108841365, 45.604178422826443 ] ] ] } },
{ "type": "Feature", "properties": { "population": 46, "longitude": 17.877740504534071, "latitude": 45.634925862572452, "BM": 117 }, "geometry": { "type": "Polygon", "coordinates": [ [ [ 17.848704141948211, 45.629424339456563 ], [ 17.864117943008665, 45.646294345159006 ], [ 17.901965756010039, 45.655926011463578 ], [ 17.889870665642515, 45.615551661894003 ], [ 17.869181825437312, 45.619085513544519 ], [ 17.848761490740774, 45.628841106831437 ], [ 17.848704141948211, 45.629424339456563 ] ] ] } },
{ "type": "Feature", "properties": { "population": 684, "longitude": 17.853435635013902, "latitude": 45.595740363679212, "BM": 118 }, "geometry": { "type": "Polygon", "coordinates": [ [ [ 17.83381926448574, 45.604467622138877 ], [ 17.848761490740774, 45.628841106831437 ], [ 17.869181825437312, 45.619085513544519 ], [ 17.868899108841365, 45.604178422826443 ], [ 17.865309953779917, 45.564892380537664 ], [ 17.848626180033623, 45.561346869829009 ], [ 17.833500162069278, 45.603073771030758 ], [ 17.83381926448574, 45.604467622138877 ] ] ] } },
{ "type": "Feature", "properties": { "population": 367, "longitude": 17.885770677039492, "latitude": 45.517129325328952, "BM": 119 }, "geometry": { "type": "Polygon", "coordinates": [ [ [ 17.881500809763281, 45.53205023566575 ], [ 17.897215063746195, 45.504780023853378 ], [ 17.896798231387777, 45.501181316098567 ], [ 17.87583463113975, 45.520212646281443 ], [ 17.880768182218496, 45.531482328566703 ], [ 17.881500809763281, 45.53205023566575 ] ] ] } },
{ "type": "Feature", "properties": { "population": 727, "longitude": 17.874955988169589, "latitude": 45.525951631321568, "BM": 120 }, "geometry": { "type": "Polygon", "coordinates": [ [ [ 17.868265151150521, 45.526159919116573 ], [ 17.880768182218496, 45.531482328566703 ], [ 17.87583463113975, 45.520212646281443 ], [ 17.868265151150521, 45.526159919116573 ] ] ] } },
{ "type": "Feature", "properties": { "population": 135, "longitude": 17.848950854867191, "latitude": 45.503814255125256, "BM": 121 }, "geometry": { "type": "Polygon", "coordinates": [ [ [ 17.794143340949464, 45.510309572045173 ], [ 17.836641098941193, 45.545574604573694 ], [ 17.868265151150521, 45.526159919116573 ], [ 17.87583463113975, 45.520212646281443 ], [ 17.896798231387777, 45.501181316098567 ], [ 17.900459060327751, 45.481195043867466 ], [ 17.898363642474337, 45.474398646555791 ], [ 17.88405049748156, 45.471882388729121 ], [ 17.835496579632991, 45.478086497774648 ], [ 17.823097620680485, 45.481534991979274 ], [ 17.807448337469982, 45.491694148292481 ], [ 17.794143340949464, 45.510309572045173 ] ] ] } },
{ "type": "Feature", "properties": { "population": 182, "longitude": 18.128231654961716, "latitude": 45.565082509488036, "BM": 122 }, "geometry": { "type": "Polygon", "coordinates": [ [ [ 18.088607402959148, 45.560250292749437 ], [ 18.108378168124233, 45.607846721190022 ], [ 18.135458632808987, 45.604545669024454 ], [ 18.169042823732923, 45.580251508118771 ], [ 18.154269643795171, 45.52617976869108 ], [ 18.118207880205436, 45.527150101843468 ], [ 18.090510417746632, 45.54489965244624 ], [ 18.088607402959148, 45.560250292749437 ] ] ] } },
{ "type": "Feature", "properties": { "population": 34, "longitude": 17.883464919539318, "latitude": 45.670905327821622, "BM": 123 }, "geometry": { "type": "Polygon", "coordinates": [ [ [ 17.859825356550292, 45.686305237692359 ], [ 17.898095601215051, 45.694610472164669 ], [ 17.911283623500225, 45.664975201755624 ], [ 17.901965756010039, 45.655926011463578 ], [ 17.864117943008665, 45.646294345159006 ], [ 17.859695829391821, 45.686219853428888 ], [ 17.859825356550292, 45.686305237692359 ] ] ] } },
{ "type": "Feature", "properties": { "population": 78, "longitude": 18.180258055452327, "latitude": 45.652826749821422, "BM": 124 }, "geometry": { "type": "Polygon", "coordinates": [ [ [ 18.160024069296909, 45.665110655595107 ], [ 18.20184962808321, 45.655100575214831 ], [ 18.201916918235217, 45.649574982448797 ], [ 18.195206350364497, 45.640534239874029 ], [ 18.159690100031995, 45.650818702647342 ], [ 18.160024069296909, 45.665110655595107 ] ] ] } },
{ "type": "Feature", "properties": { "population": 90, "longitude": 18.259735181134388, "latitude": 45.484192317647775, "BM": 125 }, "geometry": { "type": "Polygon", "coordinates": [ [ [ 18.226868420338924, 45.501849889048259 ], [ 18.241982540027603, 45.520508508074151 ], [ 18.249424308193316, 45.518352864415164 ], [ 18.295628819065609, 45.476929521959541 ], [ 18.290325890801963, 45.459223264421261 ], [ 18.268372916535725, 45.453738178866395 ], [ 18.242205175547124, 45.466339143866378 ], [ 18.226868420338924, 45.501849889048259 ] ] ] } },
{ "type": "Feature", "properties": { "population": 59, "longitude": 18.294382826977404, "latitude": 45.26200031406109, "BM": 126 }, "geometry": { "type": "Polygon", "coordinates": [ [ [ 18.274266837968135, 45.268260611799022 ], [ 18.313306705052277, 45.295503575429798 ], [ 18.319492314327722, 45.287944097783402 ], [ 18.290525878679244, 45.226786630761389 ], [ 18.281684783834113, 45.226554952875702 ], [ 18.274266837968135, 45.268260611799022 ] ] ] } },
{ "type": "Feature", "properties": { "population": 516, "longitude": 18.601951442299754, "latitude": 45.775827531717923, "BM": 127 }, "geometry": { "type": "Polygon", "coordinates": [ [ [ 18.60339838159349, 45.783760174616503 ], [ 18.604968972241004, 45.777263434944423 ], [ 18.604743512538416, 45.771554175407886 ], [ 18.603360883873389, 45.768863345511079 ], [ 18.601682347912785, 45.767573934143662 ], [ 18.59769814006907, 45.778507561001796 ], [ 18.60339838159349, 45.783760174616503 ] ] ] } },
{ "type": "Feature", "properties": { "population": 166, "longitude": 17.860721968382144, "latitude": 45.902090120103367, "BM": 128 }, "geometry": { "type": "Polygon", "coordinates": [ [ [ 17.8929960506421, 46.1385406042399 ], [ 17.898404579148053, 45.867897990094583 ], [ 17.877689250454697, 45.8002900332704 ], [ 17.84782111715219, 45.772269375576556 ], [ 17.828487738113505, 45.764204343929464 ], [ 17.808471398849999, 45.765032556115997 ], [ 17.79738764882649, 45.771479700406267 ], [ 17.8929960506421, 46.1385406042399 ] ] ] } },
{ "type": "Feature", "properties": { "population": 82, "longitude": 18.194019727940105, "latitude": 45.416648448626276, "BM": 129 }, "geometry": { "type": "Polygon", "coordinates": [ [ [ 18.164279336641968, 45.400235340368702 ], [ 18.191807626353857, 45.45388482255445 ], [ 18.194688003405901, 45.455319668769874 ], [ 18.223423974194763, 45.436228615619513 ], [ 18.221339360566237, 45.416360041595851 ], [ 18.187683083159421, 45.379948181438046 ], [ 18.169780072441188, 45.386001678729798 ], [ 18.164279336641968, 45.400235340368702 ] ] ] } },
{ "type": "Feature", "properties": { "population": 274, "longitude": 18.810276517597007, "latitude": 45.589631260614709, "BM": 130 }, "geometry": { "type": "Polygon", "coordinates": [ [ [ 18.762490646619742, 45.581138682209023 ], [ 18.787835777166951, 45.641401260705521 ], [ 18.876696541347368, 45.609335480281317 ], [ 18.810876098583204, 45.53830467140417 ], [ 18.799000613749993, 45.533761632709393 ], [ 18.788205372331305, 45.539919766993805 ], [ 18.775264558326786, 45.555095464840491 ], [ 18.761686229640297, 45.57324808889021 ], [ 18.762490646619742, 45.581138682209023 ] ] ] } },
{ "type": "Feature", "properties": { "population": 111, "longitude": 17.804229473924156, "latitude": 45.559369656945805, "BM": 131 }, "geometry": { "type": "Polygon", "coordinates": [ [ [ 17.780217125952575, 45.591558915803375 ], [ 17.833500162069278, 45.603073771030758 ], [ 17.848626180033623, 45.561346869829009 ], [ 17.836641098941193, 45.545574604573694 ], [ 17.794143340949464, 45.510309572045173 ], [ 17.776379336695278, 45.516192673139685 ], [ 17.763594512288083, 45.558493998300769 ], [ 17.780217125952575, 45.591558915803375 ] ] ] } },
{ "type": "Feature", "properties": { "population": 110, "longitude": 17.8028579042624, "latitude": 45.666410269196902, "BM": 132 }, "geometry": { "type": "Polygon", "coordinates": [ [ [ 17.788486401057622, 45.675119372499438 ], [ 17.801143930634261, 45.683734205619672 ], [ 17.81736746559865, 45.670065917653766 ], [ 17.811078016577515, 45.648983985372155 ], [ 17.809125868008323, 45.648618621859754 ], [ 17.792031495171678, 45.658106201769719 ], [ 17.788486401057622, 45.675119372499438 ] ] ] } },
{ "type": "Feature", "properties": { "population": 42, "longitude": 17.81943988709542, "latitude": 45.686434175879647, "BM": 133 }, "geometry": { "type": "Polygon", "coordinates": [ [ [ 17.816735802785242, 45.705751082892128 ], [ 17.840201035228951, 45.683313242173618 ], [ 17.81736746559865, 45.670065917653766 ], [ 17.801143930634261, 45.683734205619672 ], [ 17.816735802785242, 45.705751082892128 ] ] ] } },
{ "type": "Feature", "properties": { "population": 206, "longitude": 17.827249132315213, "latitude": 45.661436337553575, "BM": 134 }, "geometry": { "type": "Polygon", "coordinates": [ [ [ 17.81736746559865, 45.670065917653766 ], [ 17.840201035228951, 45.683313242173618 ], [ 17.840648969459732, 45.683099137498708 ], [ 17.835186168564213, 45.64409857418169 ], [ 17.811078016577515, 45.648983985372155 ], [ 17.81736746559865, 45.670065917653766 ] ] ] } },
{ "type": "Feature", "properties": { "population": 19, "longitude": 17.788792691621808, "latitude": 45.701371085924329, "BM": 135 }, "geometry": { "type": "Polygon", "coordinates": [ [ [ 17.766961161548764, 45.713661072470742 ], [ 17.789539382845078, 45.722917237210716 ], [ 17.806460092097822, 45.720445038227126 ], [ 17.814559584237816, 45.716308864309539 ], [ 17.816735802785242, 45.705751082892128 ], [ 17.801143930634261, 45.683734205619672 ], [ 17.788486401057622, 45.675119372499438 ], [ 17.782766175894913, 45.678295029389176 ], [ 17.765958736690695, 45.688671050787221 ], [ 17.761168675984131, 45.707422635241983 ], [ 17.766961161548764, 45.713661072470742 ] ] ] } },
{ "type": "Feature", "properties": { "population": 126, "longitude": 17.974560816213678, "latitude": 45.500657356280549, "BM": 136 }, "geometry": { "type": "Polygon", "coordinates": [ [ [ 17.957595232200521, 45.517456730043264 ], [ 17.99741561850001, 45.506568298794008 ], [ 17.994254994477732, 45.488932244847511 ], [ 17.964620199103127, 45.484957413814804 ], [ 17.951962583242057, 45.509872637311616 ], [ 17.957595232200521, 45.517456730043264 ] ] ] } },
{ "type": "Feature", "properties": { "population": 294, "longitude": 17.775607094760616, "latitude": 45.656004460178387, "BM": 137 }, "geometry": { "type": "Polygon", "coordinates": [ [ [ 17.754296013253544, 45.639641036358306 ], [ 17.782766175894913, 45.678295029389176 ], [ 17.788486401057622, 45.675119372499438 ], [ 17.792031495171678, 45.658106201769719 ], [ 17.764422069906889, 45.635926245071644 ], [ 17.754296013253544, 45.639641036358306 ] ] ] } },
{ "type": "Feature", "properties": { "population": 83, "longitude": 18.29190262497168, "latitude": 45.55334181347601, "BM": 138 }, "geometry": { "type": "Polygon", "coordinates": [ [ [ 18.294142550613543, 45.543235337411389 ], [ 18.287658178124495, 45.542085011307627 ], [ 18.292273059636834, 45.573946316332176 ], [ 18.295666486539954, 45.545803607040661 ], [ 18.294142550613543, 45.543235337411389 ] ] ] } },
{ "type": "Feature", "properties": { "population": 202, "longitude": 17.774109839030213, "latitude": 45.740198273240878, "BM": 139 }, "geometry": { "type": "Polygon", "coordinates": [ [ [ 17.772596174821672, 45.768334724698455 ], [ 17.781148946658664, 45.766126895759228 ], [ 17.789539382845078, 45.722917237210716 ], [ 17.766961161548764, 45.713661072470742 ], [ 17.761018738595553, 45.73539855342063 ], [ 17.760740216810998, 45.751972715339505 ], [ 17.772596174821672, 45.768334724698455 ] ] ] } },
{ "type": "Feature", "properties": { "population": 676, "longitude": 18.609903416439941, "latitude": 45.772689639931613, "BM": 140 }, "geometry": { "type": "Polygon", "coordinates": [ [ [ 18.610072359328299, 45.771029458969394 ], [ 18.607847352414069, 45.774108513658263 ], [ 18.611790537577466, 45.772930947167183 ], [ 18.610072359328299, 45.771029458969394 ] ] ] } },
{ "type": "Feature", "properties": { "population": 105, "longitude": 17.750929017415931, "latitude": 45.744919456199064, "BM": 141 }, "geometry": { "type": "Polygon", "coordinates": [ [ [ 17.737499551682419, 45.743116672309931 ], [ 17.738523096884428, 45.750243130097878 ], [ 17.760740216810998, 45.751972715339505 ], [ 17.761018738595553, 45.73539855342063 ], [ 17.737499551682419, 45.743116672309931 ] ] ] } },
{ "type": "Feature", "properties": { "population": 188, "longitude": 18.184979732839697, "latitude": 45.318144055622099, "BM": 142 }, "geometry": { "type": "Polygon", "coordinates": [ [ [ 18.159248873884668, 45.309298293124321 ], [ 18.203243950576361, 45.35153786427729 ], [ 18.213664682844499, 45.339452251635599 ], [ 18.178635530409487, 45.290103462102103 ], [ 18.164908261298102, 45.288759646356752 ], [ 18.159248873884668, 45.309298293124321 ] ] ] } },
{ "type": "Feature", "properties": { "population": 153, "longitude": 17.74740710448453, "latitude": 45.723663482167758, "BM": 143 }, "geometry": { "type": "Polygon", "coordinates": [ [ [ 17.72716569386106, 45.71914989768127 ], [ 17.737499551682419, 45.743116672309931 ], [ 17.761018738595553, 45.73539855342063 ], [ 17.766961161548764, 45.713661072470742 ], [ 17.761168675984131, 45.707422635241983 ], [ 17.733821110087227, 45.711315270924082 ], [ 17.72716569386106, 45.71914989768127 ] ] ] } },
{ "type": "Feature", "properties": { "population": 96, "longitude": 17.721865189003001, "latitude": 45.746899819805257, "BM": 144 }, "geometry": { "type": "Polygon", "coordinates": [ [ [ 17.706745599587784, 45.758088376215653 ], [ 17.722525452353935, 45.777315447648938 ], [ 17.738523096884428, 45.750243130097878 ], [ 17.737499551682419, 45.743116672309931 ], [ 17.72716569386106, 45.71914989768127 ], [ 17.722097175068377, 45.721253201000891 ], [ 17.711618537297674, 45.726719923023268 ], [ 17.707191275025426, 45.746219915149474 ], [ 17.706745599587784, 45.758088376215653 ] ] ] } },
{ "type": "Feature", "properties": { "population": 309, "longitude": 18.172099931684141, "latitude": 45.740539394558901, "BM": 145 }, "geometry": { "type": "Polygon", "coordinates": [ [ [ 18.164685257101308, 45.745316964533551 ], [ 18.174402877550705, 45.758427112160881 ], [ 18.175445449318026, 45.758179299900874 ], [ 18.188491718546196, 45.738914278828545 ], [ 18.155332574972803, 45.723062151103349 ], [ 18.164685257101308, 45.745316964533551 ] ] ] } },
{ "type": "Feature", "properties": { "population": 371, "longitude": 18.467197064875343, "latitude": 45.664435943234082, "BM": 146 }, "geometry": { "type": "Polygon", "coordinates": [ [ [ 18.462936497821161, 45.689793172689328 ], [ 18.478009824834292, 45.689341448722494 ], [ 18.498841819636166, 45.67521365116982 ], [ 18.455330773291866, 45.634178682703379 ], [ 18.440818586436226, 45.640405914039164 ], [ 18.447737862524384, 45.659490774605544 ], [ 18.461321048182469, 45.686875138019431 ], [ 18.462936497821161, 45.689793172689328 ] ] ] } },
{ "type": "Feature", "properties": { "population": 221, "longitude": 17.938380947701777, "latitude": 45.548911293342108, "BM": 147 }, "geometry": { "type": "Polygon", "coordinates": [ [ [ 17.919034308186674, 45.557155142593444 ], [ 17.948946551605637, 45.562112252069291 ], [ 17.960615609815513, 45.54267449067784 ], [ 17.959243643706788, 45.54067397847971 ], [ 17.928631731505781, 45.536879780171311 ], [ 17.919987172009009, 45.54277165612595 ], [ 17.919034308186674, 45.557155142593444 ] ] ] } },
{ "type": "Feature", "properties": { "population": 82, "longitude": 18.194019727940105, "latitude": 45.416648448626276, "BM": 148 }, "geometry": { "type": "Polygon", "coordinates": [ [ [ 18.164279336641968, 45.400235340368702 ], [ 18.191807626353857, 45.45388482255445 ], [ 18.194688003405901, 45.455319668769874 ], [ 18.223423974194763, 45.436228615619513 ], [ 18.221339360566237, 45.416360041595851 ], [ 18.187683083159421, 45.379948181438046 ], [ 18.169780072441188, 45.386001678729798 ], [ 18.164279336641968, 45.400235340368702 ] ] ] } },
{ "type": "Feature", "properties": { "population": 648, "longitude": 17.716099255516301, "latitude": 45.696377388394737, "BM": 149 }, "geometry": { "type": "Polygon", "coordinates": [ [ [ 17.72716569386106, 45.71914989768127 ], [ 17.733821110087227, 45.711315270924082 ], [ 17.706506134358161, 45.660650306243831 ], [ 17.703700418785239, 45.697735336724733 ], [ 17.704012496696901, 45.701524572530815 ], [ 17.722097175068377, 45.721253201000891 ], [ 17.72716569386106, 45.71914989768127 ] ] ] } },
{ "type": "Feature", "properties": { "population": 613, "longitude": 17.698046522926035, "latitude": 45.681270717522835, "BM": 150 }, "geometry": { "type": "Polygon", "coordinates": [ [ [ 17.685047749830403, 45.68131138957439 ], [ 17.699426258490874, 45.702497827534941 ], [ 17.699666939855064, 45.702477568778271 ], [ 17.703700418785239, 45.697735336724733 ], [ 17.706506134358161, 45.660650306243831 ], [ 17.706162100738215, 45.659856744918073 ], [ 17.703576083280264, 45.660236020770377 ], [ 17.685047749830403, 45.68131138957439 ] ] ] } },
{ "type": "Feature", "properties": { "population": 778, "longitude": 18.106526558711735, "latitude": 45.496404402263856, "BM": 151 }, "geometry": { "type": "Polygon", "coordinates": [ [ [ 18.097839364306733, 45.500041850611389 ], [ 18.101782098078669, 45.506364593100891 ], [ 18.109999778422612, 45.510779329859076 ], [ 18.113695995657785, 45.485490634098234 ], [ 18.108137983113657, 45.481705612009335 ], [ 18.099773726298537, 45.494153786463542 ], [ 18.097839364306733, 45.500041850611389 ] ] ] } },
{ "type": "Feature", "properties": { "population": 560, "longitude": 18.597456717623952, "latitude": 45.773531326511083, "BM": 152 }, "geometry": { "type": "Polygon", "coordinates": [ [ [ 18.59769814006907, 45.778507561001796 ], [ 18.601682347912785, 45.767573934143662 ], [ 18.601532622623882, 45.767381351554405 ], [ 18.592836020850573, 45.774958300932532 ], [ 18.59769814006907, 45.778507561001796 ] ] ] } },
{ "type": "Feature", "properties": { "population": 607, "longitude": 17.708697363901265, "latitude": 45.716243741951146, "BM": 153 }, "geometry": { "type": "Polygon", "coordinates": [ [ [ 17.711618537297674, 45.726719923023268 ], [ 17.722097175068377, 45.721253201000891 ], [ 17.704012496696901, 45.701524572530815 ], [ 17.702038884872199, 45.703560211471462 ], [ 17.699609626815601, 45.722160055634198 ], [ 17.711618537297674, 45.726719923023268 ] ] ] } },
{ "type": "Feature", "properties": { "population": 416, "longitude": 17.687754592352654, "latitude": 45.749390517595494, "BM": 154 }, "geometry": { "type": "Polygon", "coordinates": [ [ [ 17.678824273968189, 45.760155883626993 ], [ 17.706745599587784, 45.758088376215653 ], [ 17.707191275025426, 45.746219915149474 ], [ 17.672101991195674, 45.736371966051266 ], [ 17.671635985072935, 45.737033915138724 ], [ 17.668303086857922, 45.742448470552816 ], [ 17.678824273968189, 45.760155883626993 ] ] ] } },
{ "type": "Feature", "properties": { "population": 614, "longitude": 17.69288642906772, "latitude": 45.731649977546475, "BM": 155 }, "geometry": { "type": "Polygon", "coordinates": [ [ [ 17.672101991195674, 45.736371966051266 ], [ 17.707191275025426, 45.746219915149474 ], [ 17.711618537297674, 45.726719923023268 ], [ 17.699609626815601, 45.722160055634198 ], [ 17.688983607720552, 45.719257342011808 ], [ 17.68077457156819, 45.717674009100179 ], [ 17.672101991195674, 45.736371966051266 ] ] ] } },
{ "type": "Feature", "properties": { "population": 798, "longitude": 18.720901083930816, "latitude": 45.553236739374846, "BM": 156 }, "geometry": { "type": "Polygon", "coordinates": [ [ [ 18.720572903440875, 45.549610775741257 ], [ 18.717617583042955, 45.55000113679872 ], [ 18.71698734677992, 45.550503297052202 ], [ 18.719186015765505, 45.557136385633164 ], [ 18.723971485380659, 45.556291110470511 ], [ 18.724565325359485, 45.55395303497631 ], [ 18.723720963080744, 45.55097689464062 ], [ 18.720572903440875, 45.549610775741257 ] ] ] } },
{ "type": "Feature", "properties": { "population": 615, "longitude": 17.664875283996494, "latitude": 45.714318948064296, "BM": 157 }, "geometry": { "type": "Polygon", "coordinates": [ [ [ 17.645958779322999, 45.712896438666533 ], [ 17.671635985072935, 45.737033915138724 ], [ 17.672101991195674, 45.736371966051266 ], [ 17.68077457156819, 45.717674009100179 ], [ 17.669765671018915, 45.696912504729539 ], [ 17.6587697467459, 45.695884569327845 ], [ 17.645958779322999, 45.712896438666533 ] ] ] } },
{ "type": "Feature", "properties": { "population": 547, "longitude": 17.656215931848163, "latitude": 45.730479703857199, "BM": 158 }, "geometry": { "type": "Polygon", "coordinates": [ [ [ 17.64173824370231, 45.717734890353512 ], [ 17.656067414667532, 45.743536482316749 ], [ 17.668303086857922, 45.742448470552816 ], [ 17.671635985072935, 45.737033915138724 ], [ 17.645958779322999, 45.712896438666533 ], [ 17.64173824370231, 45.717734890353512 ] ] ] } },
{ "type": "Feature", "properties": { "population": 350, "longitude": 17.426355885140797, "latitude": 45.866667147858642, "BM": 159 }, "geometry": { "type": "Polygon", "coordinates": [ [ [ 17.408204778543166, 45.875175887271922 ], [ 17.419639182139878, 45.882236431868535 ], [ 17.436893801701462, 45.880357010891174 ], [ 17.437102402929241, 45.847436028271055 ], [ 17.430202346760169, 45.845219020507059 ], [ 17.408204778543166, 45.875175887271922 ] ] ] } },
{ "type": "Feature", "properties": { "population": 348, "longitude": 17.275180095299778, "latitude": 45.957179081627196, "BM": 160 }, "geometry": { "type": "Polygon", "coordinates": [ [ [ 17.298056265624183, 45.993583983657999 ], [ 17.290117677078275, 45.943992355295784 ], [ 17.259098679415022, 45.914639508405678 ], [ 17.256515217601798, 45.965533679054218 ], [ 17.263253523975557, 45.977604497793223 ], [ 17.298056265624183, 45.993583983657999 ] ] ] } },
{ "type": "Feature", "properties": { "population": 517, "longitude": 18.506922107642218, "latitude": 45.574759279697943, "BM": 161 }, "geometry": { "type": "Polygon", "coordinates": [ [ [ 18.481030583282912, 45.569487933569761 ], [ 18.481287561881871, 45.594439120505825 ], [ 18.509080323583401, 45.610490035735012 ], [ 18.519123296534172, 45.599739453306171 ], [ 18.540913553307863, 45.565277121663293 ], [ 18.532554701760439, 45.558905974363483 ], [ 18.505177175653607, 45.54100036439722 ], [ 18.492481400847375, 45.54672355668756 ], [ 18.481030583282912, 45.569487933569761 ] ] ] } },
{ "type": "Feature", "properties": { "population": 437, "longitude": 18.874562188803818, "latitude": 45.538157480928952, "BM": 162 }, "geometry": { "type": "Polygon", "coordinates": [ [ [ 18.810876098583204, 45.53830467140417 ], [ 18.876696541347368, 45.609335480281317 ], [ 18.899131934943458, 45.617978857343147 ], [ 18.918904234222225, 45.477165043330615 ], [ 18.882905273492213, 45.467852203579 ], [ 18.810876098583204, 45.53830467140417 ] ] ] } },
{ "type": "Feature", "properties": { "population": 451, "longitude": 17.235997689737761, "latitude": 45.955151631971553, "BM": 163 }, "geometry": { "type": "Polygon", "coordinates": [ [ [ 17.230433057387206, 45.96064169206155 ], [ 17.244394766842742, 45.957877380610341 ], [ 17.240159986659421, 45.948307699542461 ], [ 17.238535927459136, 45.948748890826941 ], [ 17.227793858490159, 45.95469349647805 ], [ 17.227011961331637, 45.955271962466128 ], [ 17.230433057387206, 45.96064169206155 ] ] ] } },
{ "type": "Feature", "properties": { "population": 481, "longitude": 18.200560823214641, "latitude": 45.543993449222292, "BM": 164 }, "geometry": { "type": "Polygon", "coordinates": [ [ [ 18.154269643795171, 45.52617976869108 ], [ 18.169042823732923, 45.580251508118771 ], [ 18.198771791630687, 45.585517159323629 ], [ 18.235263166144833, 45.579840692931874 ], [ 18.241982540027603, 45.520508508074151 ], [ 18.226868420338924, 45.501849889048259 ], [ 18.225132510776668, 45.501357818233821 ], [ 18.165416241087723, 45.513871501571096 ], [ 18.156430082928569, 45.521344831462315 ], [ 18.154269643795171, 45.52617976869108 ] ] ] } },
{ "type": "Feature", "properties": { "population": 425, "longitude": 18.708957173755284, "latitude": 45.554717750460405, "BM": 165 }, "geometry": { "type": "Polygon", "coordinates": [ [ [ 18.705606290117192, 45.557560085987085 ], [ 18.706291838725374, 45.558949692790826 ], [ 18.707276360882858, 45.560637907712184 ], [ 18.712452969082548, 45.557073136768409 ], [ 18.713327496002641, 45.552972173177906 ], [ 18.709747254868304, 45.549649634926929 ], [ 18.705622172710569, 45.550740157621512 ], [ 18.705606290117192, 45.557560085987085 ] ] ] } },
{ "type": "Feature", "properties": { "population": 372, "longitude": 18.56975906845302, "latitude": 45.789592053982872, "BM": 166 }, "geometry": { "type": "Polygon", "coordinates": [ [ [ 18.554805605970724, 45.771784840976693 ], [ 18.565606054245606, 45.854353820818439 ], [ 18.587792989603141, 45.772287346402898 ], [ 18.569657872339331, 45.742344904659518 ], [ 18.554805605970724, 45.771784840976693 ] ] ] } },
{ "type": "Feature", "properties": { "population": 455, "longitude": 17.209445020079965, "latitude": 45.919788936860776, "BM": 167 }, "geometry": { "type": "Polygon", "coordinates": [ [ [ 17.190463223321981, 45.923367668654798 ], [ 17.194055117534532, 45.937303309591442 ], [ 17.196386686838974, 45.940303232887572 ], [ 17.238253682011283, 45.910513356973667 ], [ 17.212520741782889, 45.905240897104918 ], [ 17.19629020775454, 45.912919996802856 ], [ 17.190463223321981, 45.923367668654798 ] ] ] } },
{ "type": "Feature", "properties": { "population": 251, "longitude": 17.185057815642345, "latitude": 45.872924293836817, "BM": 168 }, "geometry": { "type": "Polygon", "coordinates": [ [ [ 17.156230337348667, 45.858792211297235 ], [ 17.19629020775454, 45.912919996802856 ], [ 17.212520741782889, 45.905240897104918 ], [ 17.185519978923811, 45.834956679475958 ], [ 17.167958033003757, 45.843202455362146 ], [ 17.158955934721103, 45.853730467988356 ], [ 17.156230337348667, 45.858792211297235 ] ] ] } },
{ "type": "Feature", "properties": { "population": 505, "longitude": 17.221879099996819, "latitude": 45.967299307635514, "BM": 169 }, "geometry": { "type": "Polygon", "coordinates": [ [ [ 17.227011961331637, 45.955271962466128 ], [ 17.222046727423432, 45.952109042679417 ], [ 17.21278242302569, 45.965201794542118 ], [ 17.219193991409313, 45.982459868021465 ], [ 17.223931717395544, 45.983697139478181 ], [ 17.230433057387206, 45.96064169206155 ], [ 17.227011961331637, 45.955271962466128 ] ] ] } },
{ "type": "Feature", "properties": { "population": 422, "longitude": 17.208760425049014, "latitude": 45.951557731837397, "BM": 170 }, "geometry": { "type": "Polygon", "coordinates": [ [ [ 17.195430004299205, 45.95247772334907 ], [ 17.21278242302569, 45.965201794542118 ], [ 17.222046727423432, 45.952109042679417 ], [ 17.219236274995964, 45.944231723035969 ], [ 17.197003325916953, 45.94166778822153 ], [ 17.195430004299205, 45.95247772334907 ] ] ] } },
{ "type": "Feature", "properties": { "population": 315, "longitude": 17.179137017343116, "latitude": 45.950723005665509, "BM": 171 }, "geometry": { "type": "Polygon", "coordinates": [ [ [ 17.151374011208858, 45.947831189363939 ], [ 17.184460991633991, 45.967019838460068 ], [ 17.195430004299205, 45.95247772334907 ], [ 17.197003325916953, 45.94166778822153 ], [ 17.196386686838974, 45.940303232887572 ], [ 17.194055117534532, 45.937303309591442 ], [ 17.151374011208858, 45.947831189363939 ] ] ] } },
{ "type": "Feature", "properties": { "population": 350, "longitude": 17.426355885140797, "latitude": 45.866667147858642, "BM": 172 }, "geometry": { "type": "Polygon", "coordinates": [ [ [ 17.408204778543166, 45.875175887271922 ], [ 17.419639182139878, 45.882236431868535 ], [ 17.436893801701462, 45.880357010891174 ], [ 17.437102402929241, 45.847436028271055 ], [ 17.430202346760169, 45.845219020507059 ], [ 17.408204778543166, 45.875175887271922 ] ] ] } },
{ "type": "Feature", "properties": { "population": 298, "longitude": 18.43685150146003, "latitude": 46.014726258651379, "BM": 173 }, "geometry": { "type": "Polygon", "coordinates": [ [ [ 18.31472719826639, 46.34846935007824 ], [ 18.565917225802277, 45.859842590580541 ], [ 18.565606054245606, 45.854353820818439 ], [ 18.554805605970724, 45.771784840976693 ], [ 18.501339616205762, 45.770272080268711 ], [ 18.329695472791105, 46.128608253169119 ], [ 18.31472719826639, 46.34846935007824 ] ] ] } },
{ "type": "Feature", "properties": { "population": 368, "longitude": 17.170062307899332, "latitude": 45.895655308480038, "BM": 174 }, "geometry": { "type": "Polygon", "coordinates": [ [ [ 17.147094977422071, 45.869847309649415 ], [ 17.165376438972054, 45.918451418973255 ], [ 17.190463223321981, 45.923367668654798 ], [ 17.19629020775454, 45.912919996802856 ], [ 17.156230337348667, 45.858792211297235 ], [ 17.147094977422071, 45.869847309649415 ] ] ] } },
{ "type": "Feature", "properties": { "population": 141, "longitude": 17.143255961748245, "latitude": 45.909343739572193, "BM": 175 }, "geometry": { "type": "Polygon", "coordinates": [ [ [ 17.121470074377402, 45.891020071213923 ], [ 17.139127896328869, 45.950950428850298 ], [ 17.149102302083879, 45.947336710477636 ], [ 17.165376438972054, 45.918451418973255 ], [ 17.147094977422071, 45.869847309649415 ], [ 17.127064734922019, 45.881669977559916 ], [ 17.121470074377402, 45.891020071213923 ] ] ] } }
]
}
