{
"type": "FeatureCollection",
"name": "output_zupanija_8",
"crs": { "type": "name", "properties": { "name": "urn:ogc:def:crs:EPSG::3765" } },
"features": [
{ "type": "Feature", "properties": { "population": 154, "longitude": 15.373780933046511, "latitude": 44.505225464783358, "BM": 1 }, "geometry": { "type": "Polygon", "coordinates": [ [ [ 15.348696636447881, 44.528034607727747 ], [ 15.359983575070125, 44.541782892588806 ], [ 15.378661766614451, 44.528462643896546 ], [ 15.395041094192647, 44.512625608798025 ], [ 15.385710745338448, 44.455143987007922 ], [ 15.350032446689614, 44.518504446262533 ], [ 15.348696636447881, 44.528034607727747 ] ] ] } },
{ "type": "Feature", "properties": { "population": 255, "longitude": 15.444158439206578, "latitude": 44.506145372249314, "BM": 2 }, "geometry": { "type": "Polygon", "coordinates": [ [ [ 15.385710745338448, 44.455143987007922 ], [ 15.395041094192647, 44.512625608798025 ], [ 15.407305062153528, 44.538980466886954 ], [ 15.425550261196417, 44.559198220129154 ], [ 15.429915647990301, 44.561604970730549 ], [ 15.525802350559946, 44.572901637398488 ], [ 15.531078684536194, 44.556879358488544 ], [ 15.404375790116347, 44.410137384329524 ], [ 15.386569203361029, 44.424356962038289 ], [ 15.385710745338448, 44.455143987007922 ] ] ] } },
{ "type": "Feature", "properties": { "population": 859, "longitude": 15.368003794424068, "latitude": 44.541392563007022, "BM": 3 }, "geometry": { "type": "Polygon", "coordinates": [ [ [ 15.357636017129016, 44.550802954606823 ], [ 15.372160943171149, 44.546712423568302 ], [ 15.378661766614451, 44.528462643896546 ], [ 15.359983575070125, 44.541782892588806 ], [ 15.357636017129016, 44.550802954606823 ] ] ] } },
{ "type": "Feature", "properties": { "population": 1388, "longitude": 15.388962383793826, "latitude": 44.535901488725514, "BM": 4 }, "geometry": { "type": "Polygon", "coordinates": [ [ [ 15.378661766614451, 44.528462643896546 ], [ 15.372160943171149, 44.546712423568302 ], [ 15.378050144658015, 44.556531392894961 ], [ 15.407305062153528, 44.538980466886954 ], [ 15.395041094192647, 44.512625608798025 ], [ 15.378661766614451, 44.528462643896546 ] ] ] } },
{ "type": "Feature", "properties": { "population": 138, "longitude": 16.651070935418787, "latitude": 45.576826908276246, "BM": 5 }, "geometry": { "type": "Polygon", "coordinates": [ [ [ 16.640043902052593, 45.601415347257799 ], [ 16.665065040448578, 45.590696159585534 ], [ 16.674031323688503, 45.573956590118812 ], [ 16.640638508876435, 45.546338482572665 ], [ 16.634715491378532, 45.598964484102446 ], [ 16.640043902052593, 45.601415347257799 ] ] ] } },
{ "type": "Feature", "properties": { "population": 344, "longitude": 16.002094848777642, "latitude": 45.807633760193227, "BM": 6 }, "geometry": { "type": "Polygon", "coordinates": [ [ [ 15.999092185719183, 45.810960469729096 ], [ 16.005422791305726, 45.808830298029456 ], [ 16.006785069634677, 45.805461330941952 ], [ 15.998383571244307, 45.805530941036317 ], [ 15.999092185719183, 45.810960469729096 ] ] ] } },
{ "type": "Feature", "properties": { "population": 221, "longitude": 15.633617276909726, "latitude": 45.320342941715388, "BM": 7 }, "geometry": { "type": "Polygon", "coordinates": [ [ [ 15.59801375557689, 45.302285281954923 ], [ 15.644490901659536, 45.356942540565008 ], [ 15.659846481684854, 45.327046159142284 ], [ 15.647286747629495, 45.299158105065196 ], [ 15.599817114935577, 45.298743378364371 ], [ 15.59801375557689, 45.302285281954923 ] ] ] } },
{ "type": "Feature", "properties": { "population": 772, "longitude": 15.391825427073963, "latitude": 44.562903581637919, "BM": 8 }, "geometry": { "type": "Polygon", "coordinates": [ [ [ 15.367549944580299, 44.586754783012779 ], [ 15.425550261196417, 44.559198220129154 ], [ 15.407305062153528, 44.538980466886954 ], [ 15.378050144658015, 44.556531392894961 ], [ 15.359495121414088, 44.574799637621197 ], [ 15.367549944580299, 44.586754783012779 ] ] ] } },
{ "type": "Feature", "properties": { "population": 93, "longitude": 15.518620767522174, "latitude": 44.446252499681115, "BM": 9 }, "geometry": { "type": "Polygon", "coordinates": [ [ [ 15.404375790116347, 44.410137384329524 ], [ 15.531078684536194, 44.556879358488544 ], [ 15.615955752134278, 44.47574015271627 ], [ 15.608121888456372, 44.454032807320296 ], [ 15.546366622742845, 44.356726401856548 ], [ 15.498088511288648, 44.36501679077341 ], [ 15.407006578847854, 44.404702003791932 ], [ 15.404375790116347, 44.410137384329524 ] ] ] } },
{ "type": "Feature", "properties": { "population": 189, "longitude": 16.063417560177363, "latitude": 45.275895405942592, "BM": 10 }, "geometry": { "type": "Polygon", "coordinates": [ [ [ 16.050586259775894, 45.201555597343095 ], [ 16.029255855416686, 45.324385708053413 ], [ 16.060503654603259, 45.334162050452925 ], [ 16.093098741121945, 45.307592121318869 ], [ 16.103242120942976, 45.297164415569668 ], [ 16.071939992707804, 45.212538867914425 ], [ 16.050586259775894, 45.201555597343095 ] ] ] } },
{ "type": "Feature", "properties": { "population": 119, "longitude": 16.624641127125912, "latitude": 45.617897540521561, "BM": 11 }, "geometry": { "type": "Polygon", "coordinates": [ [ [ 16.607974761965458, 45.613792320038193 ], [ 16.605570633977511, 45.630816969937882 ], [ 16.612544054753343, 45.640177935097221 ], [ 16.645907057440997, 45.62413473918626 ], [ 16.640043902052593, 45.601415347257799 ], [ 16.634715491378532, 45.598964484102446 ], [ 16.623339881451258, 45.598279301698966 ], [ 16.613512334106776, 45.603912246668308 ], [ 16.607974761965458, 45.613792320038193 ] ] ] } },
{ "type": "Feature", "properties": { "population": 193, "longitude": 15.548940334462795, "latitude": 45.312413988626872, "BM": 12 }, "geometry": { "type": "Polygon", "coordinates": [ [ [ 15.51169446621866, 45.32206842552057 ], [ 15.525836881990786, 45.330656735898884 ], [ 15.566720207556886, 45.34300328629169 ], [ 15.570367958014852, 45.340795832953503 ], [ 15.597407574628074, 45.302787201218827 ], [ 15.514584507021588, 45.282258233326012 ], [ 15.510762522686749, 45.320514195083071 ], [ 15.51169446621866, 45.32206842552057 ] ] ] } },
{ "type": "Feature", "properties": { "population": 31, "longitude": 15.470191020421936, "latitude": 44.891061938438014, "BM": 13 }, "geometry": { "type": "Polygon", "coordinates": [ [ [ 15.429719315399506, 44.926262485522102 ], [ 15.521123884293319, 44.918275164845738 ], [ 15.477165317353531, 44.845474193269901 ], [ 15.448342563214021, 44.84803779420681 ], [ 15.429719315399506, 44.926262485522102 ] ] ] } },
{ "type": "Feature", "properties": { "population": 77, "longitude": 16.586207889919876, "latitude": 45.366061574435911, "BM": 14 }, "geometry": { "type": "Polygon", "coordinates": [ [ [ 16.584652119552768, 45.392000080626389 ], [ 16.590839841086641, 45.393955668202693 ], [ 16.595619353688122, 45.388922167203773 ], [ 16.595387735430926, 45.34568833024742 ], [ 16.578568602937192, 45.343744470936478 ], [ 16.57238351174286, 45.347273457943061 ], [ 16.578712487848783, 45.373860648391378 ], [ 16.582353221986001, 45.388008108463879 ], [ 16.584652119552768, 45.392000080626389 ] ] ] } },
{ "type": "Feature", "properties": { "population": 72, "longitude": 15.695876400002888, "latitude": 45.39086788407019, "BM": 15 }, "geometry": { "type": "Polygon", "coordinates": [ [ [ 15.690955124417398, 45.42040647900091 ], [ 15.733372496485565, 45.413310023043607 ], [ 15.741611102240062, 45.41039214832454 ], [ 15.737272277634796, 45.387669944656729 ], [ 15.707109811779993, 45.364442361192673 ], [ 15.650395381056876, 45.367919277366937 ], [ 15.649728025222663, 45.387387980007112 ], [ 15.690955124417398, 45.42040647900091 ] ] ] } },
{ "type": "Feature", "properties": { "population": 157, "longitude": 15.700550917834592, "latitude": 44.658606097599765, "BM": 16 }, "geometry": { "type": "Polygon", "coordinates": [ [ [ 15.613762769824801, 44.718920891007023 ], [ 15.644927603480578, 44.713917944834513 ], [ 15.815690948483285, 44.676471341760504 ], [ 15.815833752739989, 44.6505896950666 ], [ 15.708810113885553, 44.584863756197556 ], [ 15.586041213004467, 44.676364939329062 ], [ 15.613762769824801, 44.718920891007023 ] ] ] } },
{ "type": "Feature", "properties": { "population": 58, "longitude": 16.690752654780777, "latitude": 45.41756996547408, "BM": 17 }, "geometry": { "type": "Polygon", "coordinates": [ [ [ 16.658593715695858, 45.415433241471938 ], [ 16.675240658060709, 45.448366669498647 ], [ 16.695265824157033, 45.448883256806795 ], [ 16.712946110483795, 45.445285091736977 ], [ 16.736675719372997, 45.424195561756683 ], [ 16.685365400722908, 45.382584759362494 ], [ 16.656685942478095, 45.387467448837754 ], [ 16.658593715695858, 45.415433241471938 ] ] ] } },
{ "type": "Feature", "properties": { "population": 1438, "longitude": 15.363502820934389, "latitude": 44.559878276727275, "BM": 18 }, "geometry": { "type": "Polygon", "coordinates": [ [ [ 15.349878070302879, 44.568087025447063 ], [ 15.359495121414088, 44.574799637621197 ], [ 15.378050144658015, 44.556531392894961 ], [ 15.372160943171149, 44.546712423568302 ], [ 15.357636017129016, 44.550802954606823 ], [ 15.349878070302879, 44.568087025447063 ] ] ] } },
{ "type": "Feature", "properties": { "population": 41, "longitude": 16.388769384475903, "latitude": 45.359384640624903, "BM": 19 }, "geometry": { "type": "Polygon", "coordinates": [ [ [ 16.363856018718472, 45.396787159565967 ], [ 16.373813793923556, 45.393414840613175 ], [ 16.412586216689515, 45.34563129988905 ], [ 16.407238334237221, 45.33330871726627 ], [ 16.387432982219099, 45.333713630764855 ], [ 16.363856018718472, 45.396787159565967 ] ] ] } },
{ "type": "Feature", "properties": { "population": 722, "longitude": 15.370654758722033, "latitude": 44.640805759116894, "BM": 20 }, "geometry": { "type": "Polygon", "coordinates": [ [ [ 15.367631829868053, 44.655633099812775 ], [ 15.382980820920114, 44.64935152969332 ], [ 15.370773806226271, 44.627224732232065 ], [ 15.360415138945211, 44.625899946061459 ], [ 15.367631829868053, 44.655633099812775 ] ] ] } },
{ "type": "Feature", "properties": { "population": 156, "longitude": 15.383253095533385, "latitude": 44.612702498416411, "BM": 21 }, "geometry": { "type": "Polygon", "coordinates": [ [ [ 15.360415138945211, 44.625899946061459 ], [ 15.370773806226271, 44.627224732232065 ], [ 15.393320928402304, 44.629787619623727 ], [ 15.40956198558926, 44.631254947237622 ], [ 15.405615212312465, 44.603968822440713 ], [ 15.367709156594897, 44.588116740720174 ], [ 15.357047623877554, 44.62335214857027 ], [ 15.360415138945211, 44.625899946061459 ] ] ] } },
{ "type": "Feature", "properties": { "population": 73, "longitude": 16.183645240698944, "latitude": 45.350452200439257, "BM": 22 }, "geometry": { "type": "Polygon", "coordinates": [ [ [ 16.140874061824572, 45.333483627836522 ], [ 16.143946009593986, 45.35369331565709 ], [ 16.155576576130372, 45.375364660625053 ], [ 16.205259047340856, 45.38355231800508 ], [ 16.217935914763554, 45.378955947703908 ], [ 16.220729454024134, 45.331341520702367 ], [ 16.18702948024416, 45.315802574332331 ], [ 16.141180443406714, 45.332662393852004 ], [ 16.141018178112734, 45.333024006176295 ], [ 16.140874061824572, 45.333483627836522 ] ] ] } },
{ "type": "Feature", "properties": { "population": 202, "longitude": 15.414717861391731, "latitude": 44.868583031550131, "BM": 23 }, "geometry": { "type": "Polygon", "coordinates": [ [ [ 15.395719551211455, 44.94016773333265 ], [ 15.429719315399506, 44.926262485522102 ], [ 15.448342563214021, 44.84803779420681 ], [ 15.428433392920221, 44.808345641948385 ], [ 15.386013725095793, 44.815306461317931 ], [ 15.395719551211455, 44.94016773333265 ] ] ] } },
{ "type": "Feature", "properties": { "population": 76, "longitude": 15.329577252573804, "latitude": 45.592908670620005, "BM": 24 }, "geometry": { "type": "Polygon", "coordinates": [ [ [ 15.314786887081887, 45.593056306224241 ], [ 15.326926518600049, 45.607465696491801 ], [ 15.349473827313361, 45.59640878886588 ], [ 15.324416428560054, 45.576454213158719 ], [ 15.314212937875418, 45.590828455612524 ], [ 15.314786887081887, 45.593056306224241 ] ] ] } },
{ "type": "Feature", "properties": { "population": 31, "longitude": 15.470191020421936, "latitude": 44.891061938438014, "BM": 25 }, "geometry": { "type": "Polygon", "coordinates": [ [ [ 15.429719315399506, 44.926262485522102 ], [ 15.521123884293319, 44.918275164845738 ], [ 15.477165317353531, 44.845474193269901 ], [ 15.448342563214021, 44.84803779420681 ], [ 15.429719315399506, 44.926262485522102 ] ] ] } },
{ "type": "Feature", "properties": { "population": 77, "longitude": 16.586207889919876, "latitude": 45.366061574435911, "BM": 26 }, "geometry": { "type": "Polygon", "coordinates": [ [ [ 16.584652119552768, 45.392000080626389 ], [ 16.590839841086641, 45.393955668202693 ], [ 16.595619353688122, 45.388922167203773 ], [ 16.595387735430926, 45.34568833024742 ], [ 16.578568602937192, 45.343744470936478 ], [ 16.57238351174286, 45.347273457943061 ], [ 16.578712487848783, 45.373860648391378 ], [ 16.582353221986001, 45.388008108463879 ], [ 16.584652119552768, 45.392000080626389 ] ] ] } },
{ "type": "Feature", "properties": { "population": 55, "longitude": 15.303043929779088, "latitude": 44.71576414625423, "BM": 27 }, "geometry": { "type": "Polygon", "coordinates": [ [ [ 15.305851812376332, 44.759939448974933 ], [ 15.319151024359048, 44.756436087177683 ], [ 15.32180112978013, 44.685774891013892 ], [ 15.277856825621509, 44.678087250541786 ], [ 15.293435087735615, 44.749099678549072 ], [ 15.305851812376332, 44.759939448974933 ] ] ] } },
{ "type": "Feature", "properties": { "population": 11, "longitude": 15.30567653682626, "latitude": 44.66186964655477, "BM": 28 }, "geometry": { "type": "Polygon", "coordinates": [ [ [ 15.277856825621509, 44.678087250541786 ], [ 15.32180112978013, 44.685774891013892 ], [ 15.326805024435924, 44.682625945443142 ], [ 15.331285613778544, 44.630203132452884 ], [ 15.276818954359793, 44.655486284961697 ], [ 15.272069185758923, 44.675165630054778 ], [ 15.277856825621509, 44.678087250541786 ] ] ] } },
{ "type": "Feature", "properties": { "population": 202, "longitude": 15.414717861391731, "latitude": 44.868583031550131, "BM": 29 }, "geometry": { "type": "Polygon", "coordinates": [ [ [ 15.395719551211455, 44.94016773333265 ], [ 15.429719315399506, 44.926262485522102 ], [ 15.448342563214021, 44.84803779420681 ], [ 15.428433392920221, 44.808345641948385 ], [ 15.386013725095793, 44.815306461317931 ], [ 15.395719551211455, 44.94016773333265 ] ] ] } },
{ "type": "Feature", "properties": { "population": 187, "longitude": 16.316167513063334, "latitude": 45.405147191386327, "BM": 30 }, "geometry": { "type": "Polygon", "coordinates": [ [ [ 16.30181633166594, 45.419136492957534 ], [ 16.314289207107048, 45.422977089882693 ], [ 16.341918096912384, 45.40852273224057 ], [ 16.345868679578086, 45.403778033565466 ], [ 16.296685387516387, 45.384566782805727 ], [ 16.300423382774433, 45.418420977563976 ], [ 16.30181633166594, 45.419136492957534 ] ] ] } },
{ "type": "Feature", "properties": { "population": 473, "longitude": 15.313095863753356, "latitude": 44.571039505450877, "BM": 31 }, "geometry": { "type": "Polygon", "coordinates": [ [ [ 15.284808277803045, 44.591254047004831 ], [ 15.301961985653639, 44.596667867143047 ], [ 15.348058211272486, 44.567744928479762 ], [ 15.331427166476265, 44.547290621439998 ], [ 15.322500684263735, 44.543176191707524 ], [ 15.280933852795579, 44.576195605539809 ], [ 15.284808277803045, 44.591254047004831 ] ] ] } },
{ "type": "Feature", "properties": { "population": 423, "longitude": 15.509447786505415, "latitude": 45.464752520739722, "BM": 32 }, "geometry": { "type": "Polygon", "coordinates": [ [ [ 15.493353503350473, 45.462773526858307 ], [ 15.510509557946454, 45.476977657802202 ], [ 15.517917032116261, 45.476120513305361 ], [ 15.519636818454337, 45.47382982275505 ], [ 15.521663842427788, 45.466877975549792 ], [ 15.521700570642464, 45.461668782584702 ], [ 15.512516467910411, 45.453753191056265 ], [ 15.512433304175609, 45.453732295601597 ], [ 15.5110567417402, 45.453579270973229 ], [ 15.499732673484138, 45.456134339252479 ], [ 15.496613467544316, 45.458762632628691 ], [ 15.493353503350473, 45.462773526858307 ] ] ] } },
{ "type": "Feature", "properties": { "population": 445, "longitude": 15.294239456745339, "latitude": 44.827935231420447, "BM": 33 }, "geometry": { "type": "Polygon", "coordinates": [ [ [ 15.261908406666656, 44.802800666498648 ], [ 15.308856399286459, 44.876528555562572 ], [ 15.314895612595208, 44.865010686847512 ], [ 15.315328029220415, 44.822317761160207 ], [ 15.282903240544815, 44.790200433966277 ], [ 15.261908406666656, 44.802800666498648 ] ] ] } },
{ "type": "Feature", "properties": { "population": 62, "longitude": 15.298343740152129, "latitude": 44.543302857526278, "BM": 34 }, "geometry": { "type": "Polygon", "coordinates": [ [ [ 15.301740096909429, 44.507183929974858 ], [ 15.273586149396197, 44.565873945083922 ], [ 15.280933852795579, 44.576195605539809 ], [ 15.322500684263735, 44.543176191707524 ], [ 15.316864388258493, 44.527282927257076 ], [ 15.301742440690994, 44.507181945175695 ], [ 15.301740096909429, 44.507183929974858 ] ] ] } },
{ "type": "Feature", "properties": { "population": 74, "longitude": 16.093132033142339, "latitude": 45.054095164623661, "BM": 35 }, "geometry": { "type": "Polygon", "coordinates": [ [ [ 15.96073747558105, 44.980841909734941 ], [ 16.015526006120311, 45.143513208453676 ], [ 16.042768594350189, 45.193715981362814 ], [ 16.050586259775894, 45.201555597343095 ], [ 16.071939992707804, 45.212538867914425 ], [ 16.170040487113717, 45.218302292692918 ], [ 16.215597524819717, 45.190424436858358 ], [ 16.181289980064214, 44.993706608573987 ], [ 16.13243795850466, 44.869943839002438 ], [ 15.983805401065938, 44.931636770776876 ], [ 15.962010021849405, 44.97128156083712 ], [ 15.96073747558105, 44.980841909734941 ] ] ] } },
{ "type": "Feature", "properties": { "population": 78, "longitude": 15.628483727211302, "latitude": 45.273482354480791, "BM": 36 }, "geometry": { "type": "Polygon", "coordinates": [ [ [ 15.599817114935577, 45.298743378364371 ], [ 15.647286747629495, 45.299158105065196 ], [ 15.665533127388766, 45.262883820026417 ], [ 15.661111115712409, 45.252922563783152 ], [ 15.605690350657341, 45.247039553304333 ], [ 15.597230681350453, 45.268502917167311 ], [ 15.599817114935577, 45.298743378364371 ] ] ] } },
{ "type": "Feature", "properties": { "population": 75, "longitude": 16.554185183169956, "latitude": 45.357656391472226, "BM": 37 }, "geometry": { "type": "Polygon", "coordinates": [ [ [ 16.564406958079871, 45.374415277091238 ], [ 16.567576492730833, 45.368736195881553 ], [ 16.570070759668038, 45.347481121464561 ], [ 16.526272298956965, 45.350265359013996 ], [ 16.564406958079871, 45.374415277091238 ] ] ] } },
{ "type": "Feature", "properties": { "population": 107, "longitude": 15.468965176961566, "latitude": 45.398338730897066, "BM": 38 }, "geometry": { "type": "Polygon", "coordinates": [ [ [ 15.455732156700801, 45.397882017353062 ], [ 15.45787723939805, 45.403574726923075 ], [ 15.467235089481459, 45.413597083894921 ], [ 15.474796994287294, 45.410235813213454 ], [ 15.481073608701623, 45.389097625330777 ], [ 15.470106032445921, 45.383437279544474 ], [ 15.455732156700801, 45.397882017353062 ] ] ] } },
{ "type": "Feature", "properties": { "population": 325, "longitude": 15.269183694332627, "latitude": 44.846672229091837, "BM": 39 }, "geometry": { "type": "Polygon", "coordinates": [ [ [ 15.231022636713009, 44.824196228068907 ], [ 15.261988545275193, 44.871354849871736 ], [ 15.303568902471808, 44.895976279938409 ], [ 15.306874827157944, 44.894944497579381 ], [ 15.308856399286459, 44.876528555562572 ], [ 15.261908406666656, 44.802800666498648 ], [ 15.233767888466511, 44.806764049791596 ], [ 15.231022636713009, 44.824196228068907 ] ] ] } },
{ "type": "Feature", "properties": { "population": 148, "longitude": 16.233947147282784, "latitude": 45.115193513483696, "BM": 40 }, "geometry": { "type": "Polygon", "coordinates": [ [ [ 16.181289980064214, 44.993706608573987 ], [ 16.215597524819717, 45.190424436858358 ], [ 16.266430454123434, 45.207275594760176 ], [ 16.277798358588033, 45.193663628650661 ], [ 16.27349171624957, 45.091018905676286 ], [ 16.181289980064214, 44.993706608573987 ] ] ] } },
{ "type": "Feature", "properties": { "population": 129, "longitude": 15.475184778416617, "latitude": 45.621975844154171, "BM": 41 }, "geometry": { "type": "Polygon", "coordinates": [ [ [ 15.468184823552196, 45.630441778774532 ], [ 15.475687161146194, 45.628137948150226 ], [ 15.481303598693959, 45.616868864806328 ], [ 15.478871314712675, 45.614860048367596 ], [ 15.476201885412344, 45.613070589071071 ], [ 15.468184823552196, 45.630441778774532 ] ] ] } },
{ "type": "Feature", "properties": { "population": 76, "longitude": 15.329577252573804, "latitude": 45.592908670620005, "BM": 42 }, "geometry": { "type": "Polygon", "coordinates": [ [ [ 15.314786887081887, 45.593056306224241 ], [ 15.326926518600049, 45.607465696491801 ], [ 15.349473827313361, 45.59640878886588 ], [ 15.324416428560054, 45.576454213158719 ], [ 15.314212937875418, 45.590828455612524 ], [ 15.314786887081887, 45.593056306224241 ] ] ] } },
{ "type": "Feature", "properties": { "population": 172, "longitude": 16.195911684919508, "latitude": 45.44793698148294, "BM": 43 }, "geometry": { "type": "Polygon", "coordinates": [ [ [ 16.165477699602715, 45.445302087514904 ], [ 16.177372446266901, 45.465404581315454 ], [ 16.18274265462971, 45.469122907660108 ], [ 16.223728572708122, 45.461254295047631 ], [ 16.22511565745344, 45.447592074425934 ], [ 16.214626454461708, 45.427432365225101 ], [ 16.166580884373001, 45.434575719863481 ], [ 16.165477699602715, 45.445302087514904 ] ] ] } },
{ "type": "Feature", "properties": { "population": 71, "longitude": 15.199007714909929, "latitude": 44.742912010725277, "BM": 44 }, "geometry": { "type": "Polygon", "coordinates": [ [ [ 15.173461646917012, 44.778498412474207 ], [ 15.227093946538275, 44.800781483270427 ], [ 15.246479326649563, 44.728305821945987 ], [ 15.222983099889195, 44.690241744764926 ], [ 15.213124018310729, 44.687695421182561 ], [ 15.133466248289087, 44.735695911754391 ], [ 15.173461646917012, 44.778498412474207 ] ] ] } },
{ "type": "Feature", "properties": { "population": 150, "longitude": 15.265145960853612, "latitude": 45.049865630972562, "BM": 45 }, "geometry": { "type": "Polygon", "coordinates": [ [ [ 15.243266343109266, 45.082148660875212 ], [ 15.263859086478661, 45.085246507409138 ], [ 15.296640283357943, 45.07448118313993 ], [ 15.316155115663198, 45.042302629400517 ], [ 15.234634043986615, 45.011668752801377 ], [ 15.222294975625305, 45.020592417642455 ], [ 15.243266343109266, 45.082148660875212 ] ] ] } },
{ "type": "Feature", "properties": { "population": 94, "longitude": 16.723746771827333, "latitude": 45.559938901761932, "BM": 46 }, "geometry": { "type": "Polygon", "coordinates": [ [ [ 16.696808555088648, 45.564317530576432 ], [ 16.731722902418912, 45.590337974092328 ], [ 16.740693783259843, 45.57592837124394 ], [ 16.744931894895739, 45.538230979715259 ], [ 16.740992370733334, 45.532743764194329 ], [ 16.696623035789877, 45.551047867615644 ], [ 16.696808555088648, 45.564317530576432 ] ] ] } },
{ "type": "Feature", "properties": { "population": 240, "longitude": 16.155566141514004, "latitude": 45.465084670249155, "BM": 47 }, "geometry": { "type": "Polygon", "coordinates": [ [ [ 16.128625676651403, 45.467324638310885 ], [ 16.15493108473116, 45.483323040087868 ], [ 16.177372446266901, 45.465404581315454 ], [ 16.165477699602715, 45.445302087514904 ], [ 16.128625676651403, 45.467324638310885 ] ] ] } },
{ "type": "Feature", "properties": { "population": 84, "longitude": 15.214400475954493, "latitude": 44.97335429942143, "BM": 48 }, "geometry": { "type": "Polygon", "coordinates": [ [ [ 15.171862655173674, 44.97975684914033 ], [ 15.199183333099606, 45.016187616908759 ], [ 15.222294975625305, 45.020592417642455 ], [ 15.234634043986615, 45.011668752801377 ], [ 15.257948344994944, 44.962306369123738 ], [ 15.250878999128069, 44.942340952781308 ], [ 15.20257043871694, 44.928844136434165 ], [ 15.169843459422967, 44.966794206365968 ], [ 15.171862655173674, 44.97975684914033 ] ] ] } },
{ "type": "Feature", "properties": { "population": 83, "longitude": 15.398789417706151, "latitude": 45.486709021590883, "BM": 49 }, "geometry": { "type": "Polygon", "coordinates": [ [ [ 15.3770411602013, 45.505225359445085 ], [ 15.386671754020583, 45.510726402521932 ], [ 15.413911941594616, 45.495458502252426 ], [ 15.425985251888344, 45.48240120906928 ], [ 15.4211647533134, 45.470805367742614 ], [ 15.40802714515957, 45.467226718537326 ], [ 15.386273529985857, 45.469294754988084 ], [ 15.374738651835035, 45.499884201419647 ], [ 15.3770411602013, 45.505225359445085 ] ] ] } },
{ "type": "Feature", "properties": { "population": 514, "longitude": 15.239276774396354, "latitude": 44.855640245758487, "BM": 50 }, "geometry": { "type": "Polygon", "coordinates": [ [ [ 15.22168597688235, 44.838053960082355 ], [ 15.236355496853205, 44.880901828709405 ], [ 15.261988545275193, 44.871354849871736 ], [ 15.231022636713009, 44.824196228068907 ], [ 15.22168597688235, 44.838053960082355 ] ] ] } },
{ "type": "Feature", "properties": { "population": 187, "longitude": 16.316167513063334, "latitude": 45.405147191386327, "BM": 51 }, "geometry": { "type": "Polygon", "coordinates": [ [ [ 16.30181633166594, 45.419136492957534 ], [ 16.314289207107048, 45.422977089882693 ], [ 16.341918096912384, 45.40852273224057 ], [ 16.345868679578086, 45.403778033565466 ], [ 16.296685387516387, 45.384566782805727 ], [ 16.300423382774433, 45.418420977563976 ], [ 16.30181633166594, 45.419136492957534 ] ] ] } },
{ "type": "Feature", "properties": { "population": 97, "longitude": 16.069793919174661, "latitude": 44.242302594207459, "BM": 52 }, "geometry": { "type": "Polygon", "coordinates": [ [ [ 16.069366056420996, 44.350762159150534 ], [ 16.157647792018626, 44.368973969914251 ], [ 16.122239287469114, 44.158919455772114 ], [ 16.072890032580194, 44.125418372522148 ], [ 16.058763938681263, 44.119640925653549 ], [ 16.006651066647414, 44.132141089217889 ], [ 15.985289591355032, 44.175300371084376 ], [ 16.005245091199782, 44.304109963430605 ], [ 16.069366056420996, 44.350762159150534 ] ] ] } },
{ "type": "Feature", "properties": { "population": 65, "longitude": 16.098028467292213, "latitude": 45.437664363393843, "BM": 53 }, "geometry": { "type": "Polygon", "coordinates": [ [ [ 16.07019924078978, 45.402035440942832 ], [ 16.10107136827062, 45.487048994617943 ], [ 16.117160892968524, 45.468851740943549 ], [ 16.114468752435709, 45.414723747483535 ], [ 16.076800928465634, 45.398815976302124 ], [ 16.07019924078978, 45.402035440942832 ] ] ] } },
{ "type": "Feature", "properties": { "population": 1260, "longitude": 15.215258067625024, "latitude": 44.876107543952024, "BM": 54 }, "geometry": { "type": "Polygon", "coordinates": [ [ [ 15.200665858720027, 44.91647764535859 ], [ 15.236355496853205, 44.880901828709405 ], [ 15.22168597688235, 44.838053960082355 ], [ 15.200627452667696, 44.861258086877115 ], [ 15.200665858720027, 44.91647764535859 ] ] ] } },
{ "type": "Feature", "properties": { "population": 350, "longitude": 15.172453505188718, "latitude": 44.879023733604654, "BM": 55 }, "geometry": { "type": "Polygon", "coordinates": [ [ [ 15.144839428474441, 44.888674233259103 ], [ 15.199786188545339, 44.92020051227307 ], [ 15.200665858720027, 44.91647764535859 ], [ 15.200627452667696, 44.861258086877115 ], [ 15.160554467512597, 44.846248451377647 ], [ 15.131384886544495, 44.867192279956612 ], [ 15.144839428474441, 44.888674233259103 ] ] ] } },
{ "type": "Feature", "properties": { "population": 449, "longitude": 15.156534469520798, "latitude": 44.931905931586883, "BM": 56 }, "geometry": { "type": "Polygon", "coordinates": [ [ [ 15.109889829579879, 44.954515448753654 ], [ 15.169843459422967, 44.966794206365968 ], [ 15.20257043871694, 44.928844136434165 ], [ 15.199786188545339, 44.92020051227307 ], [ 15.144839428474441, 44.888674233259103 ], [ 15.109889829579879, 44.954515448753654 ] ] ] } },
{ "type": "Feature", "properties": { "population": 62, "longitude": 15.298343740152129, "latitude": 44.543302857526278, "BM": 57 }, "geometry": { "type": "Polygon", "coordinates": [ [ [ 15.301740096909429, 44.507183929974858 ], [ 15.273586149396197, 44.565873945083922 ], [ 15.280933852795579, 44.576195605539809 ], [ 15.322500684263735, 44.543176191707524 ], [ 15.316864388258493, 44.527282927257076 ], [ 15.301742440690994, 44.507181945175695 ], [ 15.301740096909429, 44.507183929974858 ] ] ] } },
{ "type": "Feature", "properties": { "population": 742, "longitude": 15.129869146026023, "latitude": 44.988645012188208, "BM": 58 }, "geometry": { "type": "Polygon", "coordinates": [ [ [ 15.09500504572974, 45.010011948022729 ], [ 15.109414962973876, 45.023722509437555 ], [ 15.139180738111728, 45.021426884051699 ], [ 15.171862655173674, 44.97975684914033 ], [ 15.169843459422967, 44.966794206365968 ], [ 15.109889829579879, 44.954515448753654 ], [ 15.106615468540618, 44.954924137394784 ], [ 15.09500504572974, 45.010011948022729 ] ] ] } },
{ "type": "Feature", "properties": { "population": 365, "longitude": 15.169268784124363, "latitude": 45.021536273176629, "BM": 59 }, "geometry": { "type": "Polygon", "coordinates": [ [ [ 15.167444454525139, 45.06598510024503 ], [ 15.199183333099606, 45.016187616908759 ], [ 15.171862655173674, 44.97975684914033 ], [ 15.139180738111728, 45.021426884051699 ], [ 15.167444454525139, 45.06598510024503 ] ] ] } },
{ "type": "Feature", "properties": { "population": 39, "longitude": 16.340443242366685, "latitude": 45.602227757410716, "BM": 60 }, "geometry": { "type": "Polygon", "coordinates": [ [ [ 16.345706507182488, 45.614251035703703 ], [ 16.355284205885461, 45.595270263717765 ], [ 16.320339014032108, 45.597161972810682 ], [ 16.345706507182488, 45.614251035703703 ] ] ] } },
{ "type": "Feature", "properties": { "population": 130, "longitude": 15.937271221993685, "latitude": 44.223531059916631, "BM": 61 }, "geometry": { "type": "Polygon", "coordinates": [ [ [ 15.867531615644493, 44.240923721317046 ], [ 15.971222605947233, 44.302101463932402 ], [ 16.005245091199782, 44.304109963430605 ], [ 15.985289591355032, 44.175300371084376 ], [ 15.907248383782571, 44.144705262854941 ], [ 15.864250946157203, 44.194806770013287 ], [ 15.867531615644493, 44.240923721317046 ] ] ] } },
{ "type": "Feature", "properties": { "population": 98, "longitude": 15.330439001777915, "latitude": 44.258268470348575, "BM": 62 }, "geometry": { "type": "Polygon", "coordinates": [ [ [ 15.311475868781395, 44.273752910192805 ], [ 15.324535374591846, 44.281414970542755 ], [ 15.35290572811396, 44.255179187924952 ], [ 15.340450766076403, 44.232960510732099 ], [ 15.312428139403195, 44.256322423769497 ], [ 15.310534217374064, 44.260455061053669 ], [ 15.311475868781395, 44.273752910192805 ] ] ] } },
{ "type": "Feature", "properties": { "population": 155, "longitude": 15.673350245872172, "latitude": 45.484159028743399, "BM": 63 }, "geometry": { "type": "Polygon", "coordinates": [ [ [ 15.656429925708434, 45.492331626835366 ], [ 15.678449552990356, 45.497523146874727 ], [ 15.685890426384232, 45.478091911410388 ], [ 15.677010423028204, 45.466566847678422 ], [ 15.656429925708434, 45.492331626835366 ] ] ] } },
{ "type": "Feature", "properties": { "population": 459, "longitude": 15.494953215137588, "latitude": 45.444728941815633, "BM": 64 }, "geometry": { "type": "Polygon", "coordinates": [ [ [ 15.499764150417079, 45.448248049683436 ], [ 15.493760957769574, 45.441135747769977 ], [ 15.490751229884342, 45.441447680722881 ], [ 15.494371039974418, 45.447003138989999 ], [ 15.499373306199532, 45.448434328763803 ], [ 15.499764150417079, 45.448248049683436 ] ] ] } },
{ "type": "Feature", "properties": { "population": 377, "longitude": 15.613280997498034, "latitude": 45.470519534504938, "BM": 65 }, "geometry": { "type": "Polygon", "coordinates": [ [ [ 15.599882647923925, 45.479147419379736 ], [ 15.615328263753426, 45.483706391219137 ], [ 15.623051344869735, 45.45990318179593 ], [ 15.619689495004096, 45.452810172509778 ], [ 15.599882647923925, 45.479147419379736 ] ] ] } },
{ "type": "Feature", "properties": { "population": 151, "longitude": 15.490913611385059, "latitude": 45.401158562069618, "BM": 66 }, "geometry": { "type": "Polygon", "coordinates": [ [ [ 15.48212400011132, 45.413995862966239 ], [ 15.50770036145583, 45.409543958223942 ], [ 15.501406690440156, 45.389610160163798 ], [ 15.49938370181159, 45.387557593806129 ], [ 15.481073608701623, 45.389097625330777 ], [ 15.474796994287294, 45.410235813213454 ], [ 15.48212400011132, 45.413995862966239 ] ] ] } },
{ "type": "Feature", "properties": { "population": 257, "longitude": 15.003718880969087, "latitude": 44.968170377537433, "BM": 67 }, "geometry": { "type": "Polygon", "coordinates": [ [ [ 14.953689375555085, 44.977841856542703 ], [ 14.955758828631806, 44.994123272533272 ], [ 15.012676344105504, 45.051705581955197 ], [ 15.032258739049565, 45.028182909729757 ], [ 15.044862323981514, 44.916371841375359 ], [ 15.035622573370704, 44.902089715151106 ], [ 14.9999986044926, 44.89183841098901 ], [ 14.952939145157337, 44.970257550993161 ], [ 14.953689375555085, 44.977841856542703 ] ] ] } },
{ "type": "Feature", "properties": { "population": 365, "longitude": 15.169268784124363, "latitude": 45.021536273176629, "BM": 68 }, "geometry": { "type": "Polygon", "coordinates": [ [ [ 15.167444454525139, 45.06598510024503 ], [ 15.199183333099606, 45.016187616908759 ], [ 15.171862655173674, 44.97975684914033 ], [ 15.139180738111728, 45.021426884051699 ], [ 15.167444454525139, 45.06598510024503 ] ] ] } },
{ "type": "Feature", "properties": { "population": 189, "longitude": 16.063417560177363, "latitude": 45.275895405942592, "BM": 69 }, "geometry": { "type": "Polygon", "coordinates": [ [ [ 16.050586259775894, 45.201555597343095 ], [ 16.029255855416686, 45.324385708053413 ], [ 16.060503654603259, 45.334162050452925 ], [ 16.093098741121945, 45.307592121318869 ], [ 16.103242120942976, 45.297164415569668 ], [ 16.071939992707804, 45.212538867914425 ], [ 16.050586259775894, 45.201555597343095 ] ] ] } },
{ "type": "Feature", "properties": { "population": 149, "longitude": 15.665605486139112, "latitude": 44.252528574230681, "BM": 70 }, "geometry": { "type": "Polygon", "coordinates": [ [ [ 15.615728624030544, 44.230881138131878 ], [ 15.616207462928289, 44.262010690182343 ], [ 15.620191532593449, 44.284063592548193 ], [ 15.682102255481391, 44.296911857150668 ], [ 15.712204397597063, 44.280460823180128 ], [ 15.708524809894378, 44.211733495462056 ], [ 15.649497545050568, 44.212239452453233 ], [ 15.615728624030544, 44.230881138131878 ] ] ] } },
{ "type": "Feature", "properties": { "population": 206, "longitude": 14.924024886999147, "latitude": 44.720863660017223, "BM": 71 }, "geometry": { "type": "Polygon", "coordinates": [ [ [ 14.879624470874196, 44.819812359951122 ], [ 14.937557910671986, 44.814002218506388 ], [ 15.027015248745055, 44.694307835206871 ], [ 14.96140058825317, 44.637237317500002 ], [ 14.849613483039048, 44.658926300331444 ], [ 14.837417302648795, 44.681543348788864 ], [ 14.879624470874196, 44.819812359951122 ] ] ] } },
{ "type": "Feature", "properties": { "population": 263, "longitude": 15.650542391266871, "latitude": 45.510042115014834, "BM": 72 }, "geometry": { "type": "Polygon", "coordinates": [ [ [ 15.629627591236275, 45.537968661552675 ], [ 15.678769806525994, 45.501041346959688 ], [ 15.679087108874761, 45.499250158529755 ], [ 15.678449552990356, 45.497523146874727 ], [ 15.656429925708434, 45.492331626835366 ], [ 15.646362563953385, 45.492617481288114 ], [ 15.631356279530966, 45.51613676645475 ], [ 15.629627591236275, 45.537968661552675 ] ] ] } },
{ "type": "Feature", "properties": { "population": 115, "longitude": 15.514430309658872, "latitude": 45.358609998529495, "BM": 73 }, "geometry": { "type": "Polygon", "coordinates": [ [ [ 15.501985656883823, 45.347196534763093 ], [ 15.49938370181159, 45.387557593806129 ], [ 15.501406690440156, 45.389610160163798 ], [ 15.529355593951063, 45.381437482334739 ], [ 15.525836881990786, 45.330656735898884 ], [ 15.51169446621866, 45.32206842552057 ], [ 15.501985656883823, 45.347196534763093 ] ] ] } },
{ "type": "Feature", "properties": { "population": 741, "longitude": 14.90867173463049, "latitude": 44.890893422067187, "BM": 74 }, "geometry": { "type": "Polygon", "coordinates": [ [ [ 14.820796932333121, 44.888715145334018 ], [ 14.83284527991094, 44.93552059068832 ], [ 14.952939145157337, 44.970257550993161 ], [ 14.9999986044926, 44.89183841098901 ], [ 14.937557910671986, 44.814002218506388 ], [ 14.879624470874196, 44.819812359951122 ], [ 14.859396833245818, 44.83241679892042 ], [ 14.840242658476887, 44.851370928777662 ], [ 14.820796932333121, 44.888715145334018 ] ] ] } },
{ "type": "Feature", "properties": { "population": 145, "longitude": 16.169625925405334, "latitude": 45.49270426008259, "BM": 75 }, "geometry": { "type": "Polygon", "coordinates": [ [ [ 16.158961120534187, 45.518975492781919 ], [ 16.166076061131463, 45.521881384431474 ], [ 16.184017593865963, 45.495632796118201 ], [ 16.18274265462971, 45.469122907660108 ], [ 16.177372446266901, 45.465404581315454 ], [ 16.15493108473116, 45.483323040087868 ], [ 16.158961120534187, 45.518975492781919 ] ] ] } },
{ "type": "Feature", "properties": { "population": 1068, "longitude": 14.875989682421546, "latitude": 44.530221420370452, "BM": 76 }, "geometry": { "type": "Polygon", "coordinates": [ [ [ 14.793761777589145, 44.490126479991368 ], [ 14.922576216756966, 44.585388903600744 ], [ 14.93906036033481, 44.588960591073928 ], [ 14.917499962029071, 44.524363808260524 ], [ 14.810837923688906, 44.480147393468599 ], [ 14.793761777589145, 44.490126479991368 ] ] ] } },
{ "type": "Feature", "properties": { "population": 1350, "longitude": 14.825134993813469, "latitude": 44.539966558501142, "BM": 77 }, "geometry": { "type": "Polygon", "coordinates": [ [ [ 14.80006546662778, 44.562602631219661 ], [ 14.922576216756966, 44.585388903600744 ], [ 14.793761777589145, 44.490126479991368 ], [ 14.756203220106, 44.511458364243595 ], [ 14.80006546662778, 44.562602631219661 ] ] ] } },
{ "type": "Feature", "properties": { "population": 1005, "longitude": 14.863103751800766, "latitude": 45.006339638359684, "BM": 78 }, "geometry": { "type": "Polygon", "coordinates": [ [ [ 14.820069490022458, 45.022180257816409 ], [ 14.878260225962809, 45.051017587913485 ], [ 14.912893375297797, 45.024372647749516 ], [ 14.901014595691716, 44.991029039076956 ], [ 14.830344089650175, 44.955306348343221 ], [ 14.820069490022458, 45.022180257816409 ] ] ] } },
{ "type": "Feature", "properties": { "population": 1290, "longitude": 14.927723290662527, "latitude": 44.998041242646963, "BM": 79 }, "geometry": { "type": "Polygon", "coordinates": [ [ [ 14.912893375297797, 45.024372647749516 ], [ 14.955758828631806, 44.994123272533272 ], [ 14.953689375555085, 44.977841856542703 ], [ 14.901014595691716, 44.991029039076956 ], [ 14.912893375297797, 45.024372647749516 ] ] ] } },
{ "type": "Feature", "properties": { "population": 714, "longitude": 14.888448933007544, "latitude": 44.965337912565587, "BM": 80 }, "geometry": { "type": "Polygon", "coordinates": [ [ [ 14.830344089650175, 44.955306348343221 ], [ 14.901014595691716, 44.991029039076956 ], [ 14.953689375555085, 44.977841856542703 ], [ 14.952939145157337, 44.970257550993161 ], [ 14.83284527991094, 44.93552059068832 ], [ 14.830344089650175, 44.955306348343221 ] ] ] } },
{ "type": "Feature", "properties": { "population": 153, "longitude": 16.593306178962308, "latitude": 45.324956377747547, "BM": 81 }, "geometry": { "type": "Polygon", "coordinates": [ [ [ 16.57593812232415, 45.304143050798132 ], [ 16.578568602937192, 45.343744470936478 ], [ 16.595387735430926, 45.34568833024742 ], [ 16.617825564467243, 45.337283470650284 ], [ 16.600750177728191, 45.305276160783087 ], [ 16.578462351838947, 45.301825758667214 ], [ 16.577025979123302, 45.302445584674004 ], [ 16.57593812232415, 45.304143050798132 ] ] ] } },
{ "type": "Feature", "properties": { "population": 20, "longitude": 15.561654269679059, "latitude": 44.747277668073174, "BM": 82 }, "geometry": { "type": "Polygon", "coordinates": [ [ [ 15.498664358936788, 44.797710326534201 ], [ 15.50476911417862, 44.800192718415474 ], [ 15.603354738994609, 44.797238306746095 ], [ 15.617360253911317, 44.785032050576319 ], [ 15.613762769824801, 44.718920891007023 ], [ 15.586041213004467, 44.676364939329062 ], [ 15.565777381780032, 44.664760558661861 ], [ 15.485308347863226, 44.785278726402787 ], [ 15.498664358936788, 44.797710326534201 ] ] ] } },
{ "type": "Feature", "properties": { "population": 38, "longitude": 15.504430313895504, "latitude": 44.857442303500029, "BM": 83 }, "geometry": { "type": "Polygon", "coordinates": [ [ [ 15.477165317353531, 44.845474193269901 ], [ 15.521123884293319, 44.918275164845738 ], [ 15.531358718056495, 44.919555038955096 ], [ 15.50476911417862, 44.800192718415474 ], [ 15.498664358936788, 44.797710326534201 ], [ 15.477165317353531, 44.845474193269901 ] ] ] } },
{ "type": "Feature", "properties": { "population": 146, "longitude": 15.873952043193585, "latitude": 45.466415587687834, "BM": 84 }, "geometry": { "type": "Polygon", "coordinates": [ [ [ 15.832675925114527, 45.484178570899978 ], [ 15.876265764910247, 45.506681590334338 ], [ 15.896419888664708, 45.507312025423545 ], [ 15.91249658345585, 45.490550005147469 ], [ 15.90765590134281, 45.442294635236784 ], [ 15.867230600990563, 45.417809600235799 ], [ 15.866875411233762, 45.417862385178601 ], [ 15.829803124740172, 45.461899681394598 ], [ 15.832675925114527, 45.484178570899978 ] ] ] } }
]
}
