{
"type": "FeatureCollection",
"name": "zupanija_graph_16",
"crs": { "type": "name", "properties": { "name": "urn:ogc:def:crs:EPSG::3765" } },
"features": [
{ "type": "Feature", "properties": { "BM": 4615, "longitude": 17.941984931056069, "latitude": 45.619927025757065, "population": 33 }, "geometry": { "type": "Polygon", "coordinates": [ [ [ 17.929547248448248, 45.632004161818045 ], [ 17.958987674581952, 45.628957785747126 ], [ 17.957064626965558, 45.609947770122908 ], [ 17.924320367782524, 45.609318958197399 ], [ 17.929547248448248, 45.632004161818045 ] ] ] } },
{ "type": "Feature", "properties": { "BM": 4618, "longitude": 17.94262805983416, "latitude": 45.64853208071635, "population": 89 }, "geometry": { "type": "Polygon", "coordinates": [ [ [ 17.917719559031738, 45.662130363212178 ], [ 17.953932847637315, 45.669615847839232 ], [ 17.965311169735347, 45.63405910320494 ], [ 17.958987674581952, 45.628957785747126 ], [ 17.929547248448248, 45.632004161818045 ], [ 17.917719559031738, 45.662130363212178 ] ] ] } },
{ "type": "Feature", "properties": { "BM": 4617, "longitude": 17.939592303913592, "latitude": 45.600239324216339, "population": 109 }, "geometry": { "type": "Polygon", "coordinates": [ [ [ 17.914721258627246, 45.595195373018392 ], [ 17.924320367782524, 45.609318958197399 ], [ 17.957064626965558, 45.609947770122908 ], [ 17.96524186627391, 45.596639030244631 ], [ 17.957342009221136, 45.594371790245319 ], [ 17.930451367884515, 45.589048081567931 ], [ 17.914721258627246, 45.595195373018392 ] ] ] } },
{ "type": "Feature", "properties": { "BM": 4622, "longitude": 17.975653665842433, "latitude": 45.613641556951713, "population": 129 }, "geometry": { "type": "Polygon", "coordinates": [ [ [ 17.965311169735347, 45.63405910320494 ], [ 17.995355288882418, 45.629999609861351 ], [ 17.986341263095778, 45.589674983779588 ], [ 17.976205297720046, 45.590647490062025 ], [ 17.96524186627391, 45.596639030244631 ], [ 17.957064626965558, 45.609947770122908 ], [ 17.958987674581952, 45.628957785747126 ], [ 17.965311169735347, 45.63405910320494 ] ] ] } },
{ "type": "Feature", "properties": { "BM": 4620, "longitude": 17.959090214528516, "latitude": 45.583606140454549, "population": 330 }, "geometry": { "type": "Polygon", "coordinates": [ [ [ 17.944665698631422, 45.573217030099855 ], [ 17.957342009221136, 45.594371790245319 ], [ 17.96524186627391, 45.596639030244631 ], [ 17.976205297720046, 45.590647490062025 ], [ 17.949277749396291, 45.56697805988437 ], [ 17.944665698631422, 45.573217030099855 ] ] ] } },
{ "type": "Feature", "properties": { "BM": 4627, "longitude": 17.976729886903783, "latitude": 45.565644579589716, "population": 99 }, "geometry": { "type": "Polygon", "coordinates": [ [ [ 17.949277749396291, 45.56697805988437 ], [ 17.976205297720046, 45.590647490062025 ], [ 17.986341263095778, 45.589674983779588 ], [ 18.000427802736656, 45.572501702897583 ], [ 18.003957208810572, 45.561038287725424 ], [ 18.002455139818736, 45.556824564583721 ], [ 18.000171943157536, 45.552815205033141 ], [ 17.960615609815513, 45.54267449067784 ], [ 17.948946551605637, 45.562112252069291 ], [ 17.949277749396291, 45.56697805988437 ] ] ] } },
{ "type": "Feature", "properties": { "BM": 4625, "longitude": 17.944153025245694, "latitude": 45.585545633971037, "population": 341 }, "geometry": { "type": "Polygon", "coordinates": [ [ [ 17.930451367884515, 45.589048081567931 ], [ 17.957342009221136, 45.594371790245319 ], [ 17.944665698631422, 45.573217030099855 ], [ 17.930451367884515, 45.589048081567931 ] ] ] } },
{ "type": "Feature", "properties": { "BM": 4628, "longitude": 17.990472167109182, "latitude": 45.662991578799989, "population": 437 }, "geometry": { "type": "Polygon", "coordinates": [ [ [ 17.990317288357101, 45.697696938081073 ], [ 18.003110914850193, 45.698693216696029 ], [ 18.030893555602031, 45.660533874593014 ], [ 17.995355288882418, 45.629999609861351 ], [ 17.965311169735347, 45.63405910320494 ], [ 17.953932847637315, 45.669615847839232 ], [ 17.962504604563399, 45.677053497584666 ], [ 17.990317288357101, 45.697696938081073 ] ] ] } },
{ "type": "Feature", "properties": { "BM": 4322, "longitude": 17.654682440290461, "latitude": 45.874933252384842, "population": 209 }, "geometry": { "type": "Polygon", "coordinates": [ [ [ 17.595470903609453, 45.857819911147239 ], [ 17.733302369692684, 45.956714389402826 ], [ 17.727232904238814, 45.939834304371963 ], [ 17.638464484820339, 45.821085981713928 ], [ 17.627086330557507, 45.806779517030463 ], [ 17.611367009761498, 45.82529301321518 ], [ 17.595470903609453, 45.857819911147239 ] ] ] } },
{ "type": "Feature", "properties": { "BM": 4332, "longitude": 17.690416785016772, "latitude": 45.856478078795782, "population": 255 }, "geometry": { "type": "Polygon", "coordinates": [ [ [ 17.727232904238814, 45.939834304371963 ], [ 17.724085599886383, 45.920460671734212 ], [ 17.705988712150255, 45.811044305577525 ], [ 17.702321608283896, 45.808915807917572 ], [ 17.638464484820339, 45.821085981713928 ], [ 17.727232904238814, 45.939834304371963 ] ] ] } },
{ "type": "Feature", "properties": { "BM": 4337, "longitude": 17.622205416564679, "latitude": 45.728387276900349, "population": 192 }, "geometry": { "type": "Polygon", "coordinates": [ [ [ 17.625895611044736, 45.755469701134722 ], [ 17.637309268913786, 45.718762165455161 ], [ 17.603411369735518, 45.710929964111152 ], [ 17.625895611044736, 45.755469701134722 ] ] ] } },
{ "type": "Feature", "properties": { "BM": 4288, "longitude": 17.578249139833723, "latitude": 45.8392513117034, "population": 137 }, "geometry": { "type": "Polygon", "coordinates": [ [ [ 17.564265967223729, 45.862459582370406 ], [ 17.595470903609453, 45.857819911147239 ], [ 17.611367009761498, 45.82529301321518 ], [ 17.565172987856062, 45.81621534099034 ], [ 17.548903923686563, 45.838963459733606 ], [ 17.555479250295111, 45.854870663513907 ], [ 17.564265967223729, 45.862459582370406 ] ] ] } },
{ "type": "Feature", "properties": { "BM": 4289, "longitude": 17.597506325633795, "latitude": 45.739536239087684, "population": 110 }, "geometry": { "type": "Polygon", "coordinates": [ [ [ 17.568035543247348, 45.708776627952993 ], [ 17.577696983256935, 45.748217066017446 ], [ 17.605090444432513, 45.779562547308714 ], [ 17.620725610909446, 45.783316250664342 ], [ 17.627676842027618, 45.764948857573458 ], [ 17.625895611044736, 45.755469701134722 ], [ 17.603411369735518, 45.710929964111152 ], [ 17.586829705509718, 45.698860231927007 ], [ 17.577885555804833, 45.695010921088773 ], [ 17.56800447900239, 45.705864068595801 ], [ 17.568035543247348, 45.708776627952993 ] ] ] } },
{ "type": "Feature", "properties": { "BM": 4303, "longitude": 17.559428398572877, "latitude": 45.742840534979308, "population": 63 }, "geometry": { "type": "Polygon", "coordinates": [ [ [ 17.537157726381324, 45.753065924582735 ], [ 17.552993035864962, 45.769083059863895 ], [ 17.577696983256935, 45.748217066017446 ], [ 17.568035543247348, 45.708776627952993 ], [ 17.537157726381324, 45.753065924582735 ] ] ] } },
{ "type": "Feature", "properties": { "BM": 4306, "longitude": 17.799677528252268, "latitude": 45.995864293598736, "population": 120 }, "geometry": { "type": "Polygon", "coordinates": [ [ [ 17.894421748959751, 46.188844677405669 ], [ 17.767971220905554, 45.806176778662106 ], [ 17.745643394519064, 45.802789577388687 ], [ 17.724085599886383, 45.920460671734212 ], [ 17.727232904238814, 45.939834304371963 ], [ 17.733302369692684, 45.956714389402826 ], [ 17.898747089101473, 46.244583862385525 ], [ 17.894421748959751, 46.188844677405669 ] ] ] } },
{ "type": "Feature", "properties": { "BM": 4304, "longitude": 17.575333808360629, "latitude": 45.774650526624839, "population": 228 }, "geometry": { "type": "Polygon", "coordinates": [ [ [ 17.571709707599382, 45.797366470403411 ], [ 17.605090444432513, 45.779562547308714 ], [ 17.577696983256935, 45.748217066017446 ], [ 17.552993035864962, 45.769083059863895 ], [ 17.549048366295157, 45.781533567685578 ], [ 17.571709707599382, 45.797366470403411 ] ] ] } },
{ "type": "Feature", "properties": { "BM": 4308, "longitude": 17.765122040623446, "latitude": 46.115707920870321, "population": 193 }, "geometry": { "type": "Polygon", "coordinates": [ [ [ 17.963033498742995, 46.481309156621634 ], [ 17.898747089101473, 46.244583862385525 ], [ 17.733302369692684, 45.956714389402826 ], [ 17.595470903609453, 45.857819911147239 ], [ 17.564265967223729, 45.862459582370406 ], [ 17.563381573793233, 45.890037188089124 ], [ 17.963033498742995, 46.481309156621634 ] ] ] } },
{ "type": "Feature", "properties": { "BM": 4318, "longitude": 17.609378162844852, "latitude": 45.681996915151949, "population": 68 }, "geometry": { "type": "Polygon", "coordinates": [ [ [ 17.586829705509718, 45.698860231927007 ], [ 17.653182996678822, 45.690854831929258 ], [ 17.647400211325841, 45.677361706337621 ], [ 17.581834340037165, 45.660492962837822 ], [ 17.581817669429647, 45.660515019554531 ], [ 17.577885555804833, 45.695010921088773 ], [ 17.586829705509718, 45.698860231927007 ] ] ] } },
{ "type": "Feature", "properties": { "BM": 4319, "longitude": 17.599493153363277, "latitude": 45.803247254564766, "population": 274 }, "geometry": { "type": "Polygon", "coordinates": [ [ [ 17.571709707599382, 45.797366470403411 ], [ 17.565172987856062, 45.81621534099034 ], [ 17.611367009761498, 45.82529301321518 ], [ 17.627086330557507, 45.806779517030463 ], [ 17.627239306589455, 45.792328425457121 ], [ 17.620725610909446, 45.783316250664342 ], [ 17.605090444432513, 45.779562547308714 ], [ 17.571709707599382, 45.797366470403411 ] ] ] } },
{ "type": "Feature", "properties": { "BM": 4258, "longitude": 17.489099833028323, "latitude": 45.834459321380606, "population": 201 }, "geometry": { "type": "Polygon", "coordinates": [ [ [ 17.468456649766615, 45.827017121118054 ], [ 17.494775879933453, 45.854631883421412 ], [ 17.504866458875838, 45.847484387946608 ], [ 17.497351950751963, 45.819223863486954 ], [ 17.469749566552359, 45.823040616090196 ], [ 17.468456649766615, 45.827017121118054 ] ] ] } },
{ "type": "Feature", "properties": { "BM": 4256, "longitude": 17.705764678546029, "latitude": 46.289161441251665, "population": 107 }, "geometry": { "type": "Polygon", "coordinates": [ [ [ 17.976761118531723, 46.525343199999988 ], [ 17.963033498742995, 46.481309156621634 ], [ 17.563381573793233, 45.890037188089124 ], [ 17.534247881138882, 45.9090158016784 ], [ 17.522104805141669, 45.936291023078198 ], [ 17.598237954433419, 46.443863695682296 ], [ 17.650238113840114, 46.525343199999988 ], [ 17.976761118531723, 46.525343199999988 ] ] ] } },
{ "type": "Feature", "properties": { "BM": 4257, "longitude": 17.514328642204443, "latitude": 45.910032201558387, "population": 205 }, "geometry": { "type": "Polygon", "coordinates": [ [ [ 17.522104805141669, 45.936291023078198 ], [ 17.534247881138882, 45.9090158016784 ], [ 17.520804584559471, 45.892536841668061 ], [ 17.496334492748847, 45.893810823348836 ], [ 17.493081673912471, 45.907385155531337 ], [ 17.522104805141669, 45.936291023078198 ] ] ] } },
{ "type": "Feature", "properties": { "BM": 4262, "longitude": 17.503750225041962, "latitude": 45.795741185081425, "population": 859 }, "geometry": { "type": "Polygon", "coordinates": [ [ [ 17.492441171190592, 45.800289180914703 ], [ 17.508036900265356, 45.806814281806169 ], [ 17.51320564673377, 45.79107811143583 ], [ 17.502886622839601, 45.783618293919638 ], [ 17.492441171190592, 45.800289180914703 ] ] ] } },
{ "type": "Feature", "properties": { "BM": 4263, "longitude": 17.533016869726897, "latitude": 45.590199594649995, "population": 907 }, "geometry": { "type": "Polygon", "coordinates": [ [ [ 17.478723604122617, 45.615889075450582 ], [ 17.48312963343389, 45.627987084707513 ], [ 17.581817669429647, 45.660515019554531 ], [ 17.581834340037165, 45.660492962837822 ], [ 17.618015618436544, 45.586763384988963 ], [ 17.618118390634596, 45.57953868387925 ], [ 17.492021631762082, 45.523450066765669 ], [ 17.450182248589616, 45.533670932655504 ], [ 17.478723604122617, 45.615889075450582 ] ] ] } },
{ "type": "Feature", "properties": { "BM": 4267, "longitude": 17.508722301294927, "latitude": 45.880707793759306, "population": 54 }, "geometry": { "type": "Polygon", "coordinates": [ [ [ 17.491412327108726, 45.875945764872348 ], [ 17.496334492748847, 45.893810823348836 ], [ 17.520804584559471, 45.892536841668061 ], [ 17.527419350616597, 45.870001116787684 ], [ 17.4958467098194, 45.868955638844433 ], [ 17.491412327108726, 45.875945764872348 ] ] ] } },
{ "type": "Feature", "properties": { "BM": 4264, "longitude": 17.51336372685369, "latitude": 45.772436657993232, "population": 296 }, "geometry": { "type": "Polygon", "coordinates": [ [ [ 17.502886622839601, 45.783618293919638 ], [ 17.51320564673377, 45.79107811143583 ], [ 17.530242100641281, 45.789209283107958 ], [ 17.532896954608361, 45.786263019115943 ], [ 17.524256542294609, 45.756892956341815 ], [ 17.512144567536875, 45.751161496097211 ], [ 17.489501862570464, 45.769309507304591 ], [ 17.502886622839601, 45.783618293919638 ] ] ] } },
{ "type": "Feature", "properties": { "BM": 4265, "longitude": 17.524551244434637, "latitude": 45.812509213140459, "population": 139 }, "geometry": { "type": "Polygon", "coordinates": [ [ [ 17.505560125190428, 45.817243011865294 ], [ 17.529994134562472, 45.834146010339616 ], [ 17.544361472342278, 45.836161163946898 ], [ 17.530242100641281, 45.789209283107958 ], [ 17.51320564673377, 45.79107811143583 ], [ 17.508036900265356, 45.806814281806169 ], [ 17.505560125190428, 45.817243011865294 ] ] ] } },
{ "type": "Feature", "properties": { "BM": 4268, "longitude": 17.510780894950688, "latitude": 45.831726864434856, "population": 394 }, "geometry": { "type": "Polygon", "coordinates": [ [ [ 17.497351950751963, 45.819223863486954 ], [ 17.504866458875838, 45.847484387946608 ], [ 17.529994134562472, 45.834146010339616 ], [ 17.505560125190428, 45.817243011865294 ], [ 17.497351950751963, 45.819223863486954 ] ] ] } },
{ "type": "Feature", "properties": { "BM": 4274, "longitude": 17.543925854638907, "latitude": 45.881527660589931, "population": 340 }, "geometry": { "type": "Polygon", "coordinates": [ [ [ 17.520804584559471, 45.892536841668061 ], [ 17.534247881138882, 45.9090158016784 ], [ 17.563381573793233, 45.890037188089124 ], [ 17.564265967223729, 45.862459582370406 ], [ 17.555479250295111, 45.854870663513907 ], [ 17.527419350616597, 45.870001116787684 ], [ 17.520804584559471, 45.892536841668061 ] ] ] } },
{ "type": "Feature", "properties": { "BM": 4278, "longitude": 17.550222251176741, "latitude": 45.806271861785447, "population": 95 }, "geometry": { "type": "Polygon", "coordinates": [ [ [ 17.530242100641281, 45.789209283107958 ], [ 17.544361472342278, 45.836161163946898 ], [ 17.548903923686563, 45.838963459733606 ], [ 17.565172987856062, 45.81621534099034 ], [ 17.571709707599382, 45.797366470403411 ], [ 17.549048366295157, 45.781533567685578 ], [ 17.532896954608361, 45.786263019115943 ], [ 17.530242100641281, 45.789209283107958 ] ] ] } },
{ "type": "Feature", "properties": { "BM": 4276, "longitude": 17.535758417627754, "latitude": 45.729769691013388, "population": 37 }, "geometry": { "type": "Polygon", "coordinates": [ [ [ 17.512144567536875, 45.751161496097211 ], [ 17.524256542294609, 45.756892956341815 ], [ 17.537157726381324, 45.753065924582735 ], [ 17.568035543247348, 45.708776627952993 ], [ 17.56800447900239, 45.705864068595801 ], [ 17.543865096239458, 45.706488280085424 ], [ 17.512079764407581, 45.725415079212148 ], [ 17.512144567536875, 45.751161496097211 ] ] ] } },
{ "type": "Feature", "properties": { "BM": 4287, "longitude": 17.53830360484751, "latitude": 45.769518782167708, "population": 69 }, "geometry": { "type": "Polygon", "coordinates": [ [ [ 17.532896954608361, 45.786263019115943 ], [ 17.549048366295157, 45.781533567685578 ], [ 17.552993035864962, 45.769083059863895 ], [ 17.537157726381324, 45.753065924582735 ], [ 17.524256542294609, 45.756892956341815 ], [ 17.532896954608361, 45.786263019115943 ] ] ] } },
{ "type": "Feature", "properties": { "BM": 4229, "longitude": 17.484105419353526, "latitude": 45.793065912565744, "population": 683 }, "geometry": { "type": "Polygon", "coordinates": [ [ [ 17.469241530384494, 45.820727055365694 ], [ 17.492441171190592, 45.800289180914703 ], [ 17.502886622839601, 45.783618293919638 ], [ 17.489501862570464, 45.769309507304591 ], [ 17.486867360333701, 45.769191135662282 ], [ 17.48375250795511, 45.770397946855645 ], [ 17.466400621598449, 45.812632224115525 ], [ 17.469241530384494, 45.820727055365694 ] ] ] } },
{ "type": "Feature", "properties": { "BM": 4234, "longitude": 17.477480322090688, "latitude": 45.894912353831558, "population": 147 }, "geometry": { "type": "Polygon", "coordinates": [ [ [ 17.463303204701383, 45.911951800806357 ], [ 17.471518714406731, 45.914938851469159 ], [ 17.493081673912471, 45.907385155531337 ], [ 17.496334492748847, 45.893810823348836 ], [ 17.491412327108726, 45.875945764872348 ], [ 17.472259156356518, 45.876241207935443 ], [ 17.45663450560901, 45.893482615781465 ], [ 17.463303204701383, 45.911951800806357 ] ] ] } },
{ "type": "Feature", "properties": { "BM": 4233, "longitude": 17.474149869064686, "latitude": 45.854100587323742, "population": 289 }, "geometry": { "type": "Polygon", "coordinates": [ [ [ 17.448646314266387, 45.844122771307212 ], [ 17.472259156356518, 45.876241207935443 ], [ 17.491412327108726, 45.875945764872348 ], [ 17.4958467098194, 45.868955638844433 ], [ 17.494775879933453, 45.854631883421412 ], [ 17.468456649766615, 45.827017121118054 ], [ 17.448646314266387, 45.844122771307212 ] ] ] } },
{ "type": "Feature", "properties": { "BM": 4238, "longitude": 17.506411090194714, "latitude": 45.695088040738781, "population": 138 }, "geometry": { "type": "Polygon", "coordinates": [ [ [ 17.486818067277774, 45.693209023198023 ], [ 17.502441945256891, 45.72211709750917 ], [ 17.512079764407581, 45.725415079212148 ], [ 17.543865096239458, 45.706488280085424 ], [ 17.480548900690682, 45.65656759914075 ], [ 17.476471266658262, 45.66492470728776 ], [ 17.486818067277774, 45.693209023198023 ] ] ] } },
{ "type": "Feature", "properties": { "BM": 4236, "longitude": 17.469500359132077, "latitude": 45.69976276200299, "population": 1240 }, "geometry": { "type": "Polygon", "coordinates": [ [ [ 17.452521574376707, 45.725721836615776 ], [ 17.472945953617639, 45.729001146998272 ], [ 17.486818067277774, 45.693209023198023 ], [ 17.476471266658262, 45.66492470728776 ], [ 17.459787892460014, 45.680833431052797 ], [ 17.452521574376707, 45.725721836615776 ] ] ] } },
{ "type": "Feature", "properties": { "BM": 4237, "longitude": 17.487145607667298, "latitude": 45.716053517456103, "population": 68 }, "geometry": { "type": "Polygon", "coordinates": [ [ [ 17.479195987791147, 45.731196230624818 ], [ 17.502441945256891, 45.72211709750917 ], [ 17.486818067277774, 45.693209023198023 ], [ 17.472945953617639, 45.729001146998272 ], [ 17.479195987791147, 45.731196230624818 ] ] ] } },
{ "type": "Feature", "properties": { "BM": 4243, "longitude": 17.53375379055106, "latitude": 45.668542177554322, "population": 142 }, "geometry": { "type": "Polygon", "coordinates": [ [ [ 17.480548900690682, 45.65656759914075 ], [ 17.543865096239458, 45.706488280085424 ], [ 17.56800447900239, 45.705864068595801 ], [ 17.577885555804833, 45.695010921088773 ], [ 17.581817669429647, 45.660515019554531 ], [ 17.48312963343389, 45.627987084707513 ], [ 17.480548900690682, 45.65656759914075 ] ] ] } },
{ "type": "Feature", "properties": { "BM": 4241, "longitude": 17.490877345561174, "latitude": 45.812739176055167, "population": 66 }, "geometry": { "type": "Polygon", "coordinates": [ [ [ 17.469749566552359, 45.823040616090196 ], [ 17.497351950751963, 45.819223863486954 ], [ 17.505560125190428, 45.817243011865294 ], [ 17.508036900265356, 45.806814281806169 ], [ 17.492441171190592, 45.800289180914703 ], [ 17.469241530384494, 45.820727055365694 ], [ 17.469749566552359, 45.823040616090196 ] ] ] } },
{ "type": "Feature", "properties": { "BM": 4246, "longitude": 17.496504091033909, "latitude": 45.743247643600689, "population": 115 }, "geometry": { "type": "Polygon", "coordinates": [ [ [ 17.486867360333701, 45.769191135662282 ], [ 17.489501862570464, 45.769309507304591 ], [ 17.512144567536875, 45.751161496097211 ], [ 17.512079764407581, 45.725415079212148 ], [ 17.502441945256891, 45.72211709750917 ], [ 17.479195987791147, 45.731196230624818 ], [ 17.486867360333701, 45.769191135662282 ] ] ] } },
{ "type": "Feature", "properties": { "BM": 4247, "longitude": 17.524864455628588, "latitude": 45.85349714895316, "population": 444 }, "geometry": { "type": "Polygon", "coordinates": [ [ [ 17.4958467098194, 45.868955638844433 ], [ 17.527419350616597, 45.870001116787684 ], [ 17.555479250295111, 45.854870663513907 ], [ 17.548903923686563, 45.838963459733606 ], [ 17.544361472342278, 45.836161163946898 ], [ 17.529994134562472, 45.834146010339616 ], [ 17.504866458875838, 45.847484387946608 ], [ 17.494775879933453, 45.854631883421412 ], [ 17.4958467098194, 45.868955638844433 ] ] ] } },
{ "type": "Feature", "properties": { "BM": 4198, "longitude": 17.426063532498457, "latitude": 45.793738531644564, "population": 611 }, "geometry": { "type": "Polygon", "coordinates": [ [ [ 17.408948619590191, 45.804555069244621 ], [ 17.425654939317905, 45.815072275683029 ], [ 17.442046929036533, 45.794850962482812 ], [ 17.427918622975753, 45.766182079129827 ], [ 17.408948619590191, 45.804555069244621 ] ] ] } },
{ "type": "Feature", "properties": { "BM": 4196, "longitude": 17.445367399456661, "latitude": 45.822621204406268, "population": 563 }, "geometry": { "type": "Polygon", "coordinates": [ [ [ 17.428352340426379, 45.844019458736341 ], [ 17.430202346760169, 45.845219020507059 ], [ 17.437102402929241, 45.847436028271055 ], [ 17.448646314266387, 45.844122771307212 ], [ 17.468456649766615, 45.827017121118054 ], [ 17.469749566552359, 45.823040616090196 ], [ 17.469241530384494, 45.820727055365694 ], [ 17.466400621598449, 45.812632224115525 ], [ 17.442046929036533, 45.794850962482812 ], [ 17.425654939317905, 45.815072275683029 ], [ 17.428352340426379, 45.844019458736341 ] ] ] } },
{ "type": "Feature", "properties": { "BM": 4197, "longitude": 17.426355885140797, "latitude": 45.866667147858642, "population": 350 }, "geometry": { "type": "Polygon", "coordinates": [ [ [ 17.408204778543166, 45.875175887271922 ], [ 17.419639182139878, 45.882236431868535 ], [ 17.436893801701462, 45.880357010891174 ], [ 17.437102402929241, 45.847436028271055 ], [ 17.430202346760169, 45.845219020507059 ], [ 17.408204778543166, 45.875175887271922 ] ] ] } },
{ "type": "Feature", "properties": { "BM": 4200, "longitude": 17.455850573157658, "latitude": 45.78123188927767, "population": 387 }, "geometry": { "type": "Polygon", "coordinates": [ [ [ 17.427918622975753, 45.766182079129827 ], [ 17.442046929036533, 45.794850962482812 ], [ 17.466400621598449, 45.812632224115525 ], [ 17.48375250795511, 45.770397946855645 ], [ 17.435717192633515, 45.757398641054316 ], [ 17.427701561227469, 45.764598635591298 ], [ 17.427918622975753, 45.766182079129827 ] ] ] } },
{ "type": "Feature", "properties": { "BM": 4201, "longitude": 17.450962103454319, "latitude": 45.870024795174331, "population": 405 }, "geometry": { "type": "Polygon", "coordinates": [ [ [ 17.436893801701462, 45.880357010891174 ], [ 17.439868836198375, 45.886550961241994 ], [ 17.45663450560901, 45.893482615781465 ], [ 17.472259156356518, 45.876241207935443 ], [ 17.448646314266387, 45.844122771307212 ], [ 17.437102402929241, 45.847436028271055 ], [ 17.436893801701462, 45.880357010891174 ] ] ] } },
{ "type": "Feature", "properties": { "BM": 4205, "longitude": 17.433205398741809, "latitude": 45.702832242058072, "population": 58 }, "geometry": { "type": "Polygon", "coordinates": [ [ [ 17.441806072473284, 45.735184756298722 ], [ 17.452521574376707, 45.725721836615776 ], [ 17.459787892460014, 45.680833431052797 ], [ 17.401557022757242, 45.687470022813891 ], [ 17.39189348352938, 45.68884301137129 ], [ 17.441806072473284, 45.735184756298722 ] ] ] } },
{ "type": "Feature", "properties": { "BM": 4210, "longitude": 17.462453450639224, "latitude": 45.747666067094158, "population": 70 }, "geometry": { "type": "Polygon", "coordinates": [ [ [ 17.441806072473284, 45.735184756298722 ], [ 17.435717192633515, 45.757398641054316 ], [ 17.48375250795511, 45.770397946855645 ], [ 17.486867360333701, 45.769191135662282 ], [ 17.479195987791147, 45.731196230624818 ], [ 17.472945953617639, 45.729001146998272 ], [ 17.452521574376707, 45.725721836615776 ], [ 17.441806072473284, 45.735184756298722 ] ] ] } },
{ "type": "Feature", "properties": { "BM": 4222, "longitude": 17.534218571627925, "latitude": 46.13972919444803, "population": 242 }, "geometry": { "type": "Polygon", "coordinates": [ [ [ 17.575812439010306, 46.413053769428103 ], [ 17.598237954433419, 46.443863695682296 ], [ 17.522104805141669, 45.936291023078198 ], [ 17.493081673912471, 45.907385155531337 ], [ 17.471518714406731, 45.914938851469159 ], [ 17.561311621867642, 46.369145385483982 ], [ 17.575812439010306, 46.413053769428103 ] ] ] } },
{ "type": "Feature", "properties": { "BM": 4164, "longitude": 17.380802764934497, "latitude": 45.83638373722394, "population": 610 }, "geometry": { "type": "Polygon", "coordinates": [ [ [ 17.379411096199043, 45.832060585949357 ], [ 17.380315164978811, 45.841220105789844 ], [ 17.381721825281453, 45.840166739017768 ], [ 17.382025532554032, 45.833567481373692 ], [ 17.379411096199043, 45.832060585949357 ] ] ] } },
{ "type": "Feature", "properties": { "BM": 4168, "longitude": 17.385451083363311, "latitude": 45.837232098374301, "population": 413 }, "geometry": { "type": "Polygon", "coordinates": [ [ [ 17.384916186952111, 45.834185498190649 ], [ 17.38184026074622, 45.840086921743037 ], [ 17.388176144386289, 45.838876793735587 ], [ 17.387978668908282, 45.836259399425984 ], [ 17.38741803253075, 45.835123548265621 ], [ 17.385477762381491, 45.833634991761002 ], [ 17.384916186952111, 45.834185498190649 ] ] ] } },
{ "type": "Feature", "properties": { "BM": 4169, "longitude": 17.385784809829321, "latitude": 45.828709937588087, "population": 621 }, "geometry": { "type": "Polygon", "coordinates": [ [ [ 17.384679506876452, 45.825257916372038 ], [ 17.383020225823035, 45.830877950798609 ], [ 17.38567835296891, 45.832056812234477 ], [ 17.388408381835273, 45.829391210312842 ], [ 17.388160926347339, 45.826554144068865 ], [ 17.384679506876452, 45.825257916372038 ] ] ] } },
{ "type": "Feature", "properties": { "BM": 4175, "longitude": 17.396882454386688, "latitude": 45.77642704674961, "population": 261 }, "geometry": { "type": "Polygon", "coordinates": [ [ [ 17.358654186024797, 45.756047530222745 ], [ 17.402198059205382, 45.807808064908464 ], [ 17.408948619590191, 45.804555069244621 ], [ 17.427918622975753, 45.766182079129827 ], [ 17.427701561227469, 45.764598635591298 ], [ 17.359514368509384, 45.754150597997395 ], [ 17.358654186024797, 45.756047530222745 ] ] ] } },
{ "type": "Feature", "properties": { "BM": 4178, "longitude": 17.387896088442648, "latitude": 45.81066421130074, "population": 660 }, "geometry": { "type": "Polygon", "coordinates": [ [ [ 17.378320890151496, 45.815345246499923 ], [ 17.387956521034191, 45.815450461025314 ], [ 17.400934060229257, 45.811600126981965 ], [ 17.402129050958798, 45.807947812804677 ], [ 17.376744293918978, 45.806018043510136 ], [ 17.378320890151496, 45.815345246499923 ] ] ] } },
{ "type": "Feature", "properties": { "BM": 4179, "longitude": 17.395052073589508, "latitude": 45.82638543096337, "population": 440 }, "geometry": { "type": "Polygon", "coordinates": [ [ [ 17.388408381835273, 45.829391210312842 ], [ 17.390507607052811, 45.83107970223282 ], [ 17.403806239446784, 45.824469664696913 ], [ 17.402664242185736, 45.822247893913314 ], [ 17.389405784317056, 45.825501049382481 ], [ 17.388160926347339, 45.826554144068865 ], [ 17.388408381835273, 45.829391210312842 ] ] ] } },
{ "type": "Feature", "properties": { "BM": 4176, "longitude": 17.388245270813769, "latitude": 45.832388104121563, "population": 630 }, "geometry": { "type": "Polygon", "coordinates": [ [ [ 17.38741803253075, 45.835123548265621 ], [ 17.391367977956588, 45.832853628418675 ], [ 17.390507607052811, 45.83107970223282 ], [ 17.388408381835273, 45.829391210312842 ], [ 17.38567835296891, 45.832056812234477 ], [ 17.385477762381491, 45.833634991761002 ], [ 17.38741803253075, 45.835123548265621 ] ] ] } },
{ "type": "Feature", "properties": { "BM": 4182, "longitude": 17.395310259774892, "latitude": 45.818693338810554, "population": 579 }, "geometry": { "type": "Polygon", "coordinates": [ [ [ 17.389405784317056, 45.825501049382481 ], [ 17.402664242185736, 45.822247893913314 ], [ 17.400934060229257, 45.811600126981965 ], [ 17.387956521034191, 45.815450461025314 ], [ 17.389405784317056, 45.825501049382481 ] ] ] } },
{ "type": "Feature", "properties": { "BM": 4183, "longitude": 17.415365088005405, "latitude": 45.823873895355142, "population": 640 }, "geometry": { "type": "Polygon", "coordinates": [ [ [ 17.403806239446784, 45.824469664696913 ], [ 17.415531229870169, 45.841947426245369 ], [ 17.428352340426379, 45.844019458736341 ], [ 17.425654939317905, 45.815072275683029 ], [ 17.408948619590191, 45.804555069244621 ], [ 17.402198059205382, 45.807808064908464 ], [ 17.402129050958798, 45.807947812804677 ], [ 17.400934060229257, 45.811600126981965 ], [ 17.402664242185736, 45.822247893913314 ], [ 17.403806239446784, 45.824469664696913 ] ] ] } },
{ "type": "Feature", "properties": { "BM": 4180, "longitude": 17.39688648691746, "latitude": 45.731714261802331, "population": 59 }, "geometry": { "type": "Polygon", "coordinates": [ [ [ 17.359514368509384, 45.754150597997395 ], [ 17.427701561227469, 45.764598635591298 ], [ 17.435717192633515, 45.757398641054316 ], [ 17.441806072473284, 45.735184756298722 ], [ 17.39189348352938, 45.68884301137129 ], [ 17.389625913650356, 45.688284517320739 ], [ 17.3763296089612, 45.696592799421651 ], [ 17.355655679476936, 45.730713241419465 ], [ 17.359514368509384, 45.754150597997395 ] ] ] } },
{ "type": "Feature", "properties": { "BM": 4181, "longitude": 17.389984060549086, "latitude": 45.836459141445253, "population": 595 }, "geometry": { "type": "Polygon", "coordinates": [ [ [ 17.38839444508999, 45.838977218739352 ], [ 17.393126694830983, 45.834669939112828 ], [ 17.392671089308418, 45.8343225683331 ], [ 17.387978668908282, 45.836259399425984 ], [ 17.388176144386289, 45.838876793735587 ], [ 17.38839444508999, 45.838977218739352 ] ] ] } },
{ "type": "Feature", "properties": { "BM": 4186, "longitude": 17.400064434223676, "latitude": 45.842245253161082, "population": 843 }, "geometry": { "type": "Polygon", "coordinates": [ [ [ 17.399713305082471, 45.850563494131514 ], [ 17.414251320035529, 45.842421064881584 ], [ 17.393126694830983, 45.834669939112828 ], [ 17.38839444508999, 45.838977218739352 ], [ 17.399713305082471, 45.850563494131514 ] ] ] } },
{ "type": "Feature", "properties": { "BM": 4187, "longitude": 17.40476881542768, "latitude": 45.860221010697103, "population": 162 }, "geometry": { "type": "Polygon", "coordinates": [ [ [ 17.376932539787354, 45.869600993669394 ], [ 17.399006404526148, 45.877740154745638 ], [ 17.408204778543166, 45.875175887271922 ], [ 17.430202346760169, 45.845219020507059 ], [ 17.428352340426379, 45.844019458736341 ], [ 17.415531229870169, 45.841947426245369 ], [ 17.414251320035529, 45.842421064881584 ], [ 17.399713305082471, 45.850563494131514 ], [ 17.376932539787354, 45.869600993669394 ] ] ] } },
{ "type": "Feature", "properties": { "BM": 4184, "longitude": 17.390008080826853, "latitude": 45.834579853918832, "population": 715 }, "geometry": { "type": "Polygon", "coordinates": [ [ [ 17.387978668908282, 45.836259399425984 ], [ 17.392671089308418, 45.8343225683331 ], [ 17.391367977956588, 45.832853628418675 ], [ 17.38741803253075, 45.835123548265621 ], [ 17.387978668908282, 45.836259399425984 ] ] ] } },
{ "type": "Feature", "properties": { "BM": 4185, "longitude": 17.402894514004533, "latitude": 45.833396254897011, "population": 491 }, "geometry": { "type": "Polygon", "coordinates": [ [ [ 17.391367977956588, 45.832853628418675 ], [ 17.392671089308418, 45.8343225683331 ], [ 17.393126694830983, 45.834669939112828 ], [ 17.414251320035529, 45.842421064881584 ], [ 17.415531229870169, 45.841947426245369 ], [ 17.403806239446784, 45.824469664696913 ], [ 17.390507607052811, 45.83107970223282 ], [ 17.391367977956588, 45.832853628418675 ] ] ] } },
{ "type": "Feature", "properties": { "BM": 4189, "longitude": 17.409197116773782, "latitude": 45.885471845380273, "population": 640 }, "geometry": { "type": "Polygon", "coordinates": [ [ [ 17.409106196607706, 45.901042680152713 ], [ 17.419639182139878, 45.882236431868535 ], [ 17.408204778543166, 45.875175887271922 ], [ 17.399006404526148, 45.877740154745638 ], [ 17.409106196607706, 45.901042680152713 ] ] ] } },
{ "type": "Feature", "properties": { "BM": 4130, "longitude": 17.378582239096129, "latitude": 45.789255082779896, "population": 722 }, "geometry": { "type": "Polygon", "coordinates": [ [ [ 17.376744293918978, 45.806018043510136 ], [ 17.402129050958798, 45.807947812804677 ], [ 17.402198059205382, 45.807808064908464 ], [ 17.358654186024797, 45.756047530222745 ], [ 17.357900783376657, 45.757169742569467 ], [ 17.376744293918978, 45.806018043510136 ] ] ] } },
{ "type": "Feature", "properties": { "BM": 4128, "longitude": 17.334484696116142, "latitude": 45.814805692306187, "population": 290 }, "geometry": { "type": "Polygon", "coordinates": [ [ [ 17.322536604494886, 45.78617468455429 ], [ 17.327729658880219, 45.841609974839749 ], [ 17.348959254776137, 45.834390269985072 ], [ 17.350206150965597, 45.827354835583471 ], [ 17.332080604492056, 45.783334685510525 ], [ 17.322536604494886, 45.78617468455429 ] ] ] } },
{ "type": "Feature", "properties": { "BM": 4129, "longitude": 17.35602632564833, "latitude": 45.796270973972391, "population": 479 }, "geometry": { "type": "Polygon", "coordinates": [ [ [ 17.357900783376657, 45.757169742569467 ], [ 17.332080604492056, 45.783334685510525 ], [ 17.350206150965597, 45.827354835583471 ], [ 17.370583139922598, 45.824454559654491 ], [ 17.371464825005209, 45.824077714371661 ], [ 17.37586357104804, 45.820134186506898 ], [ 17.378320890151496, 45.815345246499923 ], [ 17.376744293918978, 45.806018043510136 ], [ 17.357900783376657, 45.757169742569467 ] ] ] } },
{ "type": "Feature", "properties": { "BM": 4142, "longitude": 17.385601387046275, "latitude": 45.895887748913566, "population": 548 }, "geometry": { "type": "Polygon", "coordinates": [ [ [ 17.411086293005631, 45.925431572920679 ], [ 17.409106196607706, 45.901042680152713 ], [ 17.399006404526148, 45.877740154745638 ], [ 17.376932539787354, 45.869600993669394 ], [ 17.369701661650634, 45.870821151929803 ], [ 17.364777905236362, 45.872975574179115 ], [ 17.352271272664801, 45.891844733515498 ], [ 17.409460218445915, 45.931022986768902 ], [ 17.411086293005631, 45.925431572920679 ] ] ] } },
{ "type": "Feature", "properties": { "BM": 4143, "longitude": 17.435948977245996, "latitude": 45.914474984784555, "population": 363 }, "geometry": { "type": "Polygon", "coordinates": [ [ [ 17.409460218445915, 45.931022986768902 ], [ 17.414596636469646, 45.945282424609431 ], [ 17.463303204701383, 45.911951800806357 ], [ 17.45663450560901, 45.893482615781465 ], [ 17.439868836198375, 45.886550961241994 ], [ 17.411086293005631, 45.925431572920679 ], [ 17.409460218445915, 45.931022986768902 ] ] ] } },
{ "type": "Feature", "properties": { "BM": 4141, "longitude": 17.480118589077179, "latitude": 46.076196358694446, "population": 312 }, "geometry": { "type": "Polygon", "coordinates": [ [ [ 17.561311621867642, 46.369145385483982 ], [ 17.471518714406731, 45.914938851469159 ], [ 17.463303204701383, 45.911951800806357 ], [ 17.414596636469646, 45.945282424609431 ], [ 17.414114451243616, 45.966091838932634 ], [ 17.561311621867642, 46.369145385483982 ] ] ] } },
{ "type": "Feature", "properties": { "BM": 4144, "longitude": 17.376315796655756, "latitude": 45.834087849670169, "population": 773 }, "geometry": { "type": "Polygon", "coordinates": [ [ [ 17.370583139922598, 45.824454559654491 ], [ 17.377662555463989, 45.844871701565886 ], [ 17.380315164978811, 45.841220105789844 ], [ 17.379411096199043, 45.832060585949357 ], [ 17.378817541323386, 45.83057208424664 ], [ 17.371464825005209, 45.824077714371661 ], [ 17.370583139922598, 45.824454559654491 ] ] ] } },
{ "type": "Feature", "properties": { "BM": 4145, "longitude": 17.36423814397715, "latitude": 45.84487050603434, "population": 605 }, "geometry": { "type": "Polygon", "coordinates": [ [ [ 17.348959254776137, 45.834390269985072 ], [ 17.364777905236362, 45.872975574179115 ], [ 17.369701661650634, 45.870821151929803 ], [ 17.377662555463989, 45.844871701565886 ], [ 17.370583139922598, 45.824454559654491 ], [ 17.350206150965597, 45.827354835583471 ], [ 17.348959254776137, 45.834390269985072 ] ] ] } },
{ "type": "Feature", "properties": { "BM": 4151, "longitude": 17.421976346817736, "latitude": 45.897868799329167, "population": 183 }, "geometry": { "type": "Polygon", "coordinates": [ [ [ 17.411086293005631, 45.925431572920679 ], [ 17.439868836198375, 45.886550961241994 ], [ 17.436893801701462, 45.880357010891174 ], [ 17.419639182139878, 45.882236431868535 ], [ 17.409106196607706, 45.901042680152713 ], [ 17.411086293005631, 45.925431572920679 ] ] ] } },
{ "type": "Feature", "properties": { "BM": 4154, "longitude": 17.3825381182629, "latitude": 45.832237643594887, "population": 591 }, "geometry": { "type": "Polygon", "coordinates": [ [ [ 17.379411096199043, 45.832060585949357 ], [ 17.382025532554032, 45.833567481373692 ], [ 17.384916186952111, 45.834185498190649 ], [ 17.385477762381491, 45.833634991761002 ], [ 17.38567835296891, 45.832056812234477 ], [ 17.383020225823035, 45.830877950798609 ], [ 17.378817541323386, 45.83057208424664 ], [ 17.379411096199043, 45.832060585949357 ] ] ] } },
{ "type": "Feature", "properties": { "BM": 4155, "longitude": 17.378550843621898, "latitude": 45.825723471949054, "population": 806 }, "geometry": { "type": "Polygon", "coordinates": [ [ [ 17.37586357104804, 45.820134186506898 ], [ 17.371464825005209, 45.824077714371661 ], [ 17.378817541323386, 45.83057208424664 ], [ 17.383020225823035, 45.830877950798609 ], [ 17.384679506876452, 45.825257916372038 ], [ 17.37586357104804, 45.820134186506898 ] ] ] } },
{ "type": "Feature", "properties": { "BM": 4158, "longitude": 17.383590668306013, "latitude": 45.853786578822849, "population": 535 }, "geometry": { "type": "Polygon", "coordinates": [ [ [ 17.381721825281453, 45.840166739017768 ], [ 17.380315164978811, 45.841220105789844 ], [ 17.377662555463989, 45.844871701565886 ], [ 17.369701661650634, 45.870821151929803 ], [ 17.376932539787354, 45.869600993669394 ], [ 17.399713305082471, 45.850563494131514 ], [ 17.38839444508999, 45.838977218739352 ], [ 17.388176144386289, 45.838876793735587 ], [ 17.38184026074622, 45.840086921743037 ], [ 17.381721825281453, 45.840166739017768 ] ] ] } },
{ "type": "Feature", "properties": { "BM": 4156, "longitude": 17.383519430111935, "latitude": 45.820082967168858, "population": 847 }, "geometry": { "type": "Polygon", "coordinates": [ [ [ 17.384679506876452, 45.825257916372038 ], [ 17.388160926347339, 45.826554144068865 ], [ 17.389405784317056, 45.825501049382481 ], [ 17.387956521034191, 45.815450461025314 ], [ 17.378320890151496, 45.815345246499923 ], [ 17.37586357104804, 45.820134186506898 ], [ 17.384679506876452, 45.825257916372038 ] ] ] } },
{ "type": "Feature", "properties": { "BM": 4157, "longitude": 17.382886428070833, "latitude": 45.836023213968716, "population": 389 }, "geometry": { "type": "Polygon", "coordinates": [ [ [ 17.38184026074622, 45.840086921743037 ], [ 17.384916186952111, 45.834185498190649 ], [ 17.382025532554032, 45.833567481373692 ], [ 17.381721825281453, 45.840166739017768 ], [ 17.38184026074622, 45.840086921743037 ] ] ] } },
{ "type": "Feature", "properties": { "BM": 4105, "longitude": 17.273190989627409, "latitude": 45.829966371350878, "population": 430 }, "geometry": { "type": "Polygon", "coordinates": [ [ [ 17.251548783609589, 45.849014355356665 ], [ 17.256476986118074, 45.851215688508724 ], [ 17.301512226440117, 45.856424551049997 ], [ 17.318303579457456, 45.855000833773069 ], [ 17.317563847540075, 45.84540419492307 ], [ 17.271485504133757, 45.800891147482844 ], [ 17.233272193341396, 45.800481429668373 ], [ 17.233099905663696, 45.800547508524566 ], [ 17.251548783609589, 45.849014355356665 ] ] ] } },
{ "type": "Feature", "properties": { "BM": 4108, "longitude": 17.282331875843884, "latitude": 45.857659677190853, "population": 471 }, "geometry": { "type": "Polygon", "coordinates": [ [ [ 17.282058783822166, 45.863911384613921 ], [ 17.301609685353274, 45.860488309271638 ], [ 17.301512226440117, 45.856424551049997 ], [ 17.256476986118074, 45.851215688508724 ], [ 17.282058783822166, 45.863911384613921 ] ] ] } },
{ "type": "Feature", "properties": { "BM": 4114, "longitude": 17.310558902277592, "latitude": 45.858040078794225, "population": 576 }, "geometry": { "type": "Polygon", "coordinates": [ [ [ 17.318303579457456, 45.855000833773069 ], [ 17.301512226440117, 45.856424551049997 ], [ 17.301609685353274, 45.860488309271638 ], [ 17.319293050750868, 45.86025181821099 ], [ 17.318303579457456, 45.855000833773069 ] ] ] } },
{ "type": "Feature", "properties": { "BM": 4115, "longitude": 17.340705489892034, "latitude": 45.864838746706099, "population": 645 }, "geometry": { "type": "Polygon", "coordinates": [ [ [ 17.319293050750868, 45.86025181821099 ], [ 17.327719071723994, 45.886009195316895 ], [ 17.342598164758069, 45.895930305311182 ], [ 17.352271272664801, 45.891844733515498 ], [ 17.364777905236362, 45.872975574179115 ], [ 17.348959254776137, 45.834390269985072 ], [ 17.327729658880219, 45.841609974839749 ], [ 17.317563847540075, 45.84540419492307 ], [ 17.318303579457456, 45.855000833773069 ], [ 17.319293050750868, 45.86025181821099 ] ] ] } },
{ "type": "Feature", "properties": { "BM": 4112, "longitude": 17.312501660269373, "latitude": 45.902059840544958, "population": 161 }, "geometry": { "type": "Polygon", "coordinates": [ [ [ 17.271486597590464, 45.903847097377117 ], [ 17.314944142070058, 45.919860935241239 ], [ 17.33690035040506, 45.910809237062701 ], [ 17.342598164758069, 45.895930305311182 ], [ 17.327719071723994, 45.886009195316895 ], [ 17.314734689698888, 45.885120932983483 ], [ 17.271486597590464, 45.903847097377117 ] ] ] } },
{ "type": "Feature", "properties": { "BM": 4118, "longitude": 17.306956323919415, "latitude": 45.813063536646901, "population": 479 }, "geometry": { "type": "Polygon", "coordinates": [ [ [ 17.317563847540075, 45.84540419492307 ], [ 17.327729658880219, 45.841609974839749 ], [ 17.322536604494886, 45.78617468455429 ], [ 17.271485504133757, 45.800891147482844 ], [ 17.317563847540075, 45.84540419492307 ] ] ] } },
{ "type": "Feature", "properties": { "BM": 4116, "longitude": 17.309024043550291, "latitude": 45.87126993371416, "population": 460 }, "geometry": { "type": "Polygon", "coordinates": [ [ [ 17.282058783822166, 45.863911384613921 ], [ 17.314734689698888, 45.885120932983483 ], [ 17.327719071723994, 45.886009195316895 ], [ 17.319293050750868, 45.86025181821099 ], [ 17.301609685353274, 45.860488309271638 ], [ 17.282058783822166, 45.863911384613921 ] ] ] } },
{ "type": "Feature", "properties": { "BM": 4123, "longitude": 17.373438196907113, "latitude": 45.931246444859731, "population": 193 }, "geometry": { "type": "Polygon", "coordinates": [ [ [ 17.34280197154278, 45.946591115263409 ], [ 17.414114451243616, 45.966091838932634 ], [ 17.414596636469646, 45.945282424609431 ], [ 17.409460218445915, 45.931022986768902 ], [ 17.352271272664801, 45.891844733515498 ], [ 17.342598164758069, 45.895930305311182 ], [ 17.33690035040506, 45.910809237062701 ], [ 17.34280197154278, 45.946591115263409 ] ] ] } },
{ "type": "Feature", "properties": { "BM": 4578, "longitude": 17.899302183880138, "latitude": 45.556465845860771, "population": 456 }, "geometry": { "type": "Polygon", "coordinates": [ [ [ 17.872993051918122, 45.565406730393747 ], [ 17.891048923162693, 45.575497739767769 ], [ 17.902386664769423, 45.581674626322375 ], [ 17.919034308186674, 45.557155142593444 ], [ 17.919987172009009, 45.54277165612595 ], [ 17.902528123775088, 45.530364075439664 ], [ 17.882420793335584, 45.551397957979198 ], [ 17.872993051918122, 45.565406730393747 ] ] ] } },
{ "type": "Feature", "properties": { "BM": 4579, "longitude": 17.891160430015521, "latitude": 45.587834804656126, "population": 428 }, "geometry": { "type": "Polygon", "coordinates": [ [ [ 17.87336507596514, 45.6002323202379 ], [ 17.906378060673529, 45.589493967320045 ], [ 17.902386664769423, 45.581674626322375 ], [ 17.891048923162693, 45.575497739767769 ], [ 17.87336507596514, 45.6002323202379 ] ] ] } },
{ "type": "Feature", "properties": { "BM": 4577, "longitude": 17.885691214414166, "latitude": 45.604989309734464, "population": 120 }, "geometry": { "type": "Polygon", "coordinates": [ [ [ 17.868899108841365, 45.604178422826443 ], [ 17.869181825437312, 45.619085513544519 ], [ 17.889870665642515, 45.615551661894003 ], [ 17.907765744239107, 45.5921771533258 ], [ 17.906378060673529, 45.589493967320045 ], [ 17.87336507596514, 45.6002323202379 ], [ 17.868899108841365, 45.604178422826443 ] ] ] } },
{ "type": "Feature", "properties": { "BM": 4580, "longitude": 17.885770677039492, "latitude": 45.517129325328952, "population": 367 }, "geometry": { "type": "Polygon", "coordinates": [ [ [ 17.881500809763281, 45.53205023566575 ], [ 17.897215063746195, 45.504780023853378 ], [ 17.896798231387777, 45.501181316098567 ], [ 17.87583463113975, 45.520212646281443 ], [ 17.880768182218496, 45.531482328566703 ], [ 17.881500809763281, 45.53205023566575 ] ] ] } },
{ "type": "Feature", "properties": { "BM": 4584, "longitude": 17.891639871164063, "latitude": 45.529040992057219, "population": 500 }, "geometry": { "type": "Polygon", "coordinates": [ [ [ 17.882420793335584, 45.551397957979198 ], [ 17.902528123775088, 45.530364075439664 ], [ 17.897215063746195, 45.504780023853378 ], [ 17.881500809763281, 45.53205023566575 ], [ 17.882420793335584, 45.551397957979198 ] ] ] } },
{ "type": "Feature", "properties": { "BM": 4585, "longitude": 17.874955988169589, "latitude": 45.525951631321568, "population": 727 }, "geometry": { "type": "Polygon", "coordinates": [ [ [ 17.868265151150521, 45.526159919116573 ], [ 17.880768182218496, 45.531482328566703 ], [ 17.87583463113975, 45.520212646281443 ], [ 17.868265151150521, 45.526159919116573 ] ] ] } },
{ "type": "Feature", "properties": { "BM": 4591, "longitude": 17.911171400177412, "latitude": 45.514064432605572, "population": 130 }, "geometry": { "type": "Polygon", "coordinates": [ [ [ 17.897215063746195, 45.504780023853378 ], [ 17.902528123775088, 45.530364075439664 ], [ 17.919987172009009, 45.54277165612595 ], [ 17.928631731505781, 45.536879780171311 ], [ 17.928651023702439, 45.536620195044996 ], [ 17.916460948612499, 45.494186826379838 ], [ 17.900459060327751, 45.481195043867466 ], [ 17.896798231387777, 45.501181316098567 ], [ 17.897215063746195, 45.504780023853378 ] ] ] } },
{ "type": "Feature", "properties": { "BM": 4589, "longitude": 17.924648752453159, "latitude": 45.68576508856664, "population": 474 }, "geometry": { "type": "Polygon", "coordinates": [ [ [ 17.903080243328795, 45.713620019068671 ], [ 17.909986545721392, 45.716089030131904 ], [ 17.962504604563399, 45.677053497584666 ], [ 17.953932847637315, 45.669615847839232 ], [ 17.917719559031738, 45.662130363212178 ], [ 17.911283623500225, 45.664975201755624 ], [ 17.898095601215051, 45.694610472164669 ], [ 17.903080243328795, 45.713620019068671 ] ] ] } },
{ "type": "Feature", "properties": { "BM": 4598, "longitude": 17.924628652503976, "latitude": 45.575163244719604, "population": 133 }, "geometry": { "type": "Polygon", "coordinates": [ [ [ 17.907765744239107, 45.5921771533258 ], [ 17.914721258627246, 45.595195373018392 ], [ 17.930451367884515, 45.589048081567931 ], [ 17.944665698631422, 45.573217030099855 ], [ 17.949277749396291, 45.56697805988437 ], [ 17.948946551605637, 45.562112252069291 ], [ 17.919034308186674, 45.557155142593444 ], [ 17.902386664769423, 45.581674626322375 ], [ 17.906378060673529, 45.589493967320045 ], [ 17.907765744239107, 45.5921771533258 ] ] ] } },
{ "type": "Feature", "properties": { "BM": 4603, "longitude": 17.938380947701777, "latitude": 45.548911293342108, "population": 221 }, "geometry": { "type": "Polygon", "coordinates": [ [ [ 17.919034308186674, 45.557155142593444 ], [ 17.948946551605637, 45.562112252069291 ], [ 17.960615609815513, 45.54267449067784 ], [ 17.959243643706788, 45.54067397847971 ], [ 17.928631731505781, 45.536879780171311 ], [ 17.919987172009009, 45.54277165612595 ], [ 17.919034308186674, 45.557155142593444 ] ] ] } },
{ "type": "Feature", "properties": { "BM": 4605, "longitude": 17.950974811398151, "latitude": 45.703874443063206, "population": 88 }, "geometry": { "type": "Polygon", "coordinates": [ [ [ 17.938205534491935, 45.728149038425769 ], [ 17.990317288357101, 45.697696938081073 ], [ 17.962504604563399, 45.677053497584666 ], [ 17.909986545721392, 45.716089030131904 ], [ 17.938205534491935, 45.728149038425769 ] ] ] } },
{ "type": "Feature", "properties": { "BM": 4545, "longitude": 17.835329206156224, "latitude": 45.74564034943176, "population": 78 }, "geometry": { "type": "Polygon", "coordinates": [ [ [ 17.828487738113505, 45.764204343929464 ], [ 17.84782111715219, 45.772269375576556 ], [ 17.843322292513033, 45.726975752650795 ], [ 17.821473493050565, 45.721039160576559 ], [ 17.828487738113505, 45.764204343929464 ] ] ] } },
{ "type": "Feature", "properties": { "BM": 4555, "longitude": 17.876227397372539, "latitude": 45.710454114841653, "population": 182 }, "geometry": { "type": "Polygon", "coordinates": [ [ [ 17.849023535517997, 45.725077265100971 ], [ 17.888386546425753, 45.733755983843295 ], [ 17.903080243328795, 45.713620019068671 ], [ 17.898095601215051, 45.694610472164669 ], [ 17.859825356550292, 45.686305237692359 ], [ 17.849023535517997, 45.725077265100971 ] ] ] } },
{ "type": "Feature", "properties": { "BM": 4566, "longitude": 17.883464919539318, "latitude": 45.670905327821622, "population": 34 }, "geometry": { "type": "Polygon", "coordinates": [ [ [ 17.859825356550292, 45.686305237692359 ], [ 17.898095601215051, 45.694610472164669 ], [ 17.911283623500225, 45.664975201755624 ], [ 17.901965756010039, 45.655926011463578 ], [ 17.864117943008665, 45.646294345159006 ], [ 17.859695829391821, 45.686219853428888 ], [ 17.859825356550292, 45.686305237692359 ] ] ] } },
{ "type": "Feature", "properties": { "BM": 4567, "longitude": 17.877740504534071, "latitude": 45.634925862572452, "population": 46 }, "geometry": { "type": "Polygon", "coordinates": [ [ [ 17.848704141948211, 45.629424339456563 ], [ 17.864117943008665, 45.646294345159006 ], [ 17.901965756010039, 45.655926011463578 ], [ 17.889870665642515, 45.615551661894003 ], [ 17.869181825437312, 45.619085513544519 ], [ 17.848761490740774, 45.628841106831437 ], [ 17.848704141948211, 45.629424339456563 ] ] ] } },
{ "type": "Feature", "properties": { "BM": 4570, "longitude": 17.910489175381553, "latitude": 45.627755455030858, "population": 116 }, "geometry": { "type": "Polygon", "coordinates": [ [ [ 17.901965756010039, 45.655926011463578 ], [ 17.911283623500225, 45.664975201755624 ], [ 17.917719559031738, 45.662130363212178 ], [ 17.929547248448248, 45.632004161818045 ], [ 17.924320367782524, 45.609318958197399 ], [ 17.914721258627246, 45.595195373018392 ], [ 17.907765744239107, 45.5921771533258 ], [ 17.889870665642515, 45.615551661894003 ], [ 17.901965756010039, 45.655926011463578 ] ] ] } },
{ "type": "Feature", "properties": { "BM": 4575, "longitude": 17.875273011461431, "latitude": 45.581150644233553, "population": 456 }, "geometry": { "type": "Polygon", "coordinates": [ [ [ 17.865309953779917, 45.564892380537664 ], [ 17.868899108841365, 45.604178422826443 ], [ 17.87336507596514, 45.6002323202379 ], [ 17.891048923162693, 45.575497739767769 ], [ 17.872993051918122, 45.565406730393747 ], [ 17.865309953779917, 45.564892380537664 ] ] ] } },
{ "type": "Feature", "properties": { "BM": 4573, "longitude": 17.863130856368677, "latitude": 45.546879608506302, "population": 192 }, "geometry": { "type": "Polygon", "coordinates": [ [ [ 17.865309953779917, 45.564892380537664 ], [ 17.872993051918122, 45.565406730393747 ], [ 17.882420793335584, 45.551397957979198 ], [ 17.881500809763281, 45.53205023566575 ], [ 17.880768182218496, 45.531482328566703 ], [ 17.868265151150521, 45.526159919116573 ], [ 17.836641098941193, 45.545574604573694 ], [ 17.848626180033623, 45.561346869829009 ], [ 17.865309953779917, 45.564892380537664 ] ] ] } },
{ "type": "Feature", "properties": { "BM": 4514, "longitude": 17.8028579042624, "latitude": 45.666410269196902, "population": 110 }, "geometry": { "type": "Polygon", "coordinates": [ [ [ 17.788486401057622, 45.675119372499438 ], [ 17.801143930634261, 45.683734205619672 ], [ 17.81736746559865, 45.670065917653766 ], [ 17.811078016577515, 45.648983985372155 ], [ 17.809125868008323, 45.648618621859754 ], [ 17.792031495171678, 45.658106201769719 ], [ 17.788486401057622, 45.675119372499438 ] ] ] } },
{ "type": "Feature", "properties": { "BM": 4512, "longitude": 17.796316660863269, "latitude": 45.747106167471891, "population": 83 }, "geometry": { "type": "Polygon", "coordinates": [ [ [ 17.781148946658664, 45.766126895759228 ], [ 17.79738764882649, 45.771479700406267 ], [ 17.808471398849999, 45.765032556115997 ], [ 17.806460092097822, 45.720445038227126 ], [ 17.789539382845078, 45.722917237210716 ], [ 17.781148946658664, 45.766126895759228 ] ] ] } },
{ "type": "Feature", "properties": { "BM": 4520, "longitude": 17.838349255290137, "latitude": 45.705525868374046, "population": 90 }, "geometry": { "type": "Polygon", "coordinates": [ [ [ 17.821473493050565, 45.721039160576559 ], [ 17.843322292513033, 45.726975752650795 ], [ 17.849023535517997, 45.725077265100971 ], [ 17.859825356550292, 45.686305237692359 ], [ 17.859695829391821, 45.686219853428888 ], [ 17.840648969459732, 45.683099137498708 ], [ 17.840201035228951, 45.683313242173618 ], [ 17.816735802785242, 45.705751082892128 ], [ 17.814559584237816, 45.716308864309539 ], [ 17.821473493050565, 45.721039160576559 ] ] ] } },
{ "type": "Feature", "properties": { "BM": 4521, "longitude": 17.816198981389856, "latitude": 45.742733779142547, "population": 59 }, "geometry": { "type": "Polygon", "coordinates": [ [ [ 17.814559584237816, 45.716308864309539 ], [ 17.806460092097822, 45.720445038227126 ], [ 17.808471398849999, 45.765032556115997 ], [ 17.828487738113505, 45.764204343929464 ], [ 17.821473493050565, 45.721039160576559 ], [ 17.814559584237816, 45.716308864309539 ] ] ] } },
{ "type": "Feature", "properties": { "BM": 4528, "longitude": 17.825381485424636, "latitude": 45.629192028094273, "population": 274 }, "geometry": { "type": "Polygon", "coordinates": [ [ [ 17.802202395808379, 45.627888195610083 ], [ 17.809125868008323, 45.648618621859754 ], [ 17.811078016577515, 45.648983985372155 ], [ 17.835186168564213, 45.64409857418169 ], [ 17.848704141948211, 45.629424339456563 ], [ 17.848761490740774, 45.628841106831437 ], [ 17.83381926448574, 45.604467622138877 ], [ 17.802202395808379, 45.627888195610083 ] ] ] } },
{ "type": "Feature", "properties": { "BM": 4529, "longitude": 17.81943988709542, "latitude": 45.686434175879647, "population": 42 }, "geometry": { "type": "Polygon", "coordinates": [ [ [ 17.816735802785242, 45.705751082892128 ], [ 17.840201035228951, 45.683313242173618 ], [ 17.81736746559865, 45.670065917653766 ], [ 17.801143930634261, 45.683734205619672 ], [ 17.816735802785242, 45.705751082892128 ] ] ] } },
{ "type": "Feature", "properties": { "BM": 4534, "longitude": 17.848950854867191, "latitude": 45.503814255125256, "population": 135 }, "geometry": { "type": "Polygon", "coordinates": [ [ [ 17.794143340949464, 45.510309572045173 ], [ 17.836641098941193, 45.545574604573694 ], [ 17.868265151150521, 45.526159919116573 ], [ 17.87583463113975, 45.520212646281443 ], [ 17.896798231387777, 45.501181316098567 ], [ 17.900459060327751, 45.481195043867466 ], [ 17.898363642474337, 45.474398646555791 ], [ 17.88405049748156, 45.471882388729121 ], [ 17.835496579632991, 45.478086497774648 ], [ 17.823097620680485, 45.481534991979274 ], [ 17.807448337469982, 45.491694148292481 ], [ 17.794143340949464, 45.510309572045173 ] ] ] } },
{ "type": "Feature", "properties": { "BM": 4533, "longitude": 17.853435635013902, "latitude": 45.595740363679212, "population": 684 }, "geometry": { "type": "Polygon", "coordinates": [ [ [ 17.83381926448574, 45.604467622138877 ], [ 17.848761490740774, 45.628841106831437 ], [ 17.869181825437312, 45.619085513544519 ], [ 17.868899108841365, 45.604178422826443 ], [ 17.865309953779917, 45.564892380537664 ], [ 17.848626180033623, 45.561346869829009 ], [ 17.833500162069278, 45.603073771030758 ], [ 17.83381926448574, 45.604467622138877 ] ] ] } },
{ "type": "Feature", "properties": { "BM": 4539, "longitude": 17.827249132315213, "latitude": 45.661436337553575, "population": 206 }, "geometry": { "type": "Polygon", "coordinates": [ [ [ 17.81736746559865, 45.670065917653766 ], [ 17.840201035228951, 45.683313242173618 ], [ 17.840648969459732, 45.683099137498708 ], [ 17.835186168564213, 45.64409857418169 ], [ 17.811078016577515, 45.648983985372155 ], [ 17.81736746559865, 45.670065917653766 ] ] ] } },
{ "type": "Feature", "properties": { "BM": 4542, "longitude": 17.849868813049472, "latitude": 45.659000870125872, "population": 82 }, "geometry": { "type": "Polygon", "coordinates": [ [ [ 17.835186168564213, 45.64409857418169 ], [ 17.840648969459732, 45.683099137498708 ], [ 17.859695829391821, 45.686219853428888 ], [ 17.864117943008665, 45.646294345159006 ], [ 17.848704141948211, 45.629424339456563 ], [ 17.835186168564213, 45.64409857418169 ] ] ] } },
{ "type": "Feature", "properties": { "BM": 4541, "longitude": 17.865779508942556, "latitude": 45.756531353236063, "population": 516 }, "geometry": { "type": "Polygon", "coordinates": [ [ [ 17.877689250454697, 45.8002900332704 ], [ 17.888386546425753, 45.733755983843295 ], [ 17.849023535517997, 45.725077265100971 ], [ 17.843322292513033, 45.726975752650795 ], [ 17.84782111715219, 45.772269375576556 ], [ 17.877689250454697, 45.8002900332704 ] ] ] } },
{ "type": "Feature", "properties": { "BM": 4482, "longitude": 17.774109839030213, "latitude": 45.740198273240878, "population": 202 }, "geometry": { "type": "Polygon", "coordinates": [ [ [ 17.772596174821672, 45.768334724698455 ], [ 17.781148946658664, 45.766126895759228 ], [ 17.789539382845078, 45.722917237210716 ], [ 17.766961161548764, 45.713661072470742 ], [ 17.761018738595553, 45.73539855342063 ], [ 17.760740216810998, 45.751972715339505 ], [ 17.772596174821672, 45.768334724698455 ] ] ] } },
{ "type": "Feature", "properties": { "BM": 4480, "longitude": 17.825406420732573, "latitude": 45.93513840148627, "population": 57 }, "geometry": { "type": "Polygon", "coordinates": [ [ [ 17.8929960506421, 46.1385406042399 ], [ 17.79738764882649, 45.771479700406267 ], [ 17.781148946658664, 45.766126895759228 ], [ 17.772596174821672, 45.768334724698455 ], [ 17.760941287118051, 45.781628188975873 ], [ 17.767971220905554, 45.806176778662106 ], [ 17.894421748959751, 46.188844677405669 ], [ 17.8929960506421, 46.1385406042399 ] ] ] } },
{ "type": "Feature", "properties": { "BM": 4484, "longitude": 17.750929017415931, "latitude": 45.744919456199064, "population": 105 }, "geometry": { "type": "Polygon", "coordinates": [ [ [ 17.737499551682419, 45.743116672309931 ], [ 17.738523096884428, 45.750243130097878 ], [ 17.760740216810998, 45.751972715339505 ], [ 17.761018738595553, 45.73539855342063 ], [ 17.737499551682419, 45.743116672309931 ] ] ] } },
{ "type": "Feature", "properties": { "BM": 4485, "longitude": 17.788792691621808, "latitude": 45.701371085924329, "population": 19 }, "geometry": { "type": "Polygon", "coordinates": [ [ [ 17.766961161548764, 45.713661072470742 ], [ 17.789539382845078, 45.722917237210716 ], [ 17.806460092097822, 45.720445038227126 ], [ 17.814559584237816, 45.716308864309539 ], [ 17.816735802785242, 45.705751082892128 ], [ 17.801143930634261, 45.683734205619672 ], [ 17.788486401057622, 45.675119372499438 ], [ 17.782766175894913, 45.678295029389176 ], [ 17.765958736690695, 45.688671050787221 ], [ 17.761168675984131, 45.707422635241983 ], [ 17.766961161548764, 45.713661072470742 ] ] ] } },
{ "type": "Feature", "properties": { "BM": 4489, "longitude": 17.759949702614154, "latitude": 45.663410937578114, "population": 309 }, "geometry": { "type": "Polygon", "coordinates": [ [ [ 17.73642410748198, 45.645547529515021 ], [ 17.765958736690695, 45.688671050787221 ], [ 17.782766175894913, 45.678295029389176 ], [ 17.754296013253544, 45.639641036358306 ], [ 17.73642410748198, 45.645547529515021 ] ] ] } },
{ "type": "Feature", "properties": { "BM": 4498, "longitude": 17.804229473924156, "latitude": 45.559369656945805, "population": 111 }, "geometry": { "type": "Polygon", "coordinates": [ [ [ 17.780217125952575, 45.591558915803375 ], [ 17.833500162069278, 45.603073771030758 ], [ 17.848626180033623, 45.561346869829009 ], [ 17.836641098941193, 45.545574604573694 ], [ 17.794143340949464, 45.510309572045173 ], [ 17.776379336695278, 45.516192673139685 ], [ 17.763594512288083, 45.558493998300769 ], [ 17.780217125952575, 45.591558915803375 ] ] ] } },
{ "type": "Feature", "properties": { "BM": 4497, "longitude": 17.787731792539688, "latitude": 45.636798654378374, "population": 126 }, "geometry": { "type": "Polygon", "coordinates": [ [ [ 17.764422069906889, 45.635926245071644 ], [ 17.792031495171678, 45.658106201769719 ], [ 17.809125868008323, 45.648618621859754 ], [ 17.802202395808379, 45.627888195610083 ], [ 17.779222355818359, 45.614377072309296 ], [ 17.764422069906889, 45.635926245071644 ] ] ] } },
{ "type": "Feature", "properties": { "BM": 4502, "longitude": 17.775607094760616, "latitude": 45.656004460178387, "population": 294 }, "geometry": { "type": "Polygon", "coordinates": [ [ [ 17.754296013253544, 45.639641036358306 ], [ 17.782766175894913, 45.678295029389176 ], [ 17.788486401057622, 45.675119372499438 ], [ 17.792031495171678, 45.658106201769719 ], [ 17.764422069906889, 45.635926245071644 ], [ 17.754296013253544, 45.639641036358306 ] ] ] } },
{ "type": "Feature", "properties": { "BM": 4511, "longitude": 17.801429089932046, "latitude": 45.608496474524507, "population": 676 }, "geometry": { "type": "Polygon", "coordinates": [ [ [ 17.802202395808379, 45.627888195610083 ], [ 17.83381926448574, 45.604467622138877 ], [ 17.833500162069278, 45.603073771030758 ], [ 17.780217125952575, 45.591558915803375 ], [ 17.779222355818359, 45.614377072309296 ], [ 17.802202395808379, 45.627888195610083 ] ] ] } },
{ "type": "Feature", "properties": { "BM": 4508, "longitude": 17.860721968382144, "latitude": 45.902090120103367, "population": 166 }, "geometry": { "type": "Polygon", "coordinates": [ [ [ 17.8929960506421, 46.1385406042399 ], [ 17.898404579148053, 45.867897990094583 ], [ 17.877689250454697, 45.8002900332704 ], [ 17.84782111715219, 45.772269375576556 ], [ 17.828487738113505, 45.764204343929464 ], [ 17.808471398849999, 45.765032556115997 ], [ 17.79738764882649, 45.771479700406267 ], [ 17.8929960506421, 46.1385406042399 ] ] ] } },
{ "type": "Feature", "properties": { "BM": 4448, "longitude": 17.736944442693947, "latitude": 45.678537270751214, "population": 371 }, "geometry": { "type": "Polygon", "coordinates": [ [ [ 17.706506134358161, 45.660650306243831 ], [ 17.733821110087227, 45.711315270924082 ], [ 17.761168675984131, 45.707422635241983 ], [ 17.765958736690695, 45.688671050787221 ], [ 17.73642410748198, 45.645547529515021 ], [ 17.725338818937175, 45.643560912594843 ], [ 17.706162100738215, 45.659856744918073 ], [ 17.706506134358161, 45.660650306243831 ] ] ] } },
{ "type": "Feature", "properties": { "BM": 4449, "longitude": 17.702297381777605, "latitude": 45.701149084453384, "population": 778 }, "geometry": { "type": "Polygon", "coordinates": [ [ [ 17.699666939855064, 45.702477568778271 ], [ 17.702038884872199, 45.703560211471462 ], [ 17.704012496696901, 45.701524572530815 ], [ 17.703700418785239, 45.697735336724733 ], [ 17.699666939855064, 45.702477568778271 ] ] ] } },
{ "type": "Feature", "properties": { "BM": 4463, "longitude": 17.745575215663397, "latitude": 45.791124508214175, "population": 407 }, "geometry": { "type": "Polygon", "coordinates": [ [ [ 17.745643394519064, 45.802789577388687 ], [ 17.767971220905554, 45.806176778662106 ], [ 17.760941287118051, 45.781628188975873 ], [ 17.723042092490605, 45.779385111898023 ], [ 17.718871582676911, 45.787572496405744 ], [ 17.745643394519064, 45.802789577388687 ] ] ] } },
{ "type": "Feature", "properties": { "BM": 4469, "longitude": 17.74922746570363, "latitude": 45.605139779922304, "population": 221 }, "geometry": { "type": "Polygon", "coordinates": [ [ [ 17.725338818937175, 45.643560912594843 ], [ 17.73642410748198, 45.645547529515021 ], [ 17.754296013253544, 45.639641036358306 ], [ 17.764422069906889, 45.635926245071644 ], [ 17.779222355818359, 45.614377072309296 ], [ 17.780217125952575, 45.591558915803375 ], [ 17.763594512288083, 45.558493998300769 ], [ 17.71667406199067, 45.591917295108658 ], [ 17.725338818937175, 45.643560912594843 ] ] ] } },
{ "type": "Feature", "properties": { "BM": 4474, "longitude": 17.748133186653988, "latitude": 45.767150830866036, "population": 188 }, "geometry": { "type": "Polygon", "coordinates": [ [ [ 17.723042092490605, 45.779385111898023 ], [ 17.760941287118051, 45.781628188975873 ], [ 17.772596174821672, 45.768334724698455 ], [ 17.760740216810998, 45.751972715339505 ], [ 17.738523096884428, 45.750243130097878 ], [ 17.722525452353935, 45.777315447648938 ], [ 17.723042092490605, 45.779385111898023 ] ] ] } },
{ "type": "Feature", "properties": { "BM": 4475, "longitude": 17.74740710448453, "latitude": 45.723663482167758, "population": 153 }, "geometry": { "type": "Polygon", "coordinates": [ [ [ 17.72716569386106, 45.71914989768127 ], [ 17.737499551682419, 45.743116672309931 ], [ 17.761018738595553, 45.73539855342063 ], [ 17.766961161548764, 45.713661072470742 ], [ 17.761168675984131, 45.707422635241983 ], [ 17.733821110087227, 45.711315270924082 ], [ 17.72716569386106, 45.71914989768127 ] ] ] } },
{ "type": "Feature", "properties": { "BM": 4434, "longitude": 17.721865189003001, "latitude": 45.746899819805257, "population": 96 }, "geometry": { "type": "Polygon", "coordinates": [ [ [ 17.706745599587784, 45.758088376215653 ], [ 17.722525452353935, 45.777315447648938 ], [ 17.738523096884428, 45.750243130097878 ], [ 17.737499551682419, 45.743116672309931 ], [ 17.72716569386106, 45.71914989768127 ], [ 17.722097175068377, 45.721253201000891 ], [ 17.711618537297674, 45.726719923023268 ], [ 17.707191275025426, 45.746219915149474 ], [ 17.706745599587784, 45.758088376215653 ] ] ] } },
{ "type": "Feature", "properties": { "BM": 4433, "longitude": 17.684729190400535, "latitude": 45.701321190909105, "population": 798 }, "geometry": { "type": "Polygon", "coordinates": [ [ [ 17.669765671018915, 45.696912504729539 ], [ 17.68077457156819, 45.717674009100179 ], [ 17.688983607720552, 45.719257342011808 ], [ 17.699426258490874, 45.702497827534941 ], [ 17.685047749830403, 45.68131138957439 ], [ 17.669765671018915, 45.696912504729539 ] ] ] } },
{ "type": "Feature", "properties": { "BM": 4437, "longitude": 17.716099255516301, "latitude": 45.696377388394737, "population": 648 }, "geometry": { "type": "Polygon", "coordinates": [ [ [ 17.72716569386106, 45.71914989768127 ], [ 17.733821110087227, 45.711315270924082 ], [ 17.706506134358161, 45.660650306243831 ], [ 17.703700418785239, 45.697735336724733 ], [ 17.704012496696901, 45.701524572530815 ], [ 17.722097175068377, 45.721253201000891 ], [ 17.72716569386106, 45.71914989768127 ] ] ] } },
{ "type": "Feature", "properties": { "BM": 4440, "longitude": 17.698046522926035, "latitude": 45.681270717522835, "population": 613 }, "geometry": { "type": "Polygon", "coordinates": [ [ [ 17.685047749830403, 45.68131138957439 ], [ 17.699426258490874, 45.702497827534941 ], [ 17.699666939855064, 45.702477568778271 ], [ 17.703700418785239, 45.697735336724733 ], [ 17.706506134358161, 45.660650306243831 ], [ 17.706162100738215, 45.659856744918073 ], [ 17.703576083280264, 45.660236020770377 ], [ 17.685047749830403, 45.68131138957439 ] ] ] } },
{ "type": "Feature", "properties": { "BM": 4446, "longitude": 17.696868622025296, "latitude": 45.713594061333239, "population": 560 }, "geometry": { "type": "Polygon", "coordinates": [ [ [ 17.688983607720552, 45.719257342011808 ], [ 17.699609626815601, 45.722160055634198 ], [ 17.702038884872199, 45.703560211471462 ], [ 17.699666939855064, 45.702477568778271 ], [ 17.699426258490874, 45.702497827534941 ], [ 17.688983607720552, 45.719257342011808 ] ] ] } },
{ "type": "Feature", "properties": { "BM": 4447, "longitude": 17.708697363901265, "latitude": 45.716243741951146, "population": 607 }, "geometry": { "type": "Polygon", "coordinates": [ [ [ 17.711618537297674, 45.726719923023268 ], [ 17.722097175068377, 45.721253201000891 ], [ 17.704012496696901, 45.701524572530815 ], [ 17.702038884872199, 45.703560211471462 ], [ 17.699609626815601, 45.722160055634198 ], [ 17.711618537297674, 45.726719923023268 ] ] ] } },
{ "type": "Feature", "properties": { "BM": 4389, "longitude": 17.67002061572547, "latitude": 45.66717307895933, "population": 30 }, "geometry": { "type": "Polygon", "coordinates": [ [ [ 17.653182996678822, 45.690854831929258 ], [ 17.6587697467459, 45.695884569327845 ], [ 17.669765671018915, 45.696912504729539 ], [ 17.685047749830403, 45.68131138957439 ], [ 17.703576083280264, 45.660236020770377 ], [ 17.655321062490508, 45.634675021187782 ], [ 17.647400211325841, 45.677361706337621 ], [ 17.653182996678822, 45.690854831929258 ] ] ] } },
{ "type": "Feature", "properties": { "BM": 4399, "longitude": 17.687754592352654, "latitude": 45.749390517595494, "population": 416 }, "geometry": { "type": "Polygon", "coordinates": [ [ [ 17.678824273968189, 45.760155883626993 ], [ 17.706745599587784, 45.758088376215653 ], [ 17.707191275025426, 45.746219915149474 ], [ 17.672101991195674, 45.736371966051266 ], [ 17.671635985072935, 45.737033915138724 ], [ 17.668303086857922, 45.742448470552816 ], [ 17.678824273968189, 45.760155883626993 ] ] ] } },
{ "type": "Feature", "properties": { "BM": 4404, "longitude": 17.69288642906772, "latitude": 45.731649977546475, "population": 614 }, "geometry": { "type": "Polygon", "coordinates": [ [ [ 17.672101991195674, 45.736371966051266 ], [ 17.707191275025426, 45.746219915149474 ], [ 17.711618537297674, 45.726719923023268 ], [ 17.699609626815601, 45.722160055634198 ], [ 17.688983607720552, 45.719257342011808 ], [ 17.68077457156819, 45.717674009100179 ], [ 17.672101991195674, 45.736371966051266 ] ] ] } },
{ "type": "Feature", "properties": { "BM": 4410, "longitude": 17.696253490566626, "latitude": 45.78149246598506, "population": 206 }, "geometry": { "type": "Polygon", "coordinates": [ [ [ 17.718871582676911, 45.787572496405744 ], [ 17.723042092490605, 45.779385111898023 ], [ 17.722525452353935, 45.777315447648938 ], [ 17.706745599587784, 45.758088376215653 ], [ 17.678824273968189, 45.760155883626993 ], [ 17.667841843885046, 45.787816727213752 ], [ 17.702321608283896, 45.808915807917572 ], [ 17.705988712150255, 45.811044305577525 ], [ 17.718871582676911, 45.787572496405744 ] ] ] } },
{ "type": "Feature", "properties": { "BM": 4411, "longitude": 17.724969531439783, "latitude": 45.837890980333086, "population": 111 }, "geometry": { "type": "Polygon", "coordinates": [ [ [ 17.705988712150255, 45.811044305577525 ], [ 17.724085599886383, 45.920460671734212 ], [ 17.745643394519064, 45.802789577388687 ], [ 17.718871582676911, 45.787572496405744 ], [ 17.705988712150255, 45.811044305577525 ] ] ] } },
{ "type": "Feature", "properties": { "BM": 4408, "longitude": 17.707604313074189, "latitude": 45.542208744891482, "population": 82 }, "geometry": { "type": "Polygon", "coordinates": [ [ [ 17.635487972606594, 45.567132518737225 ], [ 17.71667406199067, 45.591917295108658 ], [ 17.763594512288083, 45.558493998300769 ], [ 17.776379336695278, 45.516192673139685 ], [ 17.772607334612694, 45.514258638090915 ], [ 17.709867711657953, 45.494912161900189 ], [ 17.704585015304918, 45.495354512307799 ], [ 17.700204724769073, 45.496029419717857 ], [ 17.659805076879831, 45.51561662314311 ], [ 17.635487972606594, 45.567132518737225 ] ] ] } },
{ "type": "Feature", "properties": { "BM": 4355, "longitude": 17.657827672759378, "latitude": 45.803844200707971, "population": 211 }, "geometry": { "type": "Polygon", "coordinates": [ [ [ 17.638464484820339, 45.821085981713928 ], [ 17.702321608283896, 45.808915807917572 ], [ 17.667841843885046, 45.787816727213752 ], [ 17.627239306589455, 45.792328425457121 ], [ 17.627086330557507, 45.806779517030463 ], [ 17.638464484820339, 45.821085981713928 ] ] ] } },
{ "type": "Feature", "properties": { "BM": 4358, "longitude": 17.622263164551615, "latitude": 45.639251114337341, "population": 16 }, "geometry": { "type": "Polygon", "coordinates": [ [ [ 17.581834340037165, 45.660492962837822 ], [ 17.647400211325841, 45.677361706337621 ], [ 17.655321062490508, 45.634675021187782 ], [ 17.618015618436544, 45.586763384988963 ], [ 17.581834340037165, 45.660492962837822 ] ] ] } },
{ "type": "Feature", "properties": { "BM": 4359, "longitude": 17.626995654565036, "latitude": 45.703824399245036, "population": 77 }, "geometry": { "type": "Polygon", "coordinates": [ [ [ 17.637309268913786, 45.718762165455161 ], [ 17.64173824370231, 45.717734890353512 ], [ 17.645958779322999, 45.712896438666533 ], [ 17.6587697467459, 45.695884569327845 ], [ 17.653182996678822, 45.690854831929258 ], [ 17.586829705509718, 45.698860231927007 ], [ 17.603411369735518, 45.710929964111152 ], [ 17.637309268913786, 45.718762165455161 ] ] ] } },
{ "type": "Feature", "properties": { "BM": 4356, "longitude": 17.651176877048627, "latitude": 45.769502401573668, "population": 173 }, "geometry": { "type": "Polygon", "coordinates": [ [ [ 17.620725610909446, 45.783316250664342 ], [ 17.627239306589455, 45.792328425457121 ], [ 17.667841843885046, 45.787816727213752 ], [ 17.678824273968189, 45.760155883626993 ], [ 17.668303086857922, 45.742448470552816 ], [ 17.656067414667532, 45.743536482316749 ], [ 17.627676842027618, 45.764948857573458 ], [ 17.620725610909446, 45.783316250664342 ] ] ] } },
{ "type": "Feature", "properties": { "BM": 4357, "longitude": 17.639540502853734, "latitude": 45.741464081482995, "population": 66 }, "geometry": { "type": "Polygon", "coordinates": [ [ [ 17.627676842027618, 45.764948857573458 ], [ 17.656067414667532, 45.743536482316749 ], [ 17.64173824370231, 45.717734890353512 ], [ 17.637309268913786, 45.718762165455161 ], [ 17.625895611044736, 45.755469701134722 ], [ 17.627676842027618, 45.764948857573458 ] ] ] } },
{ "type": "Feature", "properties": { "BM": 4360, "longitude": 17.676480548249007, "latitude": 45.611040825420204, "population": 642 }, "geometry": { "type": "Polygon", "coordinates": [ [ [ 17.618015618436544, 45.586763384988963 ], [ 17.655321062490508, 45.634675021187782 ], [ 17.703576083280264, 45.660236020770377 ], [ 17.706162100738215, 45.659856744918073 ], [ 17.725338818937175, 45.643560912594843 ], [ 17.71667406199067, 45.591917295108658 ], [ 17.635487972606594, 45.567132518737225 ], [ 17.618118390634596, 45.57953868387925 ], [ 17.618015618436544, 45.586763384988963 ] ] ] } },
{ "type": "Feature", "properties": { "BM": 4366, "longitude": 17.664875283996494, "latitude": 45.714318948064296, "population": 615 }, "geometry": { "type": "Polygon", "coordinates": [ [ [ 17.645958779322999, 45.712896438666533 ], [ 17.671635985072935, 45.737033915138724 ], [ 17.672101991195674, 45.736371966051266 ], [ 17.68077457156819, 45.717674009100179 ], [ 17.669765671018915, 45.696912504729539 ], [ 17.6587697467459, 45.695884569327845 ], [ 17.645958779322999, 45.712896438666533 ] ] ] } },
{ "type": "Feature", "properties": { "BM": 4371, "longitude": 17.656215931848163, "latitude": 45.730479703857199, "population": 547 }, "geometry": { "type": "Polygon", "coordinates": [ [ [ 17.64173824370231, 45.717734890353512 ], [ 17.656067414667532, 45.743536482316749 ], [ 17.668303086857922, 45.742448470552816 ], [ 17.671635985072935, 45.737033915138724 ], [ 17.645958779322999, 45.712896438666533 ], [ 17.64173824370231, 45.717734890353512 ] ] ] } },
{ "type": "Feature", "properties": { "BM": 4069, "longitude": 17.250180177008271, "latitude": 45.935237675185896, "population": 350 }, "geometry": { "type": "Polygon", "coordinates": [ [ [ 17.242799510964399, 45.916943474927649 ], [ 17.240159986659421, 45.948307699542461 ], [ 17.244394766842742, 45.957877380610341 ], [ 17.256515217601798, 45.965533679054218 ], [ 17.259098679415022, 45.914639508405678 ], [ 17.254290867147116, 45.906624934491553 ], [ 17.245669018451384, 45.910861813924306 ], [ 17.242799510964399, 45.916943474927649 ] ] ] } },
{ "type": "Feature", "properties": { "BM": 4073, "longitude": 17.232806908120921, "latitude": 45.950468814529799, "population": 425 }, "geometry": { "type": "Polygon", "coordinates": [ [ [ 17.227793858490159, 45.95469349647805 ], [ 17.238535927459136, 45.948748890826941 ], [ 17.23209093841346, 45.947964056284412 ], [ 17.227793858490159, 45.95469349647805 ] ] ] } },
{ "type": "Feature", "properties": { "BM": 4080, "longitude": 17.275180095299778, "latitude": 45.957179081627196, "population": 348 }, "geometry": { "type": "Polygon", "coordinates": [ [ [ 17.298056265624183, 45.993583983657999 ], [ 17.290117677078275, 45.943992355295784 ], [ 17.259098679415022, 45.914639508405678 ], [ 17.256515217601798, 45.965533679054218 ], [ 17.263253523975557, 45.977604497793223 ], [ 17.298056265624183, 45.993583983657999 ] ] ] } },
{ "type": "Feature", "properties": { "BM": 4087, "longitude": 17.274399251311372, "latitude": 45.880452307602454, "population": 307 }, "geometry": { "type": "Polygon", "coordinates": [ [ [ 17.254648060953745, 45.905829017360652 ], [ 17.271486597590464, 45.903847097377117 ], [ 17.314734689698888, 45.885120932983483 ], [ 17.282058783822166, 45.863911384613921 ], [ 17.256476986118074, 45.851215688508724 ], [ 17.251548783609589, 45.849014355356665 ], [ 17.254648060953745, 45.905829017360652 ] ] ] } },
{ "type": "Feature", "properties": { "BM": 4090, "longitude": 17.428311258447753, "latitude": 46.143216964985299, "population": 93 }, "geometry": { "type": "Polygon", "coordinates": [ [ [ 17.419919945442476, 46.252174005515542 ], [ 17.575812439010306, 46.413053769428103 ], [ 17.561311621867642, 46.369145385483982 ], [ 17.414114451243616, 45.966091838932634 ], [ 17.34280197154278, 45.946591115263409 ], [ 17.304836945874126, 46.000517538775568 ], [ 17.419919945442476, 46.252174005515542 ] ] ] } },
{ "type": "Feature", "properties": { "BM": 4091, "longitude": 17.315578954401428, "latitude": 45.951998993414961, "population": 179 }, "geometry": { "type": "Polygon", "coordinates": [ [ [ 17.304836945874126, 46.000517538775568 ], [ 17.34280197154278, 45.946591115263409 ], [ 17.33690035040506, 45.910809237062701 ], [ 17.314944142070058, 45.919860935241239 ], [ 17.290117677078275, 45.943992355295784 ], [ 17.298056265624183, 45.993583983657999 ], [ 17.301691440276745, 45.997985429225544 ], [ 17.304836945874126, 46.000517538775568 ] ] ] } },
{ "type": "Feature", "properties": { "BM": 4089, "longitude": 17.284373978802453, "latitude": 45.921016406182652, "population": 481 }, "geometry": { "type": "Polygon", "coordinates": [ [ [ 17.254290867147116, 45.906624934491553 ], [ 17.259098679415022, 45.914639508405678 ], [ 17.290117677078275, 45.943992355295784 ], [ 17.314944142070058, 45.919860935241239 ], [ 17.271486597590464, 45.903847097377117 ], [ 17.254648060953745, 45.905829017360652 ], [ 17.254290867147116, 45.906624934491553 ] ] ] } },
{ "type": "Feature", "properties": { "BM": 4034, "longitude": 17.224689675739029, "latitude": 45.859415181923588, "population": 244 }, "geometry": { "type": "Polygon", "coordinates": [ [ [ 17.185519978923811, 45.834956679475958 ], [ 17.212520741782889, 45.905240897104918 ], [ 17.238253682011283, 45.910513356973667 ], [ 17.245669018451384, 45.910861813924306 ], [ 17.254290867147116, 45.906624934491553 ], [ 17.254648060953745, 45.905829017360652 ], [ 17.251548783609589, 45.849014355356665 ], [ 17.233099905663696, 45.800547508524566 ], [ 17.232558847228322, 45.800452963689139 ], [ 17.185519978923811, 45.834956679475958 ] ] ] } },
{ "type": "Feature", "properties": { "BM": 4032, "longitude": 17.241854026439913, "latitude": 45.971848041960158, "population": 517 }, "geometry": { "type": "Polygon", "coordinates": [ [ [ 17.226093077814248, 45.985162996476191 ], [ 17.263253523975557, 45.977604497793223 ], [ 17.256515217601798, 45.965533679054218 ], [ 17.244394766842742, 45.957877380610341 ], [ 17.230433057387206, 45.96064169206155 ], [ 17.223931717395544, 45.983697139478181 ], [ 17.226093077814248, 45.985162996476191 ] ] ] } },
{ "type": "Feature", "properties": { "BM": 4043, "longitude": 17.222248028713288, "latitude": 45.929489985394483, "population": 437 }, "geometry": { "type": "Polygon", "coordinates": [ [ [ 17.196386686838974, 45.940303232887572 ], [ 17.197003325916953, 45.94166778822153 ], [ 17.219236274995964, 45.944231723035969 ], [ 17.223500691196762, 45.940247631732269 ], [ 17.242799510964399, 45.916943474927649 ], [ 17.245669018451384, 45.910861813924306 ], [ 17.238253682011283, 45.910513356973667 ], [ 17.196386686838974, 45.940303232887572 ] ] ] } },
{ "type": "Feature", "properties": { "BM": 4046, "longitude": 17.208760425049014, "latitude": 45.951557731837397, "population": 422 }, "geometry": { "type": "Polygon", "coordinates": [ [ [ 17.195430004299205, 45.95247772334907 ], [ 17.21278242302569, 45.965201794542118 ], [ 17.222046727423432, 45.952109042679417 ], [ 17.219236274995964, 45.944231723035969 ], [ 17.197003325916953, 45.94166778822153 ], [ 17.195430004299205, 45.95247772334907 ] ] ] } },
{ "type": "Feature", "properties": { "BM": 4047, "longitude": 17.221879099996819, "latitude": 45.967299307635514, "population": 505 }, "geometry": { "type": "Polygon", "coordinates": [ [ [ 17.227011961331637, 45.955271962466128 ], [ 17.222046727423432, 45.952109042679417 ], [ 17.21278242302569, 45.965201794542118 ], [ 17.219193991409313, 45.982459868021465 ], [ 17.223931717395544, 45.983697139478181 ], [ 17.230433057387206, 45.96064169206155 ], [ 17.227011961331637, 45.955271962466128 ] ] ] } },
{ "type": "Feature", "properties": { "BM": 4048, "longitude": 17.235997689737761, "latitude": 45.955151631971553, "population": 451 }, "geometry": { "type": "Polygon", "coordinates": [ [ [ 17.230433057387206, 45.96064169206155 ], [ 17.244394766842742, 45.957877380610341 ], [ 17.240159986659421, 45.948307699542461 ], [ 17.238535927459136, 45.948748890826941 ], [ 17.227793858490159, 45.95469349647805 ], [ 17.227011961331637, 45.955271962466128 ], [ 17.230433057387206, 45.96064169206155 ] ] ] } },
{ "type": "Feature", "properties": { "BM": 4052, "longitude": 17.225306387262467, "latitude": 45.947819196167423, "population": 372 }, "geometry": { "type": "Polygon", "coordinates": [ [ [ 17.219236274995964, 45.944231723035969 ], [ 17.222046727423432, 45.952109042679417 ], [ 17.227011961331637, 45.955271962466128 ], [ 17.227793858490159, 45.95469349647805 ], [ 17.23209093841346, 45.947964056284412 ], [ 17.223500691196762, 45.940247631732269 ], [ 17.219236274995964, 45.944231723035969 ] ] ] } },
{ "type": "Feature", "properties": { "BM": 4053, "longitude": 17.23514784043882, "latitude": 45.936265641828768, "population": 481 }, "geometry": { "type": "Polygon", "coordinates": [ [ [ 17.223500691196762, 45.940247631732269 ], [ 17.23209093841346, 45.947964056284412 ], [ 17.238535927459136, 45.948748890826941 ], [ 17.240159986659421, 45.948307699542461 ], [ 17.242799510964399, 45.916943474927649 ], [ 17.223500691196762, 45.940247631732269 ] ] ] } },
{ "type": "Feature", "properties": { "BM": 4003, "longitude": 17.179137017343116, "latitude": 45.950723005665509, "population": 315 }, "geometry": { "type": "Polygon", "coordinates": [ [ [ 17.151374011208858, 45.947831189363939 ], [ 17.184460991633991, 45.967019838460068 ], [ 17.195430004299205, 45.95247772334907 ], [ 17.197003325916953, 45.94166778822153 ], [ 17.196386686838974, 45.940303232887572 ], [ 17.194055117534532, 45.937303309591442 ], [ 17.151374011208858, 45.947831189363939 ] ] ] } },
{ "type": "Feature", "properties": { "BM": 4014, "longitude": 17.209445020079965, "latitude": 45.919788936860776, "population": 455 }, "geometry": { "type": "Polygon", "coordinates": [ [ [ 17.190463223321981, 45.923367668654798 ], [ 17.194055117534532, 45.937303309591442 ], [ 17.196386686838974, 45.940303232887572 ], [ 17.238253682011283, 45.910513356973667 ], [ 17.212520741782889, 45.905240897104918 ], [ 17.19629020775454, 45.912919996802856 ], [ 17.190463223321981, 45.923367668654798 ] ] ] } },
{ "type": "Feature", "properties": { "BM": 4016, "longitude": 17.199303458742321, "latitude": 45.9734149877183, "population": 350 }, "geometry": { "type": "Polygon", "coordinates": [ [ [ 17.185177212599559, 45.989068934922862 ], [ 17.188248038019946, 45.990511853126932 ], [ 17.219193991409313, 45.982459868021465 ], [ 17.21278242302569, 45.965201794542118 ], [ 17.195430004299205, 45.95247772334907 ], [ 17.184460991633991, 45.967019838460068 ], [ 17.185177212599559, 45.989068934922862 ] ] ] } },
{ "type": "Feature", "properties": { "BM": 3973, "longitude": 17.185057815642345, "latitude": 45.872924293836817, "population": 251 }, "geometry": { "type": "Polygon", "coordinates": [ [ [ 17.156230337348667, 45.858792211297235 ], [ 17.19629020775454, 45.912919996802856 ], [ 17.212520741782889, 45.905240897104918 ], [ 17.185519978923811, 45.834956679475958 ], [ 17.167958033003757, 45.843202455362146 ], [ 17.158955934721103, 45.853730467988356 ], [ 17.156230337348667, 45.858792211297235 ] ] ] } },
{ "type": "Feature", "properties": { "BM": 3984, "longitude": 17.172398782768028, "latitude": 45.932901524212696, "population": 298 }, "geometry": { "type": "Polygon", "coordinates": [ [ [ 17.149102302083879, 45.947336710477636 ], [ 17.151374011208858, 45.947831189363939 ], [ 17.194055117534532, 45.937303309591442 ], [ 17.190463223321981, 45.923367668654798 ], [ 17.165376438972054, 45.918451418973255 ], [ 17.149102302083879, 45.947336710477636 ] ] ] } },
{ "type": "Feature", "properties": { "BM": 3940, "longitude": 17.143255961748245, "latitude": 45.909343739572193, "population": 141 }, "geometry": { "type": "Polygon", "coordinates": [ [ [ 17.121470074377402, 45.891020071213923 ], [ 17.139127896328869, 45.950950428850298 ], [ 17.149102302083879, 45.947336710477636 ], [ 17.165376438972054, 45.918451418973255 ], [ 17.147094977422071, 45.869847309649415 ], [ 17.127064734922019, 45.881669977559916 ], [ 17.121470074377402, 45.891020071213923 ] ] ] } },
{ "type": "Feature", "properties": { "BM": 3944, "longitude": 17.170062307899332, "latitude": 45.895655308480038, "population": 368 }, "geometry": { "type": "Polygon", "coordinates": [ [ [ 17.147094977422071, 45.869847309649415 ], [ 17.165376438972054, 45.918451418973255 ], [ 17.190463223321981, 45.923367668654798 ], [ 17.19629020775454, 45.912919996802856 ], [ 17.156230337348667, 45.858792211297235 ], [ 17.147094977422071, 45.869847309649415 ] ] ] } }
]
}
