{
"type": "FeatureCollection",
"name": "zupanija_6_meta",
"crs": { "type": "name", "properties": { "name": "urn:ogc:def:crs:EPSG::3765" } },
"features": [
{ "type": "Feature", "properties": { "name": "KOPRIVNIČKO-KRIŽEVAČKA ŽUPANIJA", "population": 0.030543012152010048, "latitude": 10646.249874786408, "longitude": 3869.6120733526832 }, "geometry": { "type": "Polygon", "coordinates": [ [ [ 16.40297793984799, 46.016275044801517 ], [ 16.402333735844937, 46.017251704738285 ], [ 16.371965985174636, 46.018195708635098 ], [ 16.360366816306563, 46.035549333668264 ], [ 16.360367037865316, 46.043037829470599 ], [ 16.357408856792421, 46.052296600265471 ], [ 16.353023286573485, 46.055612429668102 ], [ 16.353264114889143, 46.063947488279815 ], [ 16.345205815746237, 46.084202593560804 ], [ 16.346639823891358, 46.085928008787526 ], [ 16.362818482828498, 46.088513647400646 ], [ 16.363992806803214, 46.089531842101778 ], [ 16.369485939041954, 46.091072939378115 ], [ 16.365319510218068, 46.128598131064948 ], [ 16.372183574283046, 46.133325788681702 ], [ 16.380705579325667, 46.13284939388317 ], [ 16.39907973179373, 46.136578728658037 ], [ 16.404632576758868, 46.142466279321823 ], [ 16.432729569004835, 46.142403690286514 ], [ 16.439961097941524, 46.137598185764588 ], [ 16.450085393724887, 46.138672212679829 ], [ 16.48231372284318, 46.153036329576281 ], [ 16.4832557188316, 46.152861016916574 ], [ 16.514121729014054, 46.163466256118078 ], [ 16.519154559516956, 46.168888225382176 ], [ 16.532735681296657, 46.172969528330896 ], [ 16.546218150083916, 46.185573183369364 ], [ 16.546714759114263, 46.186874710733065 ], [ 16.577774997295585, 46.216661481385991 ], [ 16.60958418412276, 46.212379413425616 ], [ 16.613402501022048, 46.215182392917903 ], [ 16.646626960953235, 46.195622162322863 ], [ 16.662451926659767, 46.20526351870955 ], [ 16.675772535555158, 46.198044538104853 ], [ 16.691087955921713, 46.228487095896313 ], [ 16.693765963484999, 46.228871667221789 ], [ 16.711348816996942, 46.224122257022294 ], [ 16.713633113744496, 46.227089015443006 ], [ 16.741135485963838, 46.241335371356577 ], [ 16.742052601501147, 46.24988512530981 ], [ 16.757748574340233, 46.263394438916386 ], [ 16.757628369878766, 46.26787622819414 ], [ 16.762020955182869, 46.283243300719768 ], [ 16.75613513451038, 46.305772381462809 ], [ 16.765189531018954, 46.314536121814605 ], [ 16.786833582369699, 46.31142733769466 ], [ 16.803235070267529, 46.295116182888385 ], [ 16.832863902099028, 46.314391785082549 ], [ 16.836842185251015, 46.326034747830676 ], [ 16.865126688541221, 46.344574127534891 ], [ 16.8675961, 46.344055 ], [ 16.8715857, 46.3440732 ], [ 16.8734752, 46.3431734 ], [ 16.8741139, 46.342497 ], [ 16.8745083, 46.3418966 ], [ 16.8745799, 46.3412268 ], [ 16.8743274, 46.3406311 ], [ 16.8727042, 46.3393114 ], [ 16.8720037, 46.3388643 ], [ 16.8711953, 46.3378623 ], [ 16.871541, 46.336874 ], [ 16.8721801, 46.3363483 ], [ 16.8734103, 46.3359713 ], [ 16.8739731, 46.3359047 ], [ 16.8753388, 46.3360798 ], [ 16.8786936, 46.3369512 ], [ 16.8798276, 46.3363842 ], [ 16.8802006, 46.3353839 ], [ 16.8800701, 46.3338814 ], [ 16.8790867, 46.3319791 ], [ 16.8768527, 46.3299931 ], [ 16.8748331, 46.3282529 ], [ 16.8735527, 46.326597 ], [ 16.8732389, 46.3258195 ], [ 16.8730562, 46.3246785 ], [ 16.8734837, 46.3232746 ], [ 16.8763438, 46.3210244 ], [ 16.8770183, 46.3193737 ], [ 16.8771549, 46.3186956 ], [ 16.877004, 46.3176092 ], [ 16.875734, 46.3159336 ], [ 16.8754823, 46.3154451 ], [ 16.875248, 46.3132525 ], [ 16.8758278, 46.3117537 ], [ 16.876264, 46.3114059 ], [ 16.876508, 46.3108983 ], [ 16.8768085, 46.3084667 ], [ 16.8772435, 46.3070301 ], [ 16.8778681, 46.3059374 ], [ 16.8786569, 46.3047316 ], [ 16.8799389, 46.303448 ], [ 16.8822319, 46.3019768 ], [ 16.8851516, 46.3011733 ], [ 16.8854568, 46.3002688 ], [ 16.8855219, 46.2993524 ], [ 16.8855693, 46.2989998 ], [ 16.8858698, 46.2977048 ], [ 16.8861826, 46.2970988 ], [ 16.8866666, 46.2962546 ], [ 16.8871558, 46.2953981 ], [ 16.8874032, 46.2936719 ], [ 16.8875541, 46.2913051 ], [ 16.8875397, 46.2902458 ], [ 16.8870615, 46.2883332 ], [ 16.8865468, 46.2875607 ], [ 16.886376, 46.2870291 ], [ 16.8860536, 46.286026 ], [ 16.8851692, 46.2830814 ], [ 16.8854412, 46.2819195 ], [ 16.8860558, 46.2809733 ], [ 16.8870785, 46.2800977 ], [ 16.8886318, 46.2793407 ], [ 16.8897821, 46.2789076 ], [ 16.890817877118401, 46.278559758760494 ], [ 16.890817877118405, 46.278559758760494 ], [ 16.8908785, 46.2785394 ], [ 16.8935907, 46.2777598 ], [ 16.8995008, 46.2759511 ], [ 16.9003197, 46.2756075 ], [ 16.9026145, 46.2745169 ], [ 16.9028735, 46.2740042 ], [ 16.9033543, 46.2728854 ], [ 16.9053916, 46.2711802 ], [ 16.9061263, 46.2700854 ], [ 16.9064994, 46.2691628 ], [ 16.9072149, 46.2677164 ], [ 16.9076398, 46.2670614 ], [ 16.9081345, 46.2663568 ], [ 16.910570113760176, 46.264346439109772 ], [ 16.9116964, 46.2634168 ], [ 16.9137938, 46.2618805 ], [ 16.9161367, 46.2614572 ], [ 16.9188547, 46.2610702 ], [ 16.9205521, 46.2607296 ], [ 16.9242853, 46.2602011 ], [ 16.9261456, 46.2597726 ], [ 16.9293889, 46.2579262 ], [ 16.930812622530254, 46.257250507474204 ], [ 16.9312252, 46.2570547 ], [ 16.9317739, 46.2566202 ], [ 16.9326812, 46.2556059 ], [ 16.9330285, 46.2552873 ], [ 16.9338563, 46.2541639 ], [ 16.9355936, 46.2544205 ], [ 16.9360788, 46.2539796 ], [ 16.9361272, 46.2537319 ], [ 16.9365764, 46.2530832 ], [ 16.9368544, 46.2525246 ], [ 16.9370986, 46.2513666 ], [ 16.9375516, 46.2503521 ], [ 16.9375855, 46.2499391 ], [ 16.937735, 46.2499694 ], [ 16.9378592, 46.249934 ], [ 16.9380979, 46.249786 ], [ 16.9382412, 46.2498338 ], [ 16.9385876, 46.2495213 ], [ 16.938777, 46.2490732 ], [ 16.9392638, 46.2487026 ], [ 16.9394837, 46.2490003 ], [ 16.9404534, 46.2485414 ], [ 16.9428155, 46.2472989 ], [ 16.9437871, 46.2467863 ], [ 16.9445293, 46.2464072 ], [ 16.9462161, 46.2443671 ], [ 16.946793, 46.2442956 ], [ 16.9477748, 46.2436735 ], [ 16.9486517, 46.2434163 ], [ 16.9491194, 46.2432188 ], [ 16.9496238, 46.2427897 ], [ 16.9498122, 46.2423436 ], [ 16.9499311, 46.2414617 ], [ 16.9502217, 46.2411752 ], [ 16.9509762, 46.240768 ], [ 16.9529146, 46.2399201 ], [ 16.9548157, 46.2391775 ], [ 16.955155, 46.2393848 ], [ 16.9554794, 46.2403778 ], [ 16.9556686, 46.2408662 ], [ 16.9559858, 46.241054 ], [ 16.9564856, 46.2412294 ], [ 16.9571051, 46.2413319 ], [ 16.9575478, 46.2412752 ], [ 16.9579621, 46.2411411 ], [ 16.9581724, 46.2410401 ], [ 16.9586358, 46.2407666 ], [ 16.9600265, 46.2400929 ], [ 16.9606495, 46.2398912 ], [ 16.9610298, 46.2398743 ], [ 16.9615045, 46.239962 ], [ 16.9619847, 46.2402244 ], [ 16.9625802, 46.2404669 ], [ 16.9630158, 46.2404919 ], [ 16.9634542, 46.2403675 ], [ 16.9640406, 46.240254 ], [ 16.9644693, 46.2399402 ], [ 16.9646895, 46.2399236 ], [ 16.9652643, 46.2400285 ], [ 16.965370401050514, 46.240013684417377 ], [ 16.965333708995789, 46.239407996280846 ], [ 16.972362653722385, 46.229607723850577 ], [ 16.9723094, 46.2295675 ], [ 16.9721975, 46.2292828 ], [ 16.9723148, 46.228847 ], [ 16.9727502, 46.2282104 ], [ 16.973545, 46.2276928 ], [ 16.9736576, 46.2272756 ], [ 16.9734819, 46.2267579 ], [ 16.9731187, 46.2262673 ], [ 16.9729852, 46.22548 ], [ 16.9729163, 46.2251226 ], [ 16.9730904, 46.2247853 ], [ 16.9740094, 46.2246892 ], [ 16.9750815, 46.2246649 ], [ 16.9754845, 46.2246438 ], [ 16.9757997, 46.2244538 ], [ 16.9763435, 46.2238607 ], [ 16.976554079475282, 46.223763729361018 ], [ 16.976554079475285, 46.223763729361018 ], [ 16.9766308, 46.2237284 ], [ 16.9773, 46.2238543 ], [ 16.9778895, 46.2236463 ], [ 16.9782381, 46.2235129 ], [ 16.9786004, 46.2235334 ], [ 16.9788481, 46.2236059 ], [ 16.9795367, 46.2239549 ], [ 16.9800949, 46.2243075 ], [ 16.9802917, 46.2245925 ], [ 16.9805591, 46.2247092 ], [ 16.9809262, 46.224609 ], [ 16.9817159, 46.2242891 ], [ 16.9817621, 46.2242069 ], [ 16.9817585, 46.2237126 ], [ 16.9834038, 46.2221747 ], [ 16.983734, 46.2220434 ], [ 16.9839677, 46.2220771 ], [ 16.9845394, 46.222474 ], [ 16.9852332, 46.2226574 ], [ 16.985541, 46.2228815 ], [ 16.9857437, 46.223131 ], [ 16.9862416, 46.2235787 ], [ 16.9863899, 46.2238274 ], [ 16.9866174, 46.2239444 ], [ 16.9872346, 46.2240488 ], [ 16.987755, 46.2242324 ], [ 16.9878271, 46.2243996 ], [ 16.9876841, 46.2246742 ], [ 16.9876719, 46.2248469 ], [ 16.987817, 46.2249095 ], [ 16.988422, 46.2249107 ], [ 16.9900037, 46.2248332 ], [ 16.9907264, 46.224459 ], [ 16.9915989, 46.2237766 ], [ 16.9928078, 46.2226632 ], [ 16.9931056, 46.2215075 ], [ 16.9932552, 46.2212403 ], [ 16.9935876, 46.2210487 ], [ 16.9959255, 46.2202255 ], [ 16.9964096, 46.220218 ], [ 16.9966386, 46.2203013 ], [ 16.9968323, 46.220535 ], [ 16.9968936, 46.220779 ], [ 16.9967505, 46.2211571 ], [ 16.9967576, 46.2213858 ], [ 16.9969385, 46.2215221 ], [ 16.9972082, 46.2215299 ], [ 16.9978985, 46.2215113 ], [ 16.9984201, 46.2215214 ], [ 16.9986725, 46.2216095 ], [ 16.9989087, 46.2218558 ], [ 16.999134, 46.2222029 ], [ 16.9992102, 46.2227356 ], [ 16.9994635, 46.2229232 ], [ 16.9996838, 46.2228789 ], [ 16.9998689, 46.2227002 ], [ 17.0001197, 46.2224922 ], [ 17.0004837, 46.2224376 ], [ 17.0010079, 46.222452 ], [ 17.0014789, 46.2223941 ], [ 17.0019357, 46.2222788 ], [ 17.0034074, 46.2222636 ], [ 17.0034944, 46.2218763 ], [ 17.0037023, 46.2216404 ], [ 17.0043979, 46.2219555 ], [ 17.0051548, 46.2223073 ], [ 17.0057639, 46.2228116 ], [ 17.006004, 46.2228032 ], [ 17.0070638, 46.2220602 ], [ 17.0075758, 46.22154 ], [ 17.0085303, 46.221258 ], [ 17.0091682, 46.2208858 ], [ 17.0100201, 46.2206838 ], [ 17.0111399, 46.2202929 ], [ 17.0116254, 46.2198863 ], [ 17.0123507, 46.2193891 ], [ 17.0128716, 46.219311 ], [ 17.0133183, 46.2193626 ], [ 17.0135826, 46.219377 ], [ 17.0138827, 46.2193132 ], [ 17.0142015, 46.2188789 ], [ 17.0146757, 46.2185148 ], [ 17.0155401, 46.218387 ], [ 17.0165322, 46.2182764 ], [ 17.0169442, 46.2180697 ], [ 17.0177441, 46.2176322 ], [ 17.018783, 46.2167089 ], [ 17.020158, 46.2160691 ], [ 17.0210885, 46.2160055 ], [ 17.0216196, 46.2161722 ], [ 17.0221712, 46.2162143 ], [ 17.033946652372219, 46.211050243982569 ], [ 17.0402118, 46.2083027 ], [ 17.0470398, 46.2053247 ], [ 17.0530267, 46.202725 ], [ 17.055448, 46.2021424 ], [ 17.056276699063275, 46.202032671072651 ], [ 17.0578262, 46.2018275 ], [ 17.0650279, 46.2020982 ], [ 17.0662945, 46.2021001 ], [ 17.0661917, 46.2016017 ], [ 17.0660064, 46.2013243 ], [ 17.066023, 46.2010803 ], [ 17.0666186, 46.2004311 ], [ 17.0664949, 46.1996452 ], [ 17.0661352, 46.1992734 ], [ 17.0656333, 46.1979855 ], [ 17.0658042, 46.1973866 ], [ 17.0658219, 46.1973306 ], [ 17.066809, 46.1971014 ], [ 17.0673159, 46.1965393 ], [ 17.067619, 46.196027 ], [ 17.0677272, 46.1958654 ], [ 17.068334, 46.1953466 ], [ 17.0686839, 46.194667 ], [ 17.068582, 46.1939337 ], [ 17.0687477, 46.1938007 ], [ 17.0693946, 46.1936715 ], [ 17.0707272, 46.1923044 ], [ 17.0739277, 46.1908779 ], [ 17.0752483, 46.1889532 ], [ 17.077681, 46.1886164 ], [ 17.0796158, 46.1889003 ], [ 17.0813064, 46.1879158 ], [ 17.082149952854483, 46.186312112945963 ], [ 17.082171, 46.1862721 ], [ 17.0829968, 46.1859757 ], [ 17.0854628, 46.186222 ], [ 17.085463954697701, 46.18631997325209 ], [ 17.0854851, 46.1881141 ], [ 17.0869123, 46.1889736 ], [ 17.0881124, 46.1888705 ], [ 17.0899807, 46.1896095 ], [ 17.0914931, 46.1888089 ], [ 17.0926497, 46.1890244 ], [ 17.093568925255809, 46.188335067160175 ], [ 17.0937173, 46.1882238 ], [ 17.0983807, 46.1870494 ], [ 17.099008448069515, 46.186858417447922 ], [ 17.099008448069519, 46.186858417447922 ], [ 17.100543700078557, 46.186391340986823 ], [ 17.101502791905265, 46.186099552268331 ], [ 17.1022136, 46.1858833 ], [ 17.1028808, 46.184405 ], [ 17.1035036, 46.1824955 ], [ 17.1074384, 46.1799528 ], [ 17.1092865, 46.1778755 ], [ 17.1114217, 46.1765202 ], [ 17.1136013, 46.1766743 ], [ 17.1156921, 46.1779063 ], [ 17.1176493, 46.1798468 ], [ 17.1193842, 46.1792 ], [ 17.122741, 46.1789792 ], [ 17.1227204, 46.1779371 ], [ 17.1245605, 46.1775653 ], [ 17.1248112, 46.1769823 ], [ 17.1242774, 46.1757502 ], [ 17.1241884, 46.1746105 ], [ 17.1232987, 46.173902 ], [ 17.1244108, 46.1716225 ], [ 17.1240105, 46.1706059 ], [ 17.1249891, 46.1695893 ], [ 17.1261012, 46.1684495 ], [ 17.1286812, 46.1691889 ], [ 17.1304605, 46.1684803 ], [ 17.1321954, 46.1686344 ], [ 17.1337078, 46.1682339 ], [ 17.1354872, 46.1693429 ], [ 17.1367772, 46.1715917 ], [ 17.1381117, 46.1714685 ], [ 17.139891, 46.1729471 ], [ 17.1407658, 46.1726139 ], [ 17.1416704, 46.1722694 ], [ 17.1430494, 46.1713145 ], [ 17.1446063, 46.1707908 ], [ 17.1472753, 46.1710372 ], [ 17.1490546, 46.1714685 ], [ 17.1514122, 46.1710372 ], [ 17.153325, 46.1716533 ], [ 17.1551044, 46.171222 ], [ 17.1560841, 46.1700287 ], [ 17.1579513, 46.1702363 ], [ 17.1592858, 46.1696818 ], [ 17.1600865, 46.1681414 ], [ 17.1591523, 46.1673097 ], [ 17.1580847, 46.1672789 ], [ 17.1583961, 46.1656152 ], [ 17.1593303, 46.1652763 ], [ 17.1593748, 46.1645369 ], [ 17.1580403, 46.1646294 ], [ 17.1565278, 46.1638283 ], [ 17.1574175, 46.1626576 ], [ 17.1561481, 46.1621232 ], [ 17.1562265, 46.1617203 ], [ 17.1578623, 46.1612711 ], [ 17.1575509, 46.1600079 ], [ 17.1564018, 46.1592942 ], [ 17.1562307, 46.1585819 ], [ 17.1575509, 46.1579435 ], [ 17.1599086, 46.157358 ], [ 17.1599086, 46.1565877 ], [ 17.161421, 46.1552627 ], [ 17.1636729, 46.1550593 ], [ 17.1642129, 46.1556331 ], [ 17.1668708, 46.1562944 ], [ 17.1687475, 46.1567277 ], [ 17.1719151, 46.155466 ], [ 17.1728967, 46.1541116 ], [ 17.1749123, 46.1531968 ], [ 17.1760244, 46.1525227 ], [ 17.1810983, 46.1505486 ], [ 17.1804727, 46.1484781 ], [ 17.1782486, 46.147515 ], [ 17.177484, 46.1457815 ], [ 17.1776369, 46.1446065 ], [ 17.178893312712589, 46.144277264123254 ], [ 17.178893312712592, 46.144277264123254 ], [ 17.1792912, 46.144173 ], [ 17.1797916, 46.1424779 ], [ 17.1817245, 46.1409084 ], [ 17.181717384874982, 46.140872678127117 ], [ 17.1815153, 46.1398581 ], [ 17.1799584, 46.1394342 ], [ 17.1810149, 46.1378546 ], [ 17.1814041, 46.1368528 ], [ 17.1827386, 46.1366216 ], [ 17.1832947, 46.1354657 ], [ 17.1854632, 46.1348106 ], [ 17.18563, 46.1339244 ], [ 17.1865197, 46.1332308 ], [ 17.1857412, 46.1319977 ], [ 17.1841843, 46.1314968 ], [ 17.1818489, 46.1310729 ], [ 17.1784015, 46.128915 ], [ 17.1768446, 46.1293389 ], [ 17.1751764, 46.1295701 ], [ 17.1743424, 46.1287608 ], [ 17.1758901, 46.1262338 ], [ 17.1759549, 46.1243675 ], [ 17.1765665, 46.1229416 ], [ 17.1805586, 46.1220657 ], [ 17.1821826, 46.1190489 ], [ 17.1814172, 46.1172463 ], [ 17.1789575, 46.113961 ], [ 17.1768264, 46.1127044 ], [ 17.174954, 46.1126504 ], [ 17.1750781, 46.1121156 ], [ 17.1759271, 46.1084583 ], [ 17.1812172, 46.106267 ], [ 17.1859359, 46.1065789 ], [ 17.1955725, 46.1111467 ], [ 17.2008165, 46.1114199 ], [ 17.2060912, 46.110759 ], [ 17.2098167, 46.1074198 ], [ 17.2108188, 46.1126504 ], [ 17.2129734, 46.113855 ], [ 17.2161707, 46.1130359 ], [ 17.2183253, 46.1110121 ], [ 17.218371273606341, 46.109984629759744 ], [ 17.218371273606341, 46.109984629759737 ], [ 17.2184118, 46.1090789 ], [ 17.2180224, 46.1080437 ], [ 17.2164141, 46.1062179 ], [ 17.2137151, 46.1040664 ], [ 17.2094849, 46.0993179 ], [ 17.2125788, 46.0984185 ], [ 17.2160303, 46.0990321 ], [ 17.2192743, 46.0976817 ], [ 17.2203611, 46.0990445 ], [ 17.2225945, 46.09849 ], [ 17.2301194, 46.0997313 ], [ 17.2322862, 46.0990943 ], [ 17.2334247, 46.0979314 ], [ 17.233408, 46.0972776 ], [ 17.2330251, 46.0966492 ], [ 17.2283551, 46.0949441 ], [ 17.2233529, 46.0942574 ], [ 17.2224041, 46.0917039 ], [ 17.2213956, 46.0899842 ], [ 17.2188009, 46.0873772 ], [ 17.2181803, 46.0866888 ], [ 17.2178526, 46.0843971 ], [ 17.218221577035319, 46.08339524420569 ], [ 17.21487844315476, 46.081912632048869 ], [ 17.214878443154753, 46.081912632048869 ], [ 17.2139577, 46.0818669 ], [ 17.2125489, 46.0821066 ], [ 17.2082996, 46.0834228 ], [ 17.2072336, 46.0833159 ], [ 17.2062444, 46.083198 ], [ 17.2030811, 46.0821202 ], [ 17.2009442, 46.0798387 ], [ 17.2009021, 46.0787808 ], [ 17.2015892, 46.0774323 ], [ 17.202830972116391, 46.076569822679403 ], [ 17.2028359, 46.0765664 ], [ 17.2046317, 46.0760698 ], [ 17.207344, 46.0761874 ], [ 17.2092782, 46.076726 ], [ 17.2095951, 46.0769403 ], [ 17.213192, 46.0789909 ], [ 17.2149803, 46.079694 ], [ 17.2162455, 46.0800572 ], [ 17.2178026, 46.0802606 ], [ 17.2193944, 46.0803274 ], [ 17.2213169, 46.0813031 ], [ 17.222724, 46.0808085 ], [ 17.2244671, 46.0805926 ], [ 17.2266548, 46.0805474 ], [ 17.2308994, 46.080494 ], [ 17.2387018, 46.0773282 ], [ 17.239363, 46.0763137 ], [ 17.2395058, 46.0741602 ], [ 17.2390938, 46.072215 ], [ 17.2385733, 46.0713047 ], [ 17.239437972070718, 46.067284338101466 ], [ 17.237011204853584, 46.063816549021332 ], [ 17.2353177, 46.0656942 ], [ 17.2324838, 46.0661554 ], [ 17.2298079, 46.0650395 ], [ 17.2283665, 46.063483 ], [ 17.2291963, 46.0612199 ], [ 17.2324767, 46.0592034 ], [ 17.233603110843877, 46.058946468732017 ], [ 17.2356464, 46.0584804 ], [ 17.2390382, 46.0574772 ], [ 17.2424838, 46.0579249 ], [ 17.2515758, 46.0588807 ], [ 17.2610196, 46.0577155 ], [ 17.2650494, 46.0572656 ], [ 17.2649784, 46.0566857 ], [ 17.2672588, 46.0572906 ], [ 17.2696762, 46.0575158 ], [ 17.2709551, 46.0567055 ], [ 17.2720916, 46.0541221 ], [ 17.2712331, 46.0528853 ], [ 17.2626398, 46.0483659 ], [ 17.2606127, 46.0461704 ], [ 17.2568633, 46.0459561 ], [ 17.2586109, 46.039995 ], [ 17.2590299, 46.0378648 ], [ 17.2598009, 46.0323096 ], [ 17.2571902, 46.0319526 ], [ 17.2564146, 46.0317367 ], [ 17.2539179, 46.0310415 ], [ 17.2539455, 46.030919 ], [ 17.2541515, 46.030005 ], [ 17.2570457, 46.0300281 ], [ 17.2584786, 46.0310693 ], [ 17.2690312, 46.0333863 ], [ 17.2713229, 46.033023 ], [ 17.2807979, 46.031008 ], [ 17.2846556, 46.0316894 ], [ 17.291579, 46.0319504 ], [ 17.2944395, 46.0309933 ], [ 17.2963201, 46.0285169 ], [ 17.2955556, 46.0256564 ], [ 17.293536, 46.0232719 ], [ 17.2918654, 46.0226685 ], [ 17.2740414, 46.020313 ], [ 17.2722792, 46.0209294 ], [ 17.272393197, 46.019656991 ], [ 17.2724758, 46.018735 ], [ 17.2711552, 46.0171905 ], [ 17.2600717, 46.0141574 ], [ 17.258391, 46.013097 ], [ 17.2579726, 46.0110256 ], [ 17.2637651, 46.008932 ], [ 17.2674715, 46.0086465 ], [ 17.2724063, 46.0047361 ], [ 17.273084951457992, 46.004442108692352 ], [ 17.2788703, 46.0019359 ], [ 17.2863216, 46.0001662 ], [ 17.289621317943183, 46.000709738088709 ], [ 17.301691440276745, 45.997985429225544 ], [ 17.298056265624183, 45.993583983657999 ], [ 17.295859843059652, 45.99257550841552 ], [ 17.2954061, 45.9924157 ], [ 17.295358621419112, 45.992345375278283 ], [ 17.263253523975557, 45.977604497793223 ], [ 17.226093077814248, 45.985162996476191 ], [ 17.223931717395544, 45.983697139478181 ], [ 17.219193991409313, 45.982459868021465 ], [ 17.188248038019946, 45.990511853126932 ], [ 17.185177212599559, 45.989068934922862 ], [ 17.184460991633991, 45.967019838460068 ], [ 17.151374011208858, 45.947831189363939 ], [ 17.149102302083879, 45.947336710477636 ], [ 17.139127896328869, 45.950950428850298 ], [ 17.121470074377402, 45.891020071213923 ], [ 17.089036840141567, 45.911689193039564 ], [ 17.074618103496878, 45.911255219778404 ], [ 17.063059100471367, 45.941675495989628 ], [ 17.026586613845154, 45.959211271919564 ], [ 17.016200007106281, 45.957947789655137 ], [ 17.012984595526362, 45.963361653223693 ], [ 16.978481255543691, 45.982207697087652 ], [ 16.973285189897716, 45.988260116157399 ], [ 16.973099247868831, 45.988558048418717 ], [ 16.96782635709641, 45.989991522294432 ], [ 16.935640616181082, 46.007437340356297 ], [ 16.927199507331515, 45.987925301565063 ], [ 16.916038715880887, 45.983218127408172 ], [ 16.892530828925246, 45.992013004746433 ], [ 16.89201857831398, 45.995483236119838 ], [ 16.913718308908262, 46.009479951884707 ], [ 16.896905253385341, 46.03010722742647 ], [ 16.892413156689624, 46.041654355900057 ], [ 16.902522791926383, 46.059932709065102 ], [ 16.891637720979606, 46.073097929394798 ], [ 16.888241392580543, 46.075313146163076 ], [ 16.882370579234749, 46.077650300313671 ], [ 16.872836052795318, 46.084620498398181 ], [ 16.855890810683665, 46.08991648520545 ], [ 16.839072973971938, 46.089494280099714 ], [ 16.83009766893608, 46.07975523431201 ], [ 16.828219001129611, 46.070304376137429 ], [ 16.828838082968751, 46.061991951720941 ], [ 16.800701005009223, 46.036399424110037 ], [ 16.78886740060997, 46.041559573376077 ], [ 16.783102042167791, 46.057061940099068 ], [ 16.775769644627989, 46.059112241182696 ], [ 16.747593031361923, 46.043056813437175 ], [ 16.741706015660604, 46.044119779779862 ], [ 16.740831036586812, 46.043841613058632 ], [ 16.729875762675746, 46.030594311964435 ], [ 16.734167629648447, 46.003073949783413 ], [ 16.700858330517494, 45.997636621631933 ], [ 16.705353427843253, 45.966213794173136 ], [ 16.713430290650066, 45.960133194804591 ], [ 16.711227465937483, 45.941228808046098 ], [ 16.707183590535365, 45.937374125308175 ], [ 16.701765236061327, 45.928038356627674 ], [ 16.680853685530948, 45.928406599840351 ], [ 16.676817017272992, 45.932120599106646 ], [ 16.669805038429121, 45.932729936913184 ], [ 16.658785500836832, 45.924299974891241 ], [ 16.635899322014673, 45.937255236934654 ], [ 16.63079442118795, 45.937471389776846 ], [ 16.626815672035999, 45.93099957112404 ], [ 16.606382273804844, 45.926369620368732 ], [ 16.596446254506439, 45.915611856012994 ], [ 16.568576813403894, 45.930274823336021 ], [ 16.565828515896584, 45.930454542721478 ], [ 16.555055237727306, 45.949273150044441 ], [ 16.550094135634097, 45.948677752345809 ], [ 16.523865184654731, 45.957962238758135 ], [ 16.522016880907579, 45.962308828867592 ], [ 16.521183070036962, 45.96696727045633 ], [ 16.490686030813599, 45.977133168935346 ], [ 16.484395739943562, 45.970640969650333 ], [ 16.487194423865851, 45.95901267184523 ], [ 16.485999323260192, 45.953948663555501 ], [ 16.474340248242399, 45.942163341364001 ], [ 16.453139617137818, 45.945942699479374 ], [ 16.450423278510112, 45.948559872756682 ], [ 16.458765702314508, 45.960566868163049 ], [ 16.470111439729777, 45.972525795789359 ], [ 16.46009261924798, 45.986654654625006 ], [ 16.443323503368656, 45.984394392920045 ], [ 16.434731538627382, 46.001318230118699 ], [ 16.433969353390577, 46.009400015825733 ], [ 16.40297793984799, 46.016275044801517 ] ] ] } }
]
}
