{
"type": "FeatureCollection",
"name": "zupanija_1_meta",
"crs": { "type": "name", "properties": { "name": "urn:ogc:def:crs:EPSG::3765" } },
"features": [
{ "type": "Feature", "properties": { "name": "ZAGREBAČKA ŽUPANIJA", "population": 0.095205064643100509, "latitude": 26332.036951976715, "longitude": 9235.2021894962181 }, "geometry": { "type": "Polygon", "coordinates": [ [ [ 15.545329605741765, 45.611613476630808 ], [ 15.541711104860168, 45.614040339138114 ], [ 15.513861978504384, 45.616598316393087 ], [ 15.511353545187061, 45.623366308578611 ], [ 15.513628949655413, 45.635364727950467 ], [ 15.510968008039164, 45.639276815122152 ], [ 15.501638721564349, 45.645773709078448 ], [ 15.499338445905876, 45.644683172744472 ], [ 15.470863145775452, 45.65149242230941 ], [ 15.465739589992564, 45.650213344523856 ], [ 15.463359715064414, 45.671241252421922 ], [ 15.438724304494423, 45.686956426686109 ], [ 15.426558422603941, 45.681772840968016 ], [ 15.41497236709672, 45.692875282864016 ], [ 15.412021779805823, 45.697806144206112 ], [ 15.399950033099328, 45.701025517564389 ], [ 15.382342673179938, 45.71191155499659 ], [ 15.373801300920121, 45.724727184545408 ], [ 15.345908225422681, 45.731135182256381 ], [ 15.329423907110408, 45.762412973687887 ], [ 15.329674, 45.7625323 ], [ 15.3297125, 45.7625465 ], [ 15.3300394, 45.7627057 ], [ 15.3302682, 45.7627282 ], [ 15.3305558, 45.7627522 ], [ 15.3309239, 45.7627918 ], [ 15.3313653, 45.7628329 ], [ 15.3314477, 45.7628583 ], [ 15.3319404, 45.7630232 ], [ 15.33213, 45.7631195 ], [ 15.3324619, 45.7632951 ], [ 15.332922, 45.7635409 ], [ 15.332976, 45.7635697 ], [ 15.3330387, 45.7635977 ], [ 15.3331815, 45.7636563 ], [ 15.3336307, 45.763835 ], [ 15.3341868, 45.764056 ], [ 15.3342383, 45.7640807 ], [ 15.3345241, 45.7642512 ], [ 15.3345528, 45.7642641 ], [ 15.3348741, 45.7644612 ], [ 15.3352298, 45.7646791 ], [ 15.3354039, 45.7647801 ], [ 15.3356031, 45.7648884 ], [ 15.3357004, 45.7649444 ], [ 15.335871, 45.7650216 ], [ 15.3360292, 45.7650926 ], [ 15.3363221, 45.7652291 ], [ 15.3363875, 45.7652605 ], [ 15.3364045, 45.7652734 ], [ 15.3364504, 45.765297 ], [ 15.3365555, 45.7653544 ], [ 15.3369571, 45.7655777 ], [ 15.3375004, 45.765875 ], [ 15.3380041, 45.7661586 ], [ 15.3384502, 45.7664078 ], [ 15.3385051, 45.7664335 ], [ 15.338533, 45.7664501 ], [ 15.3387987, 45.7665982 ], [ 15.3393853, 45.7669208 ], [ 15.3395983, 45.7670445 ], [ 15.3396995, 45.7671087 ], [ 15.3397477, 45.7671392 ], [ 15.3399232, 45.7672463 ], [ 15.3399733, 45.7672784 ], [ 15.3401323, 45.7673797 ], [ 15.3404063, 45.7675154 ], [ 15.3404549, 45.7675397 ], [ 15.3404872, 45.7675568 ], [ 15.3405276, 45.767573 ], [ 15.3405896, 45.7676123 ], [ 15.3407876, 45.7677612 ], [ 15.3410325, 45.7679461 ], [ 15.3418243, 45.7683587 ], [ 15.3419091, 45.7684002 ], [ 15.3422471, 45.768546 ], [ 15.3426006, 45.7686986 ], [ 15.3430661, 45.7689004 ], [ 15.3431724, 45.7689423 ], [ 15.34333, 45.7690141 ], [ 15.3434872, 45.7690871 ], [ 15.3444299, 45.7695 ], [ 15.3445555, 45.7695421 ], [ 15.3447378, 45.7695437 ], [ 15.3460756, 45.769559 ], [ 15.3462089, 45.7695596 ], [ 15.3464659, 45.7696814 ], [ 15.3471481, 45.7700066 ], [ 15.3474507, 45.7701543 ], [ 15.3476165, 45.7702871 ], [ 15.3479173, 45.7705488 ], [ 15.348065, 45.7706701 ], [ 15.3482225, 45.7707508 ], [ 15.3483749, 45.7708117 ], [ 15.3486226, 45.7709077 ], [ 15.3486614, 45.7709228 ], [ 15.3492857, 45.771178 ], [ 15.3502307, 45.7713145 ], [ 15.3503172, 45.7713635 ], [ 15.3505882, 45.7715189 ], [ 15.3511368, 45.7724702 ], [ 15.3517214, 45.7728629 ], [ 15.3529191, 45.7731051 ], [ 15.3535716, 45.7732503 ], [ 15.3539285, 45.7732823 ], [ 15.3551259, 45.7734184 ], [ 15.3552252, 45.773421 ], [ 15.355858, 45.7734099 ], [ 15.3565616, 45.7733076 ], [ 15.3576916, 45.7737074 ], [ 15.3587369, 45.7737867 ], [ 15.3597076, 45.7737065 ], [ 15.3599044, 45.7738602 ], [ 15.3599568, 45.7738928 ], [ 15.3604131, 45.774745 ], [ 15.3603687, 45.7753042 ], [ 15.3607242, 45.775732 ], [ 15.3609237, 45.7759776 ], [ 15.3610541, 45.7761989 ], [ 15.3611188, 45.7763343 ], [ 15.3611785, 45.776397 ], [ 15.3613869, 45.7765794 ], [ 15.3616489, 45.776789 ], [ 15.362276, 45.7768987 ], [ 15.3627532, 45.77665 ], [ 15.3638809, 45.776615 ], [ 15.3645804, 45.776402 ], [ 15.3647654, 45.7763491 ], [ 15.3651705, 45.7762333 ], [ 15.3653375, 45.7761129 ], [ 15.3653828, 45.7761167 ], [ 15.3668207, 45.7763994 ], [ 15.3678085, 45.7763297 ], [ 15.3680997, 45.7761014 ], [ 15.3683679, 45.7760708 ], [ 15.3691703, 45.7763576 ], [ 15.3698628, 45.7766383 ], [ 15.3703723, 45.7774522 ], [ 15.3706606, 45.7776779 ], [ 15.3717195, 45.7774197 ], [ 15.3722767, 45.7781039 ], [ 15.3723788, 45.7783713 ], [ 15.3725238, 45.778702 ], [ 15.3726501, 45.7789906 ], [ 15.3729993, 45.7796275 ], [ 15.3730321, 45.7796733 ], [ 15.3730099, 45.7796743 ], [ 15.3744531, 45.7807711 ], [ 15.3756194, 45.7804955 ], [ 15.3757461, 45.7804667 ], [ 15.3762448, 45.7802882 ], [ 15.3768999, 45.780076 ], [ 15.3770463, 45.7800176 ], [ 15.3781639, 45.7795306 ], [ 15.378645, 45.7793234 ], [ 15.37914, 45.7792125 ], [ 15.3792993, 45.7791768 ], [ 15.3812944, 45.7789607 ], [ 15.3819552, 45.7791475 ], [ 15.3824563, 45.7795205 ], [ 15.382962, 45.7799929 ], [ 15.3836882, 45.7802965 ], [ 15.3841139, 45.780616 ], [ 15.3847269, 45.7809864 ], [ 15.3852037, 45.7812548 ], [ 15.3853236, 45.7822139 ], [ 15.3855401, 45.7830482 ], [ 15.3859298, 45.7834773 ], [ 15.3859463, 45.7834989 ], [ 15.3864033, 45.7840254 ], [ 15.3870363, 45.7843755 ], [ 15.3881104, 45.7849183 ], [ 15.3886751, 45.7853152 ], [ 15.3893655, 45.7855034 ], [ 15.3898647, 45.7858799 ], [ 15.3901031, 45.7863439 ], [ 15.3903852, 45.7870723 ], [ 15.3915756, 45.7875513 ], [ 15.3921401, 45.7882783 ], [ 15.3925261, 45.7883606 ], [ 15.3937941, 45.7887923 ], [ 15.3940426, 45.7888439 ], [ 15.3945223, 45.7889425 ], [ 15.3950054, 45.7890293 ], [ 15.3952683, 45.7890488 ], [ 15.3954332, 45.7890596 ], [ 15.3963602, 45.789607 ], [ 15.3966739, 45.7899581 ], [ 15.3967437, 45.7899791 ], [ 15.397259, 45.7901913 ], [ 15.3977812, 45.7904048 ], [ 15.3976524, 45.7906944 ], [ 15.3974791, 45.7910474 ], [ 15.3975283, 45.7911132 ], [ 15.3976753, 45.7911284 ], [ 15.3980234, 45.7913941 ], [ 15.3983458, 45.7916194 ], [ 15.3985254, 45.7917179 ], [ 15.3987277, 45.7917926 ], [ 15.3989448, 45.7918745 ], [ 15.3991616, 45.791954 ], [ 15.3993481, 45.7920276 ], [ 15.399452, 45.7920643 ], [ 15.3996218, 45.7920831 ], [ 15.4000085, 45.7921329 ], [ 15.4001455, 45.7921507 ], [ 15.4003389, 45.7921662 ], [ 15.4005187, 45.79218 ], [ 15.4007388, 45.7921916 ], [ 15.4009993, 45.7922047 ], [ 15.401257, 45.7922142 ], [ 15.4013885, 45.7922189 ], [ 15.4014908, 45.7922464 ], [ 15.4016982, 45.7923011 ], [ 15.4019243, 45.7923577 ], [ 15.4020831, 45.792396 ], [ 15.4021379, 45.7924706 ], [ 15.4022933, 45.7926496 ], [ 15.4023632, 45.7926547 ], [ 15.4025967, 45.7926606 ], [ 15.4028784, 45.792668 ], [ 15.4031764, 45.792679 ], [ 15.4032136, 45.7926619 ], [ 15.4034292, 45.7925498 ], [ 15.4036654, 45.79255 ], [ 15.4037596, 45.7925699 ], [ 15.4040206, 45.7926281 ], [ 15.4044269, 45.7927135 ], [ 15.4048016, 45.7926281 ], [ 15.4052427, 45.7924645 ], [ 15.4055276, 45.7922812 ], [ 15.4063451, 45.7921309 ], [ 15.4066462, 45.791964 ], [ 15.4068031, 45.7918703 ], [ 15.4073103, 45.7913681 ], [ 15.4075138, 45.7912654 ], [ 15.4079561, 45.7911916 ], [ 15.408182, 45.7913142 ], [ 15.4086149, 45.7917366 ], [ 15.4090942, 45.7919432 ], [ 15.4093182, 45.7923335 ], [ 15.4096247, 45.7926173 ], [ 15.4096928, 45.7927078 ], [ 15.4098594, 45.7929291 ], [ 15.4105973, 45.7930278 ], [ 15.4111551, 45.7932565 ], [ 15.4112907, 45.7936006 ], [ 15.4113556, 45.7939388 ], [ 15.411576, 45.7943069 ], [ 15.4116974, 45.7945831 ], [ 15.4121596, 45.7948457 ], [ 15.4125926, 45.7950918 ], [ 15.4132434, 45.7951483 ], [ 15.413495, 45.7950782 ], [ 15.4138838, 45.7950164 ], [ 15.4140276, 45.7950105 ], [ 15.4144292, 45.7948443 ], [ 15.4148488, 45.7947964 ], [ 15.4149616, 45.7947371 ], [ 15.4151116, 45.7947069 ], [ 15.4160886, 45.7946973 ], [ 15.416635095521864, 45.794659552927889 ], [ 15.4171006, 45.7946274 ], [ 15.4182415, 45.7945888 ], [ 15.4184129, 45.7946504 ], [ 15.4185201, 45.7947736 ], [ 15.4186888, 45.795077 ], [ 15.419526, 45.7956358 ], [ 15.4201587, 45.7960222 ], [ 15.4208925, 45.7960869 ], [ 15.4221404, 45.7962754 ], [ 15.4241875, 45.7961364 ], [ 15.4246886, 45.7961581 ], [ 15.4249199, 45.7960697 ], [ 15.4253211, 45.795649 ], [ 15.4258788, 45.795225 ], [ 15.4265431, 45.7949379 ], [ 15.4271529, 45.7947985 ], [ 15.4273808, 45.794935 ], [ 15.427667, 45.7951684 ], [ 15.4281067, 45.7954362 ], [ 15.4285052, 45.7955057 ], [ 15.4286796, 45.7955939 ], [ 15.429244, 45.7955197 ], [ 15.4293959, 45.7954607 ], [ 15.4301761, 45.7954098 ], [ 15.4314215, 45.7952171 ], [ 15.4316158, 45.7951429 ], [ 15.431986, 45.7950362 ], [ 15.4320616, 45.7950401 ], [ 15.4322249, 45.79505 ], [ 15.4324324, 45.7950639 ], [ 15.4325703, 45.7950675 ], [ 15.4326237, 45.7950737 ], [ 15.4328184, 45.7950811 ], [ 15.4329607, 45.7951482 ], [ 15.4331154, 45.7952174 ], [ 15.4332637, 45.7952822 ], [ 15.4334059, 45.7953514 ], [ 15.4338328, 45.7953574 ], [ 15.4346079, 45.7951194 ], [ 15.4352618, 45.7947528 ], [ 15.4358794, 45.7941155 ], [ 15.4362161, 45.7939794 ], [ 15.4372126, 45.7938962 ], [ 15.4375171, 45.7939118 ], [ 15.4380015, 45.7939833 ], [ 15.438378, 45.7942395 ], [ 15.4390257, 45.7946054 ], [ 15.4391335, 45.794999 ], [ 15.4394916, 45.7953229 ], [ 15.4397812, 45.7954107 ], [ 15.4400071, 45.7954202 ], [ 15.4404458, 45.7953494 ], [ 15.4409851, 45.7952936 ], [ 15.4416094, 45.7956023 ], [ 15.442039, 45.7956123 ], [ 15.4432369, 45.7953438 ], [ 15.4436535, 45.7952955 ], [ 15.4438999, 45.7954341 ], [ 15.4444165, 45.7956234 ], [ 15.4446856, 45.795801 ], [ 15.4450373, 45.7958316 ], [ 15.4457048, 45.7956102 ], [ 15.4464431, 45.7954886 ], [ 15.4469253, 45.7952269 ], [ 15.4476949, 45.7950565 ], [ 15.4478991, 45.7950878 ], [ 15.4486334, 45.7952774 ], [ 15.449169, 45.7951945 ], [ 15.4496234, 45.7947705 ], [ 15.4505224, 45.7948758 ], [ 15.4514049, 45.7948736 ], [ 15.4524939, 45.7953237 ], [ 15.453188, 45.7953143 ], [ 15.4534873, 45.7953649 ], [ 15.4541566, 45.7951845 ], [ 15.454407, 45.7951344 ], [ 15.4544348, 45.7950947 ], [ 15.4547703, 45.7950681 ], [ 15.4554362, 45.7948833 ], [ 15.4555987, 45.7948228 ], [ 15.4557827, 45.7947515 ], [ 15.4559171, 45.7947021 ], [ 15.4565629, 45.7945663 ], [ 15.45663, 45.7945867 ], [ 15.4574334, 45.7948532 ], [ 15.4578857, 45.7949984 ], [ 15.459629, 45.7946943 ], [ 15.4611428, 45.7941501 ], [ 15.4612295, 45.7941068 ], [ 15.4615525, 45.7939467 ], [ 15.4617325, 45.7938631 ], [ 15.4620446, 45.7937123 ], [ 15.4622022, 45.7936654 ], [ 15.4626343, 45.7935393 ], [ 15.4628873, 45.7935804 ], [ 15.4635131, 45.7936861 ], [ 15.4638596, 45.7938532 ], [ 15.4647426, 45.7940606 ], [ 15.4649508, 45.7941685 ], [ 15.4653959, 45.7943978 ], [ 15.4654315, 45.7944194 ], [ 15.4654691, 45.794438 ], [ 15.4661058, 45.794662 ], [ 15.4664094, 45.7947737 ], [ 15.4668179, 45.7948711 ], [ 15.4670673, 45.7949336 ], [ 15.4677808, 45.7951105 ], [ 15.4680569, 45.7951141 ], [ 15.4686433, 45.7951279 ], [ 15.46939392998264, 45.79515083207216 ], [ 15.469393929982642, 45.79515083207216 ], [ 15.4694027, 45.7951511 ], [ 15.4699664, 45.7953452 ], [ 15.4702116, 45.7954505 ], [ 15.4707351, 45.7956734 ], [ 15.471188, 45.795847 ], [ 15.4712826, 45.7958877 ], [ 15.4716488, 45.7961145 ], [ 15.4721465, 45.7964271 ], [ 15.4723659, 45.7965629 ], [ 15.4728295, 45.7967125 ], [ 15.4734537, 45.7969163 ], [ 15.4745474, 45.7973567 ], [ 15.4747742, 45.7974486 ], [ 15.4747948, 45.7974558 ], [ 15.4748223, 45.7974736 ], [ 15.47486, 45.7974951 ], [ 15.4752068, 45.7977076 ], [ 15.4754227, 45.7978084 ], [ 15.4758702, 45.7980219 ], [ 15.4759214, 45.7980518 ], [ 15.4758527, 45.7982391 ], [ 15.4753083, 45.7985167 ], [ 15.475163, 45.7986269 ], [ 15.4749432, 45.7987836 ], [ 15.4747182, 45.7990301 ], [ 15.4746449, 45.7992451 ], [ 15.4746398, 45.7992632 ], [ 15.4746181, 45.7993007 ], [ 15.4743272, 45.7996891 ], [ 15.4742406, 45.7998024 ], [ 15.4740757, 45.8001068 ], [ 15.4740272, 45.8001883 ], [ 15.4739218, 45.8002864 ], [ 15.4738201, 45.8003791 ], [ 15.4737525, 45.800436 ], [ 15.4734469, 45.8005837 ], [ 15.4734026, 45.800609 ], [ 15.4733231, 45.8006466 ], [ 15.4732103, 45.8007692 ], [ 15.4730775, 45.800864 ], [ 15.4727683, 45.8011294 ], [ 15.4726818, 45.8012085 ], [ 15.4726042, 45.8013621 ], [ 15.4725179, 45.8015445 ], [ 15.472273, 45.8017872 ], [ 15.4721216, 45.8019425 ], [ 15.4720575, 45.8021344 ], [ 15.4720049, 45.8022821 ], [ 15.471986, 45.802337 ], [ 15.4719072, 45.8024704 ], [ 15.4717612, 45.8027118 ], [ 15.4716888, 45.8028385 ], [ 15.4716115, 45.8029591 ], [ 15.4715403, 45.8030618 ], [ 15.4714179, 45.8032522 ], [ 15.4713184, 45.8033989 ], [ 15.4712156, 45.8035485 ], [ 15.4711134, 45.8037007 ], [ 15.471033, 45.8038218 ], [ 15.4710247, 45.8038293 ], [ 15.4709967, 45.8039589 ], [ 15.4709323, 45.8042217 ], [ 15.4709204, 45.8042588 ], [ 15.4708945, 45.8043192 ], [ 15.470767, 45.8046343 ], [ 15.4706953, 45.8047994 ], [ 15.470709, 45.8048694 ], [ 15.4707406, 45.8050739 ], [ 15.4707407, 45.8051045 ], [ 15.470732, 45.8051366 ], [ 15.4707026, 45.8052995 ], [ 15.4706627, 45.8054736 ], [ 15.4706431, 45.8055582 ], [ 15.4706242, 45.8055906 ], [ 15.4705812, 45.8056661 ], [ 15.4704804, 45.8058224 ], [ 15.4703379, 45.8060476 ], [ 15.4703194, 45.806083 ], [ 15.4702246, 45.8062749 ], [ 15.470087, 45.8065348 ], [ 15.4700748, 45.8065539 ], [ 15.470067, 45.8066576 ], [ 15.4700464, 45.8068375 ], [ 15.4700375, 45.8069274 ], [ 15.4700235, 45.8070603 ], [ 15.4700124, 45.8071944 ], [ 15.4700051, 45.8072795 ], [ 15.4699977, 45.8073663 ], [ 15.46999, 45.8074575 ], [ 15.4700337, 45.8075696 ], [ 15.4700537, 45.8076318 ], [ 15.4700992, 45.807753 ], [ 15.470142, 45.8078628 ], [ 15.4700289, 45.8079586 ], [ 15.4699673, 45.8080604 ], [ 15.4699175, 45.8081402 ], [ 15.4699285, 45.8082511 ], [ 15.469941, 45.808276 ], [ 15.4700404, 45.808453 ], [ 15.4700671, 45.8085008 ], [ 15.4700823, 45.8085395 ], [ 15.4701628, 45.8086848 ], [ 15.4701778, 45.8087771 ], [ 15.4702821, 45.8088891 ], [ 15.4704516, 45.8090744 ], [ 15.4704794, 45.8091429 ], [ 15.4705017, 45.8091939 ], [ 15.4705111, 45.8092168 ], [ 15.4706116, 45.8094621 ], [ 15.4706367, 45.8095229 ], [ 15.4707284, 45.8097415 ], [ 15.4707264, 45.8098282 ], [ 15.4707362, 45.8102397 ], [ 15.4707405, 45.8103666 ], [ 15.470745, 45.8104097 ], [ 15.4707904, 45.8107612 ], [ 15.4708037, 45.8108778 ], [ 15.4707872, 45.8110099 ], [ 15.4707618, 45.8111851 ], [ 15.4707556, 45.8112525 ], [ 15.4707038, 45.8113273 ], [ 15.4705904, 45.8114855 ], [ 15.4705796, 45.8116211 ], [ 15.4705819, 45.8116636 ], [ 15.4705331, 45.8117374 ], [ 15.4704179, 45.8118164 ], [ 15.4702476, 45.8118972 ], [ 15.4701047, 45.8122666 ], [ 15.4700849, 45.8123309 ], [ 15.4700368, 45.8123697 ], [ 15.4698916, 45.8124027 ], [ 15.4697176, 45.8124437 ], [ 15.4696359, 45.8125085 ], [ 15.4695473, 45.8125845 ], [ 15.4694633, 45.8126795 ], [ 15.4693352, 45.8128348 ], [ 15.4693256, 45.8128963 ], [ 15.4692617, 45.8129331 ], [ 15.4687507, 45.8130041 ], [ 15.4684829, 45.8132488 ], [ 15.4683482, 45.8133047 ], [ 15.4682717, 45.8134607 ], [ 15.4679818, 45.8136095 ], [ 15.4679827, 45.8138083 ], [ 15.4679242, 45.8139525 ], [ 15.467914, 45.8140755 ], [ 15.4679458, 45.8142843 ], [ 15.4677439, 45.8145308 ], [ 15.467501, 45.8146722 ], [ 15.4672726, 45.8148617 ], [ 15.4673469, 45.8149522 ], [ 15.4673383, 45.8150313 ], [ 15.4672538, 45.8150561 ], [ 15.4671051, 45.8151561 ], [ 15.4670661, 45.8152469 ], [ 15.4669868, 45.8153826 ], [ 15.4668885, 45.815638 ], [ 15.4669957, 45.8157404 ], [ 15.4670815, 45.8157419 ], [ 15.4671294, 45.8157903 ], [ 15.4671252, 45.8158875 ], [ 15.4669766, 45.8161297 ], [ 15.466878, 45.8163483 ], [ 15.4667042, 45.8165402 ], [ 15.4666511, 45.816876 ], [ 15.4665051, 45.8170006 ], [ 15.4663855, 45.8171635 ], [ 15.4663474, 45.8172576 ], [ 15.4663093, 45.8173557 ], [ 15.46619, 45.8175185 ], [ 15.4661153, 45.8177206 ], [ 15.4660282, 45.8179973 ], [ 15.4660639, 45.8181025 ], [ 15.4659206, 45.8183945 ], [ 15.4663724, 45.8183645 ], [ 15.4666909, 45.8183171 ], [ 15.4669675, 45.818244 ], [ 15.467317, 45.8183016 ], [ 15.4680886, 45.8182735 ], [ 15.4683351, 45.8181931 ], [ 15.4683693, 45.8181857 ], [ 15.4688869, 45.8180345 ], [ 15.4691451, 45.8179661 ], [ 15.469687, 45.817897 ], [ 15.4699617, 45.8178586 ], [ 15.4704331, 45.8176599 ], [ 15.4710045, 45.8173025 ], [ 15.471165, 45.8172897 ], [ 15.471244032802364, 45.817304822669072 ], [ 15.4714932, 45.8173525 ], [ 15.4717905, 45.8175361 ], [ 15.4720497, 45.8176559 ], [ 15.4724225, 45.817699 ], [ 15.4724352, 45.8177066 ], [ 15.4727195, 45.8177708 ], [ 15.4731355, 45.8178882 ], [ 15.4732668, 45.8178965 ], [ 15.4736519, 45.8179966 ], [ 15.4739007, 45.8179508 ], [ 15.4740809, 45.8179098 ], [ 15.4742988, 45.8179108 ], [ 15.4744433, 45.81793 ], [ 15.474632, 45.8179345 ], [ 15.4749648, 45.817934 ], [ 15.4751537, 45.8179353 ], [ 15.4753372, 45.8179299 ], [ 15.4753773, 45.817929 ], [ 15.4755194, 45.8182122 ], [ 15.4755281, 45.8184865 ], [ 15.4754531, 45.8188193 ], [ 15.4755493, 45.819009 ], [ 15.4757309, 45.8190404 ], [ 15.4758508, 45.8190154 ], [ 15.4761156, 45.8189418 ], [ 15.4763956, 45.8188694 ], [ 15.4765469, 45.8188006 ], [ 15.4768393, 45.8188313 ], [ 15.4769602, 45.8188901 ], [ 15.4770608, 45.8189387 ], [ 15.4772786, 45.8190627 ], [ 15.4773308, 45.8190907 ], [ 15.4775252, 45.8191309 ], [ 15.4777439, 45.8191874 ], [ 15.4779015, 45.8192514 ], [ 15.478144, 45.8193477 ], [ 15.4783855, 45.8194413 ], [ 15.4785219, 45.8195409 ], [ 15.4785259, 45.8195439 ], [ 15.4787278, 45.8197707 ], [ 15.4788212, 45.8199592 ], [ 15.4787592, 45.8200837 ], [ 15.4787531, 45.8202896 ], [ 15.478656, 45.8205489 ], [ 15.4786471, 45.8205606 ], [ 15.4785518, 45.8206437 ], [ 15.4785247, 45.8207399 ], [ 15.4783378, 45.8209122 ], [ 15.4782714, 45.8210805 ], [ 15.4782515, 45.8211109 ], [ 15.4781855, 45.8212321 ], [ 15.4781671, 45.8214025 ], [ 15.4782181, 45.8214526 ], [ 15.4781523, 45.8215871 ], [ 15.4781401, 45.8216004 ], [ 15.4780074, 45.8217002 ], [ 15.4779179, 45.8219501 ], [ 15.4778693, 45.8220296 ], [ 15.4777531, 45.8221578 ], [ 15.4776469, 45.8222734 ], [ 15.4776238, 45.8223669 ], [ 15.4776037, 45.8224576 ], [ 15.477546, 45.8226035 ], [ 15.4775268, 45.8227809 ], [ 15.4775205, 45.822977 ], [ 15.4774397, 45.8230978 ], [ 15.4775127, 45.8232342 ], [ 15.4776104, 45.8233414 ], [ 15.4777236, 45.8235016 ], [ 15.4776021, 45.8236806 ], [ 15.4775083, 45.8240044 ], [ 15.4776023, 45.824153 ], [ 15.477624, 45.8241904 ], [ 15.4776343, 45.8242063 ], [ 15.4776932, 45.8243946 ], [ 15.4776319, 45.8244761 ], [ 15.4777167, 45.8245071 ], [ 15.4777464, 45.8246197 ], [ 15.4777745, 45.8247231 ], [ 15.4777997, 45.824832 ], [ 15.4778958, 45.8249019 ], [ 15.4778863, 45.8249582 ], [ 15.4778726, 45.8250705 ], [ 15.4777864, 45.8250856 ], [ 15.4778106, 45.8251363 ], [ 15.4777848, 45.8252136 ], [ 15.4777511, 45.825305 ], [ 15.4778316, 45.8253915 ], [ 15.4777288, 45.8255459 ], [ 15.4777868, 45.8256393 ], [ 15.4777922, 45.8257305 ], [ 15.4778537, 45.8257941 ], [ 15.4779087, 45.8259702 ], [ 15.477807, 45.8260353 ], [ 15.4778485, 45.8261847 ], [ 15.4779736, 45.8262824 ], [ 15.478006, 45.8264825 ], [ 15.4780967, 45.8265661 ], [ 15.4782434, 45.8266657 ], [ 15.4783388, 45.8268516 ], [ 15.4783647, 45.8268993 ], [ 15.4785242, 45.8270804 ], [ 15.478637, 45.8272117 ], [ 15.4787318, 45.8273144 ], [ 15.4789019, 45.8274927 ], [ 15.4791764, 45.8274934 ], [ 15.4793537, 45.8275053 ], [ 15.4793903, 45.8275045 ], [ 15.4794098, 45.8275196 ], [ 15.4795404, 45.8276134 ], [ 15.4796571, 45.8276988 ], [ 15.4801311, 45.8278433 ], [ 15.4802447, 45.8278816 ], [ 15.4804674, 45.8279863 ], [ 15.4805575, 45.8279769 ], [ 15.4807131, 45.8279806 ], [ 15.4807995, 45.8279923 ], [ 15.4810692, 45.8280327 ], [ 15.4813354, 45.8280511 ], [ 15.4813683, 45.8280615 ], [ 15.4815353, 45.8281062 ], [ 15.4817287, 45.8281605 ], [ 15.4819084, 45.8282114 ], [ 15.4820909, 45.8282646 ], [ 15.4821879, 45.8282729 ], [ 15.48229, 45.8282848 ], [ 15.4823653, 45.8283017 ], [ 15.482409, 45.8283085 ], [ 15.4825121, 45.8283329 ], [ 15.4825972, 45.8283522 ], [ 15.4827159, 45.8284052 ], [ 15.4828284, 45.8284565 ], [ 15.4829542, 45.8285126 ], [ 15.4830846, 45.828573 ], [ 15.4831589, 45.8286087 ], [ 15.483208, 45.8286231 ], [ 15.4833486, 45.8286629 ], [ 15.4834873, 45.8287055 ], [ 15.4836276, 45.828748 ], [ 15.4837084, 45.8287726 ], [ 15.4839119, 45.8288441 ], [ 15.4840423, 45.8288906 ], [ 15.4841837, 45.8289427 ], [ 15.4843101, 45.8290066 ], [ 15.4844362, 45.8290721 ], [ 15.484562, 45.8291374 ], [ 15.4846776, 45.8291982 ], [ 15.4849341, 45.8291809 ], [ 15.4850892, 45.8291699 ], [ 15.4852384, 45.8292007 ], [ 15.4854823, 45.8292548 ], [ 15.4855453, 45.8292545 ], [ 15.4858476, 45.8292464 ], [ 15.4859768, 45.8292232 ], [ 15.4861916, 45.8291863 ], [ 15.4862699, 45.8292106 ], [ 15.4864696, 45.8292773 ], [ 15.486651, 45.8293413 ], [ 15.4867409, 45.8293722 ], [ 15.4868788, 45.8294191 ], [ 15.4869937, 45.8295104 ], [ 15.4871021, 45.829597 ], [ 15.4871719, 45.8296524 ], [ 15.4872146, 45.8296919 ], [ 15.4872258, 45.8296954 ], [ 15.4873907, 45.8297513 ], [ 15.4876295, 45.8298282 ], [ 15.4878649, 45.8299066 ], [ 15.4880871, 45.8299519 ], [ 15.4882328, 45.8299814 ], [ 15.4885454, 45.8300194 ], [ 15.4886537, 45.8300664 ], [ 15.4888546, 45.8301515 ], [ 15.488939, 45.830209 ], [ 15.4890707, 45.8303017 ], [ 15.4892049, 45.8303961 ], [ 15.4893328, 45.8304984 ], [ 15.4893966, 45.8305475 ], [ 15.4894302, 45.8305758 ], [ 15.4895952, 45.8306523 ], [ 15.4897276, 45.8307149 ], [ 15.4898504, 45.8307725 ], [ 15.4899088, 45.8308123 ], [ 15.4900335, 45.8309026 ], [ 15.4903073, 45.8309629 ], [ 15.4906103, 45.8310322 ], [ 15.4909834, 45.8311126 ], [ 15.4910067, 45.8311288 ], [ 15.4911522, 45.8312299 ], [ 15.4912782, 45.8313153 ], [ 15.4913879, 45.8314149 ], [ 15.4914407, 45.8314666 ], [ 15.4915385, 45.8315575 ], [ 15.4915834, 45.831604 ], [ 15.491771, 45.8317949 ], [ 15.4918766, 45.8318454 ], [ 15.492066, 45.8319291 ], [ 15.4922201, 45.8319636 ], [ 15.492712, 45.8320154 ], [ 15.4927362, 45.8320249 ], [ 15.4927442, 45.8320146 ], [ 15.4928761, 45.8318914 ], [ 15.493087, 45.831785 ], [ 15.4932956, 45.831705 ], [ 15.4934882, 45.8316311 ], [ 15.4936968, 45.8315627 ], [ 15.4938817, 45.8315192 ], [ 15.4940609, 45.8314759 ], [ 15.4941632, 45.8313855 ], [ 15.4943752, 45.8311683 ], [ 15.4944664, 45.8309199 ], [ 15.4944997, 45.83079 ], [ 15.4945788, 45.8306044 ], [ 15.4946675, 45.8303806 ], [ 15.4947528, 45.8302408 ], [ 15.4948537, 45.8300779 ], [ 15.4954084, 45.8296426 ], [ 15.495495, 45.8295924 ], [ 15.4955789, 45.8295632 ], [ 15.4956252, 45.8295552 ], [ 15.4958765, 45.8294235 ], [ 15.4959521, 45.8293638 ], [ 15.4961391, 45.8292919 ], [ 15.4962478, 45.82927 ], [ 15.4965557, 45.8292542 ], [ 15.4966074, 45.8292519 ], [ 15.4968442, 45.8292271 ], [ 15.4969367, 45.829215 ], [ 15.4972946, 45.8290844 ], [ 15.4976035, 45.8291391 ], [ 15.4980095, 45.8291206 ], [ 15.4983668, 45.8291292 ], [ 15.4986597, 45.8290278 ], [ 15.4988174, 45.828996 ], [ 15.4988527, 45.8288127 ], [ 15.4989925, 45.8287011 ], [ 15.4991315, 45.8286866 ], [ 15.4993436, 45.8286564 ], [ 15.5004097, 45.8283067 ], [ 15.5009412, 45.8283062 ], [ 15.5010136, 45.8283122 ], [ 15.5015447, 45.8284339 ], [ 15.501558, 45.828409 ], [ 15.5019999, 45.8285827 ], [ 15.5022299, 45.8286323 ], [ 15.5024375, 45.8286631 ], [ 15.5029128, 45.8285468 ], [ 15.5029213, 45.8283961 ], [ 15.5029533, 45.8281881 ], [ 15.5028852, 45.8280113 ], [ 15.5029068, 45.82783 ], [ 15.5030378, 45.8274992 ], [ 15.5030169, 45.8272096 ], [ 15.5029639, 45.8269717 ], [ 15.502936, 45.8267546 ], [ 15.5029468, 45.8265677 ], [ 15.5027996, 45.8264164 ], [ 15.5022963, 45.8261497 ], [ 15.5021914, 45.8260705 ], [ 15.5021606, 45.8260211 ], [ 15.5021624, 45.825964 ], [ 15.5021601, 45.8258095 ], [ 15.5022327, 45.8255859 ], [ 15.5022322, 45.8255516 ], [ 15.502242, 45.825317 ], [ 15.5021407, 45.8249556 ], [ 15.5021433, 45.8247783 ], [ 15.5020437, 45.8241767 ], [ 15.5021835, 45.8240498 ], [ 15.5022106, 45.8240362 ], [ 15.5021787, 45.8239221 ], [ 15.5021036, 45.8238235 ], [ 15.5020328, 45.8236716 ], [ 15.5018638, 45.8234995 ], [ 15.5016661, 45.8232476 ], [ 15.5014141, 45.8230113 ], [ 15.5012034, 45.8227937 ], [ 15.5011301, 45.8226379 ], [ 15.5010571, 45.822507 ], [ 15.5009921, 45.8222061 ], [ 15.5010245, 45.8221867 ], [ 15.5011405, 45.8221038 ], [ 15.5012509, 45.8220171 ], [ 15.5021785, 45.8218838 ], [ 15.5028048, 45.8218331 ], [ 15.5029105, 45.821796 ], [ 15.5030067, 45.8218315 ], [ 15.5032775, 45.8218903 ], [ 15.5033815, 45.8219086 ], [ 15.503693, 45.8219577 ], [ 15.5037532, 45.821959 ], [ 15.5040614, 45.8219662 ], [ 15.5042874, 45.8219548 ], [ 15.5043746, 45.8219465 ], [ 15.5044211, 45.8219519 ], [ 15.5044894, 45.8219589 ], [ 15.5045798, 45.821981 ], [ 15.5046696, 45.8219823 ], [ 15.504719, 45.8219876 ], [ 15.5048117, 45.8219964 ], [ 15.5049397, 45.8219763 ], [ 15.505108, 45.8219464 ], [ 15.5054701, 45.8219072 ], [ 15.505563, 45.8219179 ], [ 15.505993, 45.822027 ], [ 15.5062794, 45.8220285 ], [ 15.5065115, 45.8220533 ], [ 15.5066068, 45.8220488 ], [ 15.5067483, 45.8220344 ], [ 15.5069119, 45.8220216 ], [ 15.5071348, 45.8219874 ], [ 15.5074371, 45.822128 ], [ 15.5076231, 45.8219911 ], [ 15.5079345, 45.8218723 ], [ 15.508136, 45.8218459 ], [ 15.5085227, 45.821818 ], [ 15.508841, 45.8217619 ], [ 15.5090264, 45.8216022 ], [ 15.509134, 45.8215099 ], [ 15.5093912, 45.8213991 ], [ 15.5096425, 45.8214276 ], [ 15.5098363, 45.8212754 ], [ 15.5099034, 45.8212118 ], [ 15.5099942, 45.8210929 ], [ 15.5102641, 45.8209267 ], [ 15.5104895, 45.8208735 ], [ 15.5106522, 45.8208225 ], [ 15.5108185, 45.8209833 ], [ 15.5109803, 45.8210411 ], [ 15.5110296, 45.821056 ], [ 15.511142, 45.8210836 ], [ 15.511271, 45.8211379 ], [ 15.5115271, 45.8212885 ], [ 15.5116525, 45.8214514 ], [ 15.5118072, 45.8215723 ], [ 15.5119339, 45.8216552 ], [ 15.5120995, 45.8217721 ], [ 15.5122453, 45.8218414 ], [ 15.5124893, 45.8219216 ], [ 15.5125426, 45.8220146 ], [ 15.5125298, 45.8222321 ], [ 15.5126945, 45.8224673 ], [ 15.5128646, 45.8226947 ], [ 15.5129946, 45.8228062 ], [ 15.5131546, 45.8229193 ], [ 15.5131821, 45.822937 ], [ 15.5134281, 45.8229694 ], [ 15.5136164, 45.8229793 ], [ 15.5139936, 45.8230352 ], [ 15.5140701, 45.8230479 ], [ 15.5142963, 45.8230385 ], [ 15.5144974, 45.8229931 ], [ 15.5146471, 45.8229842 ], [ 15.514677, 45.8229648 ], [ 15.5148095, 45.8228971 ], [ 15.5150015, 45.8228072 ], [ 15.5152053, 45.8227578 ], [ 15.5154738, 45.8226794 ], [ 15.515658053438401, 45.822584743285674 ], [ 15.515658053438402, 45.822584743285674 ], [ 15.515685, 45.8225709 ], [ 15.5158501, 45.8225047 ], [ 15.516386, 45.8224165 ], [ 15.5165594, 45.8223617 ], [ 15.5166948, 45.8223034 ], [ 15.5168187, 45.8222127 ], [ 15.5173085, 45.8219894 ], [ 15.517379, 45.8219564 ], [ 15.5176849, 45.8218185 ], [ 15.5179098, 45.8217405 ], [ 15.518102, 45.8216569 ], [ 15.5184226, 45.8215837 ], [ 15.5185928, 45.8214851 ], [ 15.5189555, 45.8213258 ], [ 15.519102, 45.8212789 ], [ 15.5192707, 45.8212584 ], [ 15.519795, 45.8211397 ], [ 15.5199691, 45.8211173 ], [ 15.5201789, 45.8211023 ], [ 15.5204959, 45.8211454 ], [ 15.5207918, 45.8212327 ], [ 15.5209781, 45.8214505 ], [ 15.5210516, 45.8216063 ], [ 15.5211129, 45.82185 ], [ 15.5210843, 45.8219303 ], [ 15.5211362, 45.8219394 ], [ 15.5213033, 45.8219819 ], [ 15.5214543, 45.8220436 ], [ 15.5214873, 45.8220605 ], [ 15.5216946, 45.8222285 ], [ 15.5217741, 45.8222584 ], [ 15.5218233, 45.8222638 ], [ 15.521972, 45.8225181 ], [ 15.5222012, 45.8228462 ], [ 15.5223352, 45.8230375 ], [ 15.5225206, 45.8230302 ], [ 15.5227029, 45.8230136 ], [ 15.5230287, 45.8229288 ], [ 15.5231635, 45.823166 ], [ 15.5243592, 45.8234059 ], [ 15.5249195, 45.8234776 ], [ 15.525629, 45.823508 ], [ 15.5258551, 45.8234908 ], [ 15.5265452, 45.8235023 ], [ 15.5268486, 45.823557 ], [ 15.5273416, 45.8236883 ], [ 15.5276285, 45.8237183 ], [ 15.5278419, 45.8237527 ], [ 15.528006, 45.8237896 ], [ 15.5283659, 45.823941 ], [ 15.5289192, 45.8242566 ], [ 15.5293409, 45.8245182 ], [ 15.5295355, 45.8247397 ], [ 15.5296805, 45.8249329 ], [ 15.529743, 45.8250792 ], [ 15.5299616, 45.8254377 ], [ 15.5300034, 45.8254889 ], [ 15.5301091, 45.82561 ], [ 15.5301584, 45.8257831 ], [ 15.5303186, 45.8260783 ], [ 15.5304256, 45.8262294 ], [ 15.5304722, 45.8263335 ], [ 15.5305937, 45.8264923 ], [ 15.5308021, 45.8266503 ], [ 15.5309591, 45.8267968 ], [ 15.5310819, 45.8268707 ], [ 15.5313397, 45.8270574 ], [ 15.5314357, 45.8271524 ], [ 15.5314916, 45.8272093 ], [ 15.5315466, 45.8272588 ], [ 15.5316887, 45.8273766 ], [ 15.531889, 45.827496 ], [ 15.5322018, 45.8277045 ], [ 15.5324966, 45.8279396 ], [ 15.5325982, 45.828009 ], [ 15.5328621, 45.8281418 ], [ 15.5330183, 45.8282309 ], [ 15.5331708, 45.8283377 ], [ 15.5333557, 45.8284891 ], [ 15.533614, 45.8285882 ], [ 15.5339489, 45.8287038 ], [ 15.5342988, 45.8289083 ], [ 15.5345118, 45.8289971 ], [ 15.5350661, 45.829176 ], [ 15.5352344, 45.8292023 ], [ 15.5355495, 45.8292251 ], [ 15.53573, 45.8292754 ], [ 15.5359444, 45.8292884 ], [ 15.5361267, 45.8292763 ], [ 15.5362054, 45.8293986 ], [ 15.5362554, 45.829545 ], [ 15.5363609, 45.8296796 ], [ 15.5363427, 45.829707 ], [ 15.5361449, 45.8297313 ], [ 15.5361187, 45.829744 ], [ 15.536061, 45.8298604 ], [ 15.536, 45.8299936 ], [ 15.5360112, 45.8302748 ], [ 15.5358705, 45.8303915 ], [ 15.53586, 45.8304757 ], [ 15.5359306, 45.8305879 ], [ 15.535787, 45.830847 ], [ 15.5357446, 45.8310007 ], [ 15.5356652, 45.8311529 ], [ 15.5354985, 45.8314583 ], [ 15.5354906, 45.8316118 ], [ 15.5354208, 45.8320282 ], [ 15.5355707, 45.8322885 ], [ 15.5357589, 45.8324792 ], [ 15.535857, 45.8325684 ], [ 15.5358972, 45.8326781 ], [ 15.536102, 45.8329079 ], [ 15.5361403, 45.832988 ], [ 15.5361366, 45.8330814 ], [ 15.536228, 45.8332469 ], [ 15.5363831, 45.8333528 ], [ 15.536551, 45.8335035 ], [ 15.5366958, 45.8336151 ], [ 15.5367854, 45.8336892 ], [ 15.5368104, 45.8338391 ], [ 15.536925, 45.8339547 ], [ 15.5370024, 45.8340048 ], [ 15.5372718, 45.8341509 ], [ 15.5373914, 45.8342562 ], [ 15.5376173, 45.8344012 ], [ 15.5378483, 45.8344618 ], [ 15.5379851, 45.8345789 ], [ 15.538159, 45.8348594 ], [ 15.5384489, 45.8351139 ], [ 15.5386403, 45.8351719 ], [ 15.5388069, 45.8352491 ], [ 15.5388897, 45.8354655 ], [ 15.5388851, 45.8356505 ], [ 15.5390015, 45.8358121 ], [ 15.5392068, 45.8360627 ], [ 15.5392718, 45.8361583 ], [ 15.5392786, 45.8362488 ], [ 15.5392522, 45.8364061 ], [ 15.5391582, 45.8366324 ], [ 15.5391352, 45.836833 ], [ 15.5390635, 45.8369796 ], [ 15.538995, 45.8371521 ], [ 15.5388916, 45.8374339 ], [ 15.5388234, 45.8376276 ], [ 15.5388289, 45.8377922 ], [ 15.5388821, 45.8379765 ], [ 15.5387341, 45.8381329 ], [ 15.5386619, 45.8382408 ], [ 15.5386341, 45.8384665 ], [ 15.5386954, 45.8386554 ], [ 15.5387396, 45.8387678 ], [ 15.5386976, 45.8389437 ], [ 15.5386131, 45.8391108 ], [ 15.5385466, 45.839395 ], [ 15.5384904, 45.8395193 ], [ 15.5383846, 45.8396681 ], [ 15.5383468, 45.8398555 ], [ 15.5382838, 45.8400409 ], [ 15.5381445, 45.8401714 ], [ 15.5380271, 45.8403507 ], [ 15.5380348, 45.8404893 ], [ 15.5381084, 45.8406144 ], [ 15.5380957, 45.840961 ], [ 15.5381448, 45.8413581 ], [ 15.5381375, 45.8415558 ], [ 15.5380265, 45.8417102 ], [ 15.5380031, 45.8418979 ], [ 15.537924, 45.8420705 ], [ 15.5378684, 45.8421985 ], [ 15.5377661, 45.8423144 ], [ 15.5378091, 45.8423883 ], [ 15.5377852, 45.8424358 ], [ 15.5377918, 45.8424933 ], [ 15.5377433, 45.8425476 ], [ 15.537736, 45.8425988 ], [ 15.5377682, 45.8426853 ], [ 15.5377359, 45.8427272 ], [ 15.5377287, 45.8427827 ], [ 15.5376853, 45.8428209 ], [ 15.5376505, 45.842877 ], [ 15.5376562, 45.8429526 ], [ 15.5376322, 45.8430594 ], [ 15.5375809, 45.843188 ], [ 15.5375626, 45.8433109 ], [ 15.5374281, 45.8435418 ], [ 15.5374306, 45.8436075 ], [ 15.5373799, 45.8438204 ], [ 15.5374185, 45.843888 ], [ 15.5374447, 45.8439547 ], [ 15.537457, 45.8440208 ], [ 15.5375025, 45.8440808 ], [ 15.5375328, 45.8441493 ], [ 15.5375417, 45.8442464 ], [ 15.5375583, 45.8443086 ], [ 15.537542, 45.8443947 ], [ 15.5375478, 45.8444796 ], [ 15.5375799, 45.8445615 ], [ 15.5376188, 45.8446308 ], [ 15.5376313, 45.8447072 ], [ 15.537627, 45.8447601 ], [ 15.5376431, 45.8448148 ], [ 15.5378277, 45.8449845 ], [ 15.5378485, 45.8451184 ], [ 15.5378465, 45.845176 ], [ 15.5377938, 45.8452438 ], [ 15.5377271, 45.8453138 ], [ 15.5376086, 45.8456668 ], [ 15.5377698, 45.8459066 ], [ 15.5378725, 45.8459379 ], [ 15.5379426, 45.8459763 ], [ 15.5379592, 45.846051 ], [ 15.5379904, 45.8461238 ], [ 15.5381166, 45.8462143 ], [ 15.5381393, 45.8462327 ], [ 15.5382237, 45.8463356 ], [ 15.5383511, 45.8464906 ], [ 15.5383643, 45.8465297 ], [ 15.5384047, 45.8465633 ], [ 15.5384543, 45.8466817 ], [ 15.5384532, 45.8467447 ], [ 15.5385114, 45.8469243 ], [ 15.5385277, 45.847162 ], [ 15.538554, 45.8475987 ], [ 15.5386033, 45.8475845 ], [ 15.540715207281517, 45.846931072626781 ], [ 15.540715207281519, 45.846931072626781 ], [ 15.5416996, 45.8466265 ], [ 15.5417289, 45.8466179 ], [ 15.5424893, 45.8463827 ], [ 15.5426521, 45.8463373 ], [ 15.542782, 45.8463025 ], [ 15.5429194, 45.8462584 ], [ 15.5429893, 45.8462389 ], [ 15.5430338, 45.8462265 ], [ 15.5430784, 45.8462141 ], [ 15.5431956, 45.8462221 ], [ 15.5433343, 45.8462264 ], [ 15.5434728, 45.8462343 ], [ 15.5436034, 45.8462368 ], [ 15.5439336, 45.8462288 ], [ 15.5439681, 45.846228 ], [ 15.5444014, 45.8462177 ], [ 15.5448537, 45.8462001 ], [ 15.5452042, 45.8461501 ], [ 15.5454302, 45.8461649 ], [ 15.5454762, 45.8461679 ], [ 15.5459354, 45.8462228 ], [ 15.5462803, 45.8461637 ], [ 15.5466235, 45.8461638 ], [ 15.5469674, 45.846181 ], [ 15.5471515, 45.8462052 ], [ 15.5474207, 45.8462399 ], [ 15.5474586, 45.8462448 ], [ 15.547826, 45.8462393 ], [ 15.5482039, 45.8462047 ], [ 15.5483948, 45.8461872 ], [ 15.5488031, 45.8462259 ], [ 15.5491284, 45.8462783 ], [ 15.5491654, 45.8462758 ], [ 15.5494581, 45.8462563 ], [ 15.5497223, 45.8461533 ], [ 15.5499561, 45.8459948 ], [ 15.5500274, 45.8459597 ], [ 15.550138, 45.8459047 ], [ 15.5502383, 45.8458554 ], [ 15.5503543, 45.8457983 ], [ 15.550465, 45.8457434 ], [ 15.5505916, 45.8456863 ], [ 15.550697, 45.8456295 ], [ 15.5508077, 45.8455689 ], [ 15.5510161, 45.8454529 ], [ 15.5509539, 45.8452682 ], [ 15.55088, 45.8449591 ], [ 15.550853, 45.8448324 ], [ 15.5508987, 45.8443514 ], [ 15.5509229, 45.8440875 ], [ 15.5509903, 45.8437729 ], [ 15.5510519, 45.8434989 ], [ 15.5511127, 45.8433642 ], [ 15.5513098, 45.8429235 ], [ 15.5514935, 45.8424128 ], [ 15.5515867, 45.8421538 ], [ 15.5515806, 45.8419603 ], [ 15.5515729, 45.8416507 ], [ 15.5517711, 45.8414692 ], [ 15.5521179, 45.8411525 ], [ 15.5521768, 45.8410999 ], [ 15.55218, 45.8404868 ], [ 15.5521786, 45.8403842 ], [ 15.5522692, 45.8401442 ], [ 15.5525592, 45.8400142 ], [ 15.5528788, 45.8397615 ], [ 15.5532294, 45.8394826 ], [ 15.5532976, 45.8394291 ], [ 15.5534361, 45.8392443 ], [ 15.5535625, 45.8390805 ], [ 15.5537423, 45.8389387 ], [ 15.5539503, 45.838777 ], [ 15.5541555, 45.8386521 ], [ 15.5543454, 45.8385391 ], [ 15.5546291, 45.8384073 ], [ 15.5550282, 45.8382243 ], [ 15.5552527, 45.8381218 ], [ 15.5555796, 45.837933 ], [ 15.556099, 45.8376105 ], [ 15.5562492, 45.837576 ], [ 15.5568751, 45.8374355 ], [ 15.5571093, 45.8373527 ], [ 15.5573248, 45.8372736 ], [ 15.5578028, 45.8369172 ], [ 15.5581688, 45.8364203 ], [ 15.5581938, 45.836403 ], [ 15.5585042, 45.8361783 ], [ 15.5587155, 45.8358239 ], [ 15.5588948, 45.8356443 ], [ 15.5590337, 45.8352877 ], [ 15.5590587, 45.8348708 ], [ 15.5590608, 45.8348088 ], [ 15.5591509, 45.8345408 ], [ 15.5593823, 45.8342735 ], [ 15.5598656, 45.8344589 ], [ 15.560654, 45.8351018 ], [ 15.5606889, 45.8351285 ], [ 15.5606172, 45.8353505 ], [ 15.5605945, 45.8357214 ], [ 15.5610686, 45.8363343 ], [ 15.5612514, 45.8365724 ], [ 15.5620323, 45.8379471 ], [ 15.562168, 45.8381829 ], [ 15.5622678, 45.8389525 ], [ 15.5623212, 45.8393563 ], [ 15.5623347, 45.8394174 ], [ 15.5624489, 45.8399015 ], [ 15.5622091, 45.840645 ], [ 15.5620412, 45.8411467 ], [ 15.5620514, 45.8412016 ], [ 15.5621539, 45.841739 ], [ 15.5621813, 45.841881 ], [ 15.5621755, 45.8421168 ], [ 15.5622607, 45.8425446 ], [ 15.5622709, 45.8425816 ], [ 15.5623314, 45.8428384 ], [ 15.5629416, 45.8438958 ], [ 15.5636662, 45.8442324 ], [ 15.5648304, 45.8447725 ], [ 15.5652376, 45.8451051 ], [ 15.5655112, 45.845329 ], [ 15.5657087, 45.8454903 ], [ 15.5658021, 45.8456471 ], [ 15.5660341, 45.8460189 ], [ 15.5660888, 45.8461058 ], [ 15.5663843, 45.8463259 ], [ 15.5667849, 45.8466207 ], [ 15.5670264, 45.8468015 ], [ 15.5680674, 45.8474849 ], [ 15.5682682, 45.8476669 ], [ 15.5687622, 45.8481221 ], [ 15.5688514, 45.8482024 ], [ 15.569347, 45.8485569 ], [ 15.5699697, 45.8490039 ], [ 15.5702841, 45.849204 ], [ 15.5703484, 45.8495068 ], [ 15.5704705, 45.8500918 ], [ 15.5705109, 45.8502716 ], [ 15.5705972, 45.8503608 ], [ 15.5708333, 45.8506066 ], [ 15.570986, 45.8509394 ], [ 15.5711052, 45.8511275 ], [ 15.5713661, 45.851544 ], [ 15.5714901, 45.8516439 ], [ 15.5715124, 45.8516617 ], [ 15.5715657, 45.8518583 ], [ 15.5716288, 45.8520928 ], [ 15.5717455, 45.8525158 ], [ 15.5718434, 45.8527563 ], [ 15.5719512, 45.8530299 ], [ 15.5718528, 45.8531712 ], [ 15.5717576, 45.8533059 ], [ 15.5717189, 45.8534405 ], [ 15.571635, 45.8537101 ], [ 15.5717003, 45.8536701 ], [ 15.5718061, 45.8536035 ], [ 15.5718404, 45.8535816 ], [ 15.5719088, 45.8535397 ], [ 15.5719905, 45.8535409 ], [ 15.572063, 45.8535619 ], [ 15.5724174, 45.853524 ], [ 15.5725501, 45.8535716 ], [ 15.572565, 45.8535212 ], [ 15.5723516, 45.8533276 ], [ 15.5726462, 45.8532901 ], [ 15.5726864, 45.8532439 ], [ 15.5728226, 45.8533194 ], [ 15.5728882, 45.8532928 ], [ 15.5730028, 45.8531956 ], [ 15.5730754, 45.8530168 ], [ 15.5731687, 45.8529522 ], [ 15.573304, 45.8529755 ], [ 15.5733503, 45.8529139 ], [ 15.5734477, 45.8529221 ], [ 15.5735191, 45.852864 ], [ 15.5736062, 45.8528129 ], [ 15.5738329, 45.8526402 ], [ 15.5738526, 45.852495 ], [ 15.5743586, 45.8523156 ], [ 15.5746254, 45.8523028 ], [ 15.5747905, 45.8522178 ], [ 15.5748859, 45.8520858 ], [ 15.5752554, 45.8520036 ], [ 15.5755168, 45.8518594 ], [ 15.5757208, 45.8516355 ], [ 15.5758967, 45.8516476 ], [ 15.5760531, 45.8515935 ], [ 15.576092, 45.8514751 ], [ 15.5762562, 45.8513264 ], [ 15.5765553, 45.85118 ], [ 15.5766798, 45.851106 ], [ 15.5767752, 45.8509739 ], [ 15.5768693, 45.8507626 ], [ 15.5770219, 45.8502764 ], [ 15.5771931, 45.8501741 ], [ 15.5776264, 45.8499665 ], [ 15.5781978, 45.8497515 ], [ 15.5782384, 45.8497359 ], [ 15.5784783, 45.8496088 ], [ 15.5786181, 45.8495043 ], [ 15.5789695, 45.849291 ], [ 15.5789526, 45.8492083 ], [ 15.579205, 45.849074 ], [ 15.5793346, 45.8489327 ], [ 15.5794184, 45.8488662 ], [ 15.5795601, 45.8486879 ], [ 15.5796716, 45.848597 ], [ 15.5799415, 45.8485814 ], [ 15.5800341, 45.8484735 ], [ 15.5801181, 45.8484135 ], [ 15.5801496, 45.8484348 ], [ 15.5801413, 45.8485034 ], [ 15.5802891, 45.8485129 ], [ 15.5803734, 45.8484728 ], [ 15.5805377, 45.8483401 ], [ 15.5808601, 45.848072 ], [ 15.5810871, 45.847919 ], [ 15.5815321, 45.8478652 ], [ 15.5816451, 45.8476644 ], [ 15.5822228, 45.8474494 ], [ 15.5825668, 45.8473459 ], [ 15.5827195, 45.8472763 ], [ 15.5829514, 45.8472422 ], [ 15.5830605, 45.8471899 ], [ 15.583164, 45.847181 ], [ 15.5833013, 45.8471251 ], [ 15.5836371, 45.8471071 ], [ 15.5839157, 45.8470437 ], [ 15.5842391, 45.8470413 ], [ 15.5844579, 45.8469757 ], [ 15.5845071, 45.8469051 ], [ 15.5846192, 45.8468493 ], [ 15.5848326, 45.8468412 ], [ 15.585102, 45.8467888 ], [ 15.5855594, 45.8469319 ], [ 15.585679, 45.8469419 ], [ 15.5859956, 45.8468997 ], [ 15.5864756, 45.8468637 ], [ 15.5867686, 45.8469243 ], [ 15.587076, 45.8468939 ], [ 15.5873419, 45.8470279 ], [ 15.587873520981564, 45.846873249023403 ], [ 15.587873520981566, 45.846873249023403 ], [ 15.5897585, 45.8463249 ], [ 15.5907139, 45.8463677 ], [ 15.5916053, 45.846738 ], [ 15.5916342, 45.846573 ], [ 15.5921423, 45.8461387 ], [ 15.5929481, 45.8460514 ], [ 15.5929039, 45.8454414 ], [ 15.5931666, 45.8451703 ], [ 15.5934975, 45.8450552 ], [ 15.5938769, 45.8448678 ], [ 15.5942524, 45.8448244 ], [ 15.5954635, 45.8447085 ], [ 15.596771, 45.8446859 ], [ 15.5971098, 45.8445443 ], [ 15.5976693, 45.8443148 ], [ 15.5977262, 45.8443384 ], [ 15.5981512, 45.8441234 ], [ 15.598338, 45.843762 ], [ 15.5985397, 45.8433763 ], [ 15.5987796, 45.843308 ], [ 15.599957, 45.8432187 ], [ 15.6005216, 45.8430791 ], [ 15.6014212, 45.8429226 ], [ 15.6015812, 45.8429165 ], [ 15.6017654, 45.8427348 ], [ 15.6025324, 45.8425294 ], [ 15.6036534, 45.8424473 ], [ 15.603952, 45.8421877 ], [ 15.6041369, 45.8421791 ], [ 15.6044332, 45.8419611 ], [ 15.6048399, 45.8417704 ], [ 15.6052147, 45.8414809 ], [ 15.6058334, 45.8413822 ], [ 15.6064423, 45.8411191 ], [ 15.6077416, 45.8407323 ], [ 15.6089215, 45.8406342 ], [ 15.6092737, 45.840102 ], [ 15.6094761, 45.8398916 ], [ 15.6095599, 45.8395663 ], [ 15.6097908, 45.8390837 ], [ 15.6099895, 45.8391387 ], [ 15.6102967, 45.838984 ], [ 15.6105232, 45.8387317 ], [ 15.6106744, 45.8386183 ], [ 15.6110025, 45.8384284 ], [ 15.611075898924616, 45.838367371680654 ], [ 15.6111627, 45.8382952 ], [ 15.611294, 45.8381835 ], [ 15.6114306, 45.8380709 ], [ 15.6114706, 45.8380398 ], [ 15.6115777, 45.8380605 ], [ 15.6124189, 45.8379484 ], [ 15.6127264, 45.8378136 ], [ 15.6136208, 45.8375518 ], [ 15.6138928, 45.8373779 ], [ 15.6140143, 45.8373459 ], [ 15.6140709, 45.837205 ], [ 15.6140249, 45.8369709 ], [ 15.6137578, 45.8366561 ], [ 15.6130491, 45.8359383 ], [ 15.6126418, 45.8355306 ], [ 15.612647, 45.8353333 ], [ 15.6128433, 45.835136 ], [ 15.613498, 45.8349602 ], [ 15.6138867, 45.834956 ], [ 15.6142771, 45.8350241 ], [ 15.6148991, 45.8350678 ], [ 15.6154085, 45.8352815 ], [ 15.6161247, 45.8357604 ], [ 15.6165751, 45.8357116 ], [ 15.617295, 45.8355044 ], [ 15.6174993, 45.8350967 ], [ 15.6175723, 45.8348504 ], [ 15.6177536, 45.8345394 ], [ 15.6176692, 45.8341151 ], [ 15.6178575, 45.8341219 ], [ 15.6180229, 45.8340872 ], [ 15.6183141, 45.8339306 ], [ 15.6190862, 45.8340446 ], [ 15.619834, 45.8340279 ], [ 15.6203246, 45.8339481 ], [ 15.6208078, 45.8338224 ], [ 15.6210128, 45.8334751 ], [ 15.6210827, 45.8333568 ], [ 15.6214568, 45.8329779 ], [ 15.6220489, 45.8329497 ], [ 15.6227764, 45.8329572 ], [ 15.62318, 45.8329047 ], [ 15.6239109, 45.8329187 ], [ 15.6240477, 45.832869 ], [ 15.6244468, 45.8322092 ], [ 15.6254107, 45.831699 ], [ 15.6260697, 45.8315802 ], [ 15.6265149, 45.831582 ], [ 15.62681, 45.8317322 ], [ 15.626992, 45.8318816 ], [ 15.6272049, 45.8325654 ], [ 15.6280852, 45.8329594 ], [ 15.6289201, 45.8329898 ], [ 15.6290911, 45.8329288 ], [ 15.6292855, 45.8326417 ], [ 15.6296283, 45.8324078 ], [ 15.6300102, 45.832099 ], [ 15.6301081, 45.831563 ], [ 15.6301503, 45.8314815 ], [ 15.6304411, 45.8313118 ], [ 15.6311595, 45.8310432 ], [ 15.6322781, 45.8307198 ], [ 15.6326776, 45.8305804 ], [ 15.6328632, 45.830476 ], [ 15.6331029, 45.8303649 ], [ 15.633457, 45.830248 ], [ 15.6337739, 45.8300821 ], [ 15.6338373, 45.8298783 ], [ 15.6338001, 45.8294845 ], [ 15.6336897, 45.8293057 ], [ 15.6332695, 45.8290689 ], [ 15.6331002, 45.8290337 ], [ 15.6330789, 45.8285024 ], [ 15.6331686, 45.8283151 ], [ 15.6333564, 45.8280326 ], [ 15.6335611, 45.8278485 ], [ 15.6340155, 45.8277881 ], [ 15.6340514, 45.8274693 ], [ 15.6340271, 45.8271068 ], [ 15.6339421, 45.8268882 ], [ 15.6337369, 45.8267618 ], [ 15.6338307, 45.8265742 ], [ 15.6341433, 45.8262795 ], [ 15.6343413, 45.8261786 ], [ 15.6345869, 45.8259926 ], [ 15.6343893, 45.825557 ], [ 15.6347404, 45.8253086 ], [ 15.6348355, 45.8251949 ], [ 15.6349759, 45.8251265 ], [ 15.6351447, 45.8251689 ], [ 15.6353438, 45.8252795 ], [ 15.635511757103291, 45.825297343818093 ], [ 15.6357316, 45.8253207 ], [ 15.6360351, 45.8251731 ], [ 15.6360615, 45.8249966 ], [ 15.6363991, 45.8246474 ], [ 15.6366893, 45.8246143 ], [ 15.6367931, 45.8246525 ], [ 15.6368471, 45.8247253 ], [ 15.6371265, 45.8247154 ], [ 15.6375109, 45.8245936 ], [ 15.6376403, 45.8243462 ], [ 15.6378091, 45.8240964 ], [ 15.6380626, 45.8239458 ], [ 15.6385979, 45.8237097 ], [ 15.6390921, 45.8232768 ], [ 15.6394613, 45.8228787 ], [ 15.6395384, 45.8227171 ], [ 15.6395139, 45.8225494 ], [ 15.6394083, 45.8223475 ], [ 15.6395563, 45.8219969 ], [ 15.6395384, 45.8218718 ], [ 15.6397086, 45.8216996 ], [ 15.6400277, 45.8215377 ], [ 15.640517, 45.8213427 ], [ 15.6408241, 45.8210605 ], [ 15.6410354, 45.8209111 ], [ 15.6418416, 45.8204525 ], [ 15.6418987, 45.82042 ], [ 15.6422726, 45.8204166 ], [ 15.6426981, 45.8205844 ], [ 15.6430255, 45.8207723 ], [ 15.6431635, 45.8210061 ], [ 15.6432365, 45.821162 ], [ 15.643358, 45.8212816 ], [ 15.6435492, 45.8214889 ], [ 15.6437569, 45.8216687 ], [ 15.6438064, 45.8220465 ], [ 15.6440736, 45.8223259 ], [ 15.6442339, 45.8227442 ], [ 15.6446318, 45.8232029 ], [ 15.6448889, 45.8233243 ], [ 15.6455141, 45.8234495 ], [ 15.646052, 45.8237062 ], [ 15.6464944, 45.8240854 ], [ 15.6465472, 45.8242606 ], [ 15.6465961, 45.8244134 ], [ 15.646732, 45.8246411 ], [ 15.6470302, 45.8248564 ], [ 15.6472816, 45.8249108 ], [ 15.6476594, 45.8249072 ], [ 15.6479831, 45.825097 ], [ 15.6480251, 45.8254291 ], [ 15.6479348, 45.8258032 ], [ 15.647819, 45.8261058 ], [ 15.6478391, 45.8263814 ], [ 15.6480648, 45.8265702 ], [ 15.6483611, 45.8266992 ], [ 15.6484363, 45.8267404 ], [ 15.6486255, 45.8268439 ], [ 15.6488272, 45.8270232 ], [ 15.6489727, 45.8271888 ], [ 15.6493747, 45.8278503 ], [ 15.6497542, 45.8285184 ], [ 15.6501155, 45.8292041 ], [ 15.6504417, 45.8304159 ], [ 15.6507263, 45.8308996 ], [ 15.6509256, 45.8310067 ], [ 15.6512483, 45.8310256 ], [ 15.6520534, 45.8310073 ], [ 15.6523473, 45.8311642 ], [ 15.6522789, 45.8313899 ], [ 15.6524771, 45.8316303 ], [ 15.6528867, 45.8318481 ], [ 15.6532816, 45.8321274 ], [ 15.6533754, 45.8324134 ], [ 15.6538952, 45.8329749 ], [ 15.65424, 45.8332181 ], [ 15.6546431, 45.8333704 ], [ 15.6550917, 45.8334643 ], [ 15.6555471, 45.8333657 ], [ 15.6556281, 45.8335211 ], [ 15.6556759, 45.8338472 ], [ 15.6557985, 45.8340204 ], [ 15.6561641, 45.8343909 ], [ 15.6564782, 45.8345114 ], [ 15.6568279, 45.8348712 ], [ 15.6570989, 45.8350569 ], [ 15.6575902, 45.8351976 ], [ 15.6586822, 45.8359053 ], [ 15.6589426, 45.8360853 ], [ 15.6590936, 45.8360984 ], [ 15.6593603, 45.8361939 ], [ 15.6595477, 45.8365836 ], [ 15.6601406, 45.836883 ], [ 15.660422, 45.836924 ], [ 15.6609134, 45.8370682 ], [ 15.661491, 45.8373859 ], [ 15.662361, 45.8382301 ], [ 15.6628647, 45.8384759 ], [ 15.6629803, 45.8385402 ], [ 15.6629526, 45.8387255 ], [ 15.6629523, 45.8387563 ], [ 15.6629403, 45.8388999 ], [ 15.6629378, 45.839045 ], [ 15.6632347, 45.8393545 ], [ 15.6634803, 45.8396934 ], [ 15.6635983, 45.8398133 ], [ 15.6637903, 45.8400663 ], [ 15.6640213, 45.8401521 ], [ 15.6644208, 45.8402612 ], [ 15.6647583, 45.8409107 ], [ 15.6648134, 45.8409824 ], [ 15.665235, 45.8413688 ], [ 15.6656581, 45.841407 ], [ 15.665746, 45.8413808 ], [ 15.66599948762433, 45.841409781771517 ], [ 15.665999487624331, 45.841409781771517 ], [ 15.6661772, 45.8414301 ], [ 15.667228, 45.8416956 ], [ 15.6674249, 45.8416882 ], [ 15.667428726, 45.841687666 ], [ 15.6676621, 45.8416551 ], [ 15.6678063, 45.841576 ], [ 15.6679641, 45.8414712 ], [ 15.6680492, 45.8413225 ], [ 15.6681252, 45.8411236 ], [ 15.668347, 45.8410071 ], [ 15.6684768, 45.8409054 ], [ 15.6686341, 45.8407615 ], [ 15.6688188, 45.8406008 ], [ 15.6689567, 45.8404989 ], [ 15.6691446, 45.8404916 ], [ 15.670587, 45.8406708 ], [ 15.671075, 45.8405481 ], [ 15.6720523, 45.8406478 ], [ 15.6724564, 45.8406747 ], [ 15.6730593, 45.8407371 ], [ 15.6733282, 45.8407001 ], [ 15.6735661, 45.8407229 ], [ 15.6736786, 45.8407167 ], [ 15.6738378, 45.8406849 ], [ 15.674164, 45.8407152 ], [ 15.674414, 45.8407832 ], [ 15.6747139, 45.840883 ], [ 15.6751682, 45.8410154 ], [ 15.6755183, 45.8411405 ], [ 15.6759626, 45.8412355 ], [ 15.6765213, 45.8412601 ], [ 15.6770312, 45.8412777 ], [ 15.6776793, 45.841327 ], [ 15.6781412, 45.8413882 ], [ 15.6783363, 45.8413863 ], [ 15.6787751, 45.8414713 ], [ 15.6789864, 45.8416013 ], [ 15.6791757, 45.8417777 ], [ 15.6792243, 45.841823 ], [ 15.6794356, 45.8421375 ], [ 15.6797002, 45.8423691 ], [ 15.6800102, 45.8425378 ], [ 15.6803729, 45.8426107 ], [ 15.6807346, 45.8426065 ], [ 15.6808462, 45.8425808 ], [ 15.6812649, 45.842576 ], [ 15.6819966, 45.842582 ], [ 15.6825078, 45.8426103 ], [ 15.683084, 45.8425615 ], [ 15.6836175, 45.8424195 ], [ 15.6848775, 45.8431301 ], [ 15.6853848, 45.8425554 ], [ 15.6859308, 45.8423324 ], [ 15.6863689, 45.8423556 ], [ 15.6864153, 45.8428138 ], [ 15.6870253, 45.8429403 ], [ 15.6872136, 45.8429366 ], [ 15.6874984, 45.8428885 ], [ 15.6879547, 45.842773 ], [ 15.6880225, 45.842755 ], [ 15.6885885, 45.8426052 ], [ 15.6888283, 45.8425454 ], [ 15.6891944, 45.8424404 ], [ 15.6895238, 45.8425726 ], [ 15.6897383, 45.8423878 ], [ 15.6899592, 45.8422514 ], [ 15.6900301, 45.8422075 ], [ 15.690199, 45.8422498 ], [ 15.6903347, 45.8423101 ], [ 15.6903983, 45.8423639 ], [ 15.6906629, 45.8426389 ], [ 15.6906834, 45.8431206 ], [ 15.6909406, 45.8431229 ], [ 15.6912211, 45.8431254 ], [ 15.6912961, 45.8431248 ], [ 15.6914143, 45.8431239 ], [ 15.6915719, 45.8431234 ], [ 15.6916228, 45.8430848 ], [ 15.6917168, 45.843012 ], [ 15.6917586, 45.8429796 ], [ 15.6917863, 45.8429531 ], [ 15.6918258, 45.842959 ], [ 15.6918883, 45.8429699 ], [ 15.691945, 45.8429798 ], [ 15.6922602, 45.8430114 ], [ 15.6923276, 45.843039 ], [ 15.6923965, 45.8430765 ], [ 15.6925343, 45.8430823 ], [ 15.6928343, 45.8430951 ], [ 15.6929745, 45.8431223 ], [ 15.6934005, 45.8432125 ], [ 15.6934964, 45.8432328 ], [ 15.693765051728427, 45.843264059644625 ], [ 15.6939708, 45.843288 ], [ 15.6939791, 45.8433048 ], [ 15.6940095, 45.8433088 ], [ 15.6940571, 45.8433975 ], [ 15.6941505, 45.8435551 ], [ 15.6942347, 45.8436596 ], [ 15.6942393, 45.8436817 ], [ 15.6943902, 45.8438347 ], [ 15.6944749, 45.8439135 ], [ 15.6945311, 45.84396 ], [ 15.6945743, 45.8439956 ], [ 15.6946666, 45.844072 ], [ 15.6946926, 45.8440944 ], [ 15.6947784, 45.8441683 ], [ 15.6948571, 45.8442294 ], [ 15.6949517, 45.8443029 ], [ 15.6949208, 45.8443201 ], [ 15.6947593, 45.8447496 ], [ 15.6948908, 45.844776 ], [ 15.6949281, 45.8447821 ], [ 15.6949589, 45.8447855 ], [ 15.6948405, 45.8451314 ], [ 15.6947584, 45.8453716 ], [ 15.6947373, 45.845371 ], [ 15.6945565, 45.8460549 ], [ 15.6945239, 45.8461753 ], [ 15.6945051, 45.8462446 ], [ 15.6944591, 45.8464263 ], [ 15.6944522, 45.8464616 ], [ 15.6944383, 45.8465335 ], [ 15.6943235, 45.8471071 ], [ 15.6943083, 45.8471837 ], [ 15.6941814, 45.8477 ], [ 15.6942305, 45.8477184 ], [ 15.6942654, 45.8477345 ], [ 15.6943328, 45.8477638 ], [ 15.694417, 45.84811 ], [ 15.6944516, 45.8481618 ], [ 15.6945151, 45.848257 ], [ 15.694586, 45.8483051 ], [ 15.6946496, 45.8483484 ], [ 15.6947463, 45.848423 ], [ 15.6948218, 45.8484813 ], [ 15.6950297, 45.8485391 ], [ 15.6951067, 45.8485944 ], [ 15.6953153, 45.8487514 ], [ 15.6962568, 45.8493738 ], [ 15.6964348, 45.8493028 ], [ 15.6965324, 45.8492641 ], [ 15.6967925, 45.8490588 ], [ 15.696894, 45.8489709 ], [ 15.6971953, 45.8487346 ], [ 15.6973199, 45.8486454 ], [ 15.6974443, 45.8485555 ], [ 15.6976913, 45.8486377 ], [ 15.6981526, 45.8487913 ], [ 15.6982058, 45.848809 ], [ 15.698768, 45.8491104 ], [ 15.6989042, 45.8490761 ], [ 15.6989645, 45.8490244 ], [ 15.6991501, 45.8489423 ], [ 15.6992076, 45.8488947 ], [ 15.69928, 45.8488061 ], [ 15.6993855, 45.8486608 ], [ 15.6994506, 45.8485711 ], [ 15.699501, 45.8485094 ], [ 15.6995508, 45.8484179 ], [ 15.6997328, 45.8480888 ], [ 15.6997841, 45.8479568 ], [ 15.6998863, 45.8476947 ], [ 15.6999886, 45.8474301 ], [ 15.7000378, 45.8471807 ], [ 15.7000133, 45.8471101 ], [ 15.6999501, 45.8469285 ], [ 15.6999253, 45.8468572 ], [ 15.699866, 45.846809 ], [ 15.6998061, 45.8467563 ], [ 15.6999334, 45.846515 ], [ 15.69996, 45.8464642 ], [ 15.7000643, 45.8463726 ], [ 15.7001302, 45.8463003 ], [ 15.700178, 45.8462479 ], [ 15.700363, 45.8462002 ], [ 15.7004617, 45.8461747 ], [ 15.7006048, 45.8461378 ], [ 15.7007199, 45.8461083 ], [ 15.7008138, 45.8460843 ], [ 15.7009057, 45.8460642 ], [ 15.701017, 45.8460399 ], [ 15.7011309, 45.846015 ], [ 15.7015625, 45.8459362 ], [ 15.7016189, 45.8459301 ], [ 15.7017878, 45.8459118 ], [ 15.7018204, 45.8459084 ], [ 15.7020104, 45.8458547 ], [ 15.7020382, 45.8458405 ], [ 15.7021842, 45.8457699 ], [ 15.7024573, 45.845638 ], [ 15.7024629, 45.8456353 ], [ 15.7025261, 45.8455714 ], [ 15.7025395, 45.8455579 ], [ 15.7026339, 45.8454801 ], [ 15.7027883, 45.8454211 ], [ 15.7029852, 45.8453458 ], [ 15.7033838, 45.8450791 ], [ 15.7035291, 45.8449565 ], [ 15.7038009, 45.8449999 ], [ 15.7040541, 45.8450063 ], [ 15.7043699, 45.8449934 ], [ 15.7046113, 45.8450302 ], [ 15.7048657, 45.8450806 ], [ 15.704916, 45.8450927 ], [ 15.7050636, 45.8450314 ], [ 15.7051603, 45.8450286 ], [ 15.7052104, 45.8450694 ], [ 15.7053031, 45.8451267 ], [ 15.7053453, 45.8451528 ], [ 15.7054262, 45.8452185 ], [ 15.7055516, 45.8452743 ], [ 15.7057999, 45.8452594 ], [ 15.7059734, 45.8452062 ], [ 15.7062172, 45.8451419 ], [ 15.7062882, 45.8451734 ], [ 15.7064209, 45.8452315 ], [ 15.7068992, 45.8454444 ], [ 15.7072738, 45.8456021 ], [ 15.707505, 45.8457008 ], [ 15.7075955, 45.8457384 ], [ 15.7081436, 45.8459962 ], [ 15.7086367, 45.8462335 ], [ 15.7087799, 45.8462998 ], [ 15.7089109, 45.8463664 ], [ 15.7093159, 45.8465189 ], [ 15.7092357, 45.8466657 ], [ 15.7085892, 45.8477064 ], [ 15.7076964, 45.8490585 ], [ 15.7073597, 45.8495107 ], [ 15.7066444, 45.8503415 ], [ 15.7064822, 45.8505804 ], [ 15.7054253, 45.8515925 ], [ 15.7039436, 45.8526552 ], [ 15.7034597, 45.8530641 ], [ 15.702909295935108, 45.853529316798017 ], [ 15.7025377, 45.8538434 ], [ 15.7012963, 45.8549927 ], [ 15.7000673, 45.8562201 ], [ 15.6999765, 45.8563163 ], [ 15.6992407, 45.8573479 ], [ 15.6988794, 45.8578011 ], [ 15.6986219, 45.8581329 ], [ 15.6980272, 45.8586328 ], [ 15.6979652, 45.8586981 ], [ 15.6971114, 45.8591699 ], [ 15.6965496, 45.8594843 ], [ 15.6952554, 45.8601122 ], [ 15.6951873, 45.8601452 ], [ 15.6949214, 45.8602603 ], [ 15.6945476, 45.860426 ], [ 15.6942332, 45.8605553 ], [ 15.6931045, 45.8609482 ], [ 15.6929203, 45.8610114 ], [ 15.6925558, 45.8611395 ], [ 15.69214, 45.8612368 ], [ 15.6913625, 45.861388 ], [ 15.6907988, 45.8614617 ], [ 15.6875489, 45.8618908 ], [ 15.687377204067307, 45.861913238846114 ], [ 15.6867294, 45.8619979 ], [ 15.686425, 45.862071 ], [ 15.68608, 45.8621637 ], [ 15.6858125, 45.8622557 ], [ 15.6852961, 45.8624457 ], [ 15.6849831, 45.8625993 ], [ 15.6847574, 45.8627205 ], [ 15.6840548, 45.8631864 ], [ 15.6832417, 45.8637199 ], [ 15.6829143, 45.8640004 ], [ 15.6824228, 45.8645216 ], [ 15.6819909, 45.8650518 ], [ 15.6817892, 45.8653086 ], [ 15.6813079, 45.8658776 ], [ 15.680817, 45.8664243 ], [ 15.6802955, 45.8669327 ], [ 15.6798204, 45.8673645 ], [ 15.6792723, 45.867794 ], [ 15.6788539, 45.868098 ], [ 15.678423, 45.8683331 ], [ 15.6781755, 45.8684972 ], [ 15.6775246, 45.8688847 ], [ 15.6776789, 45.8690142 ], [ 15.6778005, 45.869118 ], [ 15.6778143, 45.8691297 ], [ 15.6778747, 45.8691809 ], [ 15.6779463, 45.8692416 ], [ 15.6781244, 45.8693872 ], [ 15.678269, 45.8695101 ], [ 15.6787139, 45.8693416 ], [ 15.6787578, 45.869323 ], [ 15.6796775, 45.8689734 ], [ 15.6800332, 45.8688356 ], [ 15.6800801, 45.8689277 ], [ 15.6804376, 45.8695806 ], [ 15.6809307, 45.8695806 ], [ 15.6818994, 45.8696747 ], [ 15.6828414, 45.8701152 ], [ 15.6823957, 45.870321 ], [ 15.682835, 45.870499 ], [ 15.6825035, 45.8706582 ], [ 15.6822072, 45.8708051 ], [ 15.6819878, 45.8709211 ], [ 15.6818738, 45.8710056 ], [ 15.681839, 45.8710457 ], [ 15.6816108, 45.8712016 ], [ 15.6814568, 45.871222 ], [ 15.6813117, 45.8712394 ], [ 15.6811577, 45.8712783 ], [ 15.6810807, 45.8712877 ], [ 15.6802343, 45.8715085 ], [ 15.6802036, 45.8715286 ], [ 15.680182, 45.871581 ], [ 15.6801348, 45.8717156 ], [ 15.6801217, 45.8717541 ], [ 15.6802643, 45.872018 ], [ 15.6805689, 45.8721828 ], [ 15.6808332, 45.8724317 ], [ 15.6808672, 45.8724189 ], [ 15.6810651, 45.8726017 ], [ 15.6811174, 45.8726253 ], [ 15.6811766, 45.8726756 ], [ 15.6814114, 45.8728376 ], [ 15.6816297, 45.8729839 ], [ 15.6818668, 45.8732392 ], [ 15.6819902, 45.8734443 ], [ 15.6821585, 45.8735861 ], [ 15.6827502, 45.8737448 ], [ 15.6829787, 45.8737141 ], [ 15.6826613, 45.8740896 ], [ 15.6824774, 45.8743973 ], [ 15.6824013, 45.8745065 ], [ 15.6823227, 45.8746042 ], [ 15.6822376, 45.8746749 ], [ 15.6821584, 45.8747057 ], [ 15.6821009, 45.8747288 ], [ 15.682038, 45.8747348 ], [ 15.6819013, 45.8747447 ], [ 15.681759, 45.8747432 ], [ 15.6816166, 45.8747493 ], [ 15.6814991, 45.8747669 ], [ 15.6810455, 45.8748847 ], [ 15.6807011, 45.8749794 ], [ 15.6804449, 45.875057 ], [ 15.6802319, 45.8751379 ], [ 15.680112, 45.8752166 ], [ 15.6800279, 45.8753277 ], [ 15.6799684, 45.8754366 ], [ 15.6799465, 45.8754654 ], [ 15.6799198, 45.8755571 ], [ 15.6799482, 45.8757419 ], [ 15.6799441, 45.8758589 ], [ 15.6799437, 45.8759568 ], [ 15.6799247, 45.876013 ], [ 15.6798275, 45.8761279 ], [ 15.6797217, 45.8764057 ], [ 15.6796021, 45.8767458 ], [ 15.67957, 45.8769248 ], [ 15.679547, 45.8770365 ], [ 15.6795358, 45.8770911 ], [ 15.6796035, 45.877314 ], [ 15.6796442, 45.8774608 ], [ 15.6796556, 45.8774914 ], [ 15.6797341, 45.8775926 ], [ 15.6799298, 45.8777392 ], [ 15.6801692, 45.8778335 ], [ 15.6803108, 45.8778413 ], [ 15.6803929, 45.8778384 ], [ 15.6805983, 45.8777534 ], [ 15.6806189, 45.8776132 ], [ 15.6804401, 45.8773306 ], [ 15.6803244, 45.8771562 ], [ 15.680295, 45.876968 ], [ 15.6804089, 45.8767623 ], [ 15.6805867, 45.8766449 ], [ 15.6807549, 45.8765777 ], [ 15.6812572, 45.8763674 ], [ 15.6815477, 45.8763082 ], [ 15.6817428, 45.8763065 ], [ 15.6820012, 45.8763861 ], [ 15.6821597, 45.8765395 ], [ 15.6822142, 45.8767918 ], [ 15.6819274, 45.8770809 ], [ 15.6818199, 45.8771905 ], [ 15.6816684, 45.8773325 ], [ 15.6815917, 45.8774003 ], [ 15.6814537, 45.8775326 ], [ 15.6814354, 45.8776341 ], [ 15.6814676, 45.8777212 ], [ 15.6815421, 45.8778249 ], [ 15.6817217, 45.8779126 ], [ 15.6819176, 45.8779666 ], [ 15.6821303, 45.8779872 ], [ 15.682336, 45.8779856 ], [ 15.6825841, 45.8779599 ], [ 15.6827819, 45.8778859 ], [ 15.6829126, 45.8777949 ], [ 15.6830579, 45.8776588 ], [ 15.683266, 45.8773321 ], [ 15.6833762, 45.8771555 ], [ 15.683445, 45.8770629 ], [ 15.6835407, 45.8769554 ], [ 15.6836991, 45.8768806 ], [ 15.6838868, 45.8768642 ], [ 15.6839879, 45.8768642 ], [ 15.6841236, 45.8769054 ], [ 15.6842077, 45.8769773 ], [ 15.6843194, 45.8772066 ], [ 15.6844169, 45.8773929 ], [ 15.684605, 45.877826 ], [ 15.6846058, 45.878049 ], [ 15.6844132, 45.8783174 ], [ 15.6841241, 45.8786847 ], [ 15.683655, 45.8789846 ], [ 15.6835029, 45.8789848 ], [ 15.6829351, 45.8787398 ], [ 15.6824997, 45.8787984 ], [ 15.6821279, 45.8792478 ], [ 15.6817762, 45.8797977 ], [ 15.6813013, 45.8806817 ], [ 15.6811599, 45.8812555 ], [ 15.6811749, 45.8815692 ], [ 15.681172116223888, 45.881636710214401 ], [ 15.681938237871137, 45.882211433384398 ], [ 15.681936783036951, 45.882210342008221 ], [ 15.682081918663634, 45.882319218722181 ], [ 15.682081918663636, 45.882319218722181 ], [ 15.6821385, 45.8822913 ], [ 15.6824795, 45.8820098 ], [ 15.6830109, 45.8817146 ], [ 15.683349, 45.8815355 ], [ 15.683473, 45.8814195 ], [ 15.6835348, 45.8812553 ], [ 15.6836312, 45.8811779 ], [ 15.6837555, 45.8810957 ], [ 15.6839768, 45.8811388 ], [ 15.6843162, 45.8812878 ], [ 15.6847736, 45.8815523 ], [ 15.6852373, 45.8817349 ], [ 15.6858115, 45.8818256 ], [ 15.6862747, 45.8818007 ], [ 15.6866559, 45.8817155 ], [ 15.6867306, 45.8816744 ], [ 15.6868479, 45.8815825 ], [ 15.686922, 45.8814208 ], [ 15.686937, 45.8813556 ], [ 15.6868879, 45.8812254 ], [ 15.6866872, 45.8810857 ], [ 15.68638, 45.8810012 ], [ 15.6860826, 45.8809736 ], [ 15.6859537, 45.8809616 ], [ 15.6855653, 45.8806149 ], [ 15.6854606, 45.8803449 ], [ 15.6855497, 45.8801228 ], [ 15.6859847, 45.8799531 ], [ 15.6861828, 45.8799379 ], [ 15.686335, 45.8800196 ], [ 15.6863223, 45.8802899 ], [ 15.6863094, 45.8805698 ], [ 15.6865726, 45.8806996 ], [ 15.6872506, 45.8808046 ], [ 15.6875551, 45.8808523 ], [ 15.6878448, 45.8807312 ], [ 15.6884456, 45.8804937 ], [ 15.6885698, 45.8804452 ], [ 15.6888386, 45.8801986 ], [ 15.6889971, 45.8800585 ], [ 15.6891208, 45.8800682 ], [ 15.689335, 45.8801268 ], [ 15.6896194, 45.8802727 ], [ 15.6896983, 45.8805191 ], [ 15.6897969, 45.8807594 ], [ 15.6895842, 45.8809438 ], [ 15.6893639, 45.8810641 ], [ 15.689118, 45.8813853 ], [ 15.689043, 45.8815338 ], [ 15.6889889, 45.8817469 ], [ 15.6889222, 45.8819752 ], [ 15.6888174, 45.8821533 ], [ 15.6886418, 45.8823819 ], [ 15.6885632, 45.8825152 ], [ 15.6885191, 45.8826344 ], [ 15.6884338, 45.8829889 ], [ 15.6883985, 45.8832357 ], [ 15.6884125, 45.8833954 ], [ 15.6884442, 45.8835568 ], [ 15.688496, 45.8836644 ], [ 15.6885553, 45.883714 ], [ 15.6886554, 45.8837497 ], [ 15.6887717, 45.8837499 ], [ 15.6888572, 45.8837246 ], [ 15.6889011, 45.8836618 ], [ 15.6890153, 45.8834181 ], [ 15.6891002, 45.8833047 ], [ 15.6891965, 45.8832133 ], [ 15.6893174, 45.8831304 ], [ 15.6894837, 45.8830585 ], [ 15.6896519, 45.8830134 ], [ 15.689834, 45.8829926 ], [ 15.6899822, 45.882997 ], [ 15.6901878, 45.8830219 ], [ 15.6903138, 45.8830658 ], [ 15.690437, 45.8831238 ], [ 15.6905293, 45.8832072 ], [ 15.6906173, 45.8833359 ], [ 15.6908316, 45.8839489 ], [ 15.690948, 45.8841169 ], [ 15.6914929, 45.88453 ], [ 15.6920469, 45.8849527 ], [ 15.6921117, 45.8851816 ], [ 15.6920799, 45.885389 ], [ 15.6919935, 45.8855075 ], [ 15.6917931, 45.8856375 ], [ 15.6916447, 45.885669 ], [ 15.6914328, 45.8856485 ], [ 15.6903127, 45.8853834 ], [ 15.689692, 45.8852389 ], [ 15.6889441, 45.885082 ], [ 15.6886392, 45.8850565 ], [ 15.6885684, 45.8849918 ], [ 15.6883226, 45.8849041 ], [ 15.6881369, 45.8849277 ], [ 15.6876545, 45.8851958 ], [ 15.6876516, 45.8853929 ], [ 15.6877338, 45.8855526 ], [ 15.6879052, 45.8856535 ], [ 15.6880471, 45.8857854 ], [ 15.6881745, 45.8860811 ], [ 15.6880869, 45.8864927 ], [ 15.6880768, 45.8867807 ], [ 15.688062078442108, 45.886805368405192 ], [ 15.690974054979055, 45.888989852282222 ], [ 15.688062078442107, 45.886805368405192 ], [ 15.6878138, 45.8872214 ], [ 15.6876807, 45.8874344 ], [ 15.6873467, 45.8875905 ], [ 15.6871051, 45.8876325 ], [ 15.6867331, 45.8875164 ], [ 15.686418, 45.887401 ], [ 15.6863134, 45.8872949 ], [ 15.6862234, 45.887046 ], [ 15.6862558, 45.8867502 ], [ 15.6863145, 45.8865425 ], [ 15.6866608, 45.8862807 ], [ 15.6868057, 45.8862544 ], [ 15.6869838, 45.8861608 ], [ 15.687090342957651, 45.886076399448328 ], [ 15.68632632126115, 45.885503251603033 ], [ 15.6860059, 45.8856276 ], [ 15.6854301, 45.8859775 ], [ 15.6850504, 45.8863181 ], [ 15.6848532, 45.8866129 ], [ 15.6846561, 45.8867833 ], [ 15.6845545, 45.8868224 ], [ 15.6843927, 45.8869014 ], [ 15.6842557, 45.8869976 ], [ 15.6841351, 45.8870509 ], [ 15.6840202, 45.8870991 ], [ 15.6838715, 45.8871434 ], [ 15.6838191, 45.8871526 ], [ 15.683769, 45.88722 ], [ 15.6837117, 45.8872966 ], [ 15.6836212, 45.8876542 ], [ 15.6836675, 45.8876695 ], [ 15.6837031, 45.8876815 ], [ 15.6837917, 45.8877112 ], [ 15.6838717, 45.8879507 ], [ 15.6839405, 45.8881746 ], [ 15.6839275, 45.8883798 ], [ 15.6837881, 45.8886273 ], [ 15.6838044, 45.8887285 ], [ 15.6833697, 45.8888658 ], [ 15.6833777, 45.8887632 ], [ 15.6831249, 45.8888629 ], [ 15.6824935, 45.8892107 ], [ 15.6818733, 45.8896478 ], [ 15.6814795, 45.8898475 ], [ 15.6805475, 45.8901909 ], [ 15.6803779, 45.8902652 ], [ 15.6802597, 45.8903502 ], [ 15.6801505, 45.8905328 ], [ 15.6801521, 45.8906427 ], [ 15.6801529, 45.8907023 ], [ 15.6801535, 45.8907411 ], [ 15.6802353, 45.8909257 ], [ 15.6803215, 45.8912558 ], [ 15.6804294, 45.8913513 ], [ 15.6805295, 45.8914187 ], [ 15.6807318, 45.8914149 ], [ 15.6809277, 45.8913457 ], [ 15.6813134, 45.8911838 ], [ 15.6814049, 45.8911445 ], [ 15.6821533, 45.8908449 ], [ 15.6826074, 45.8905414 ], [ 15.6826251, 45.8904524 ], [ 15.6826306, 45.8902408 ], [ 15.6827743, 45.8900994 ], [ 15.6831407, 45.889904 ], [ 15.6834015, 45.8898908 ], [ 15.6836414, 45.8899652 ], [ 15.6838571, 45.8900276 ], [ 15.6839395, 45.8901609 ], [ 15.6840255, 45.8904016 ], [ 15.6841303, 45.8908671 ], [ 15.6840562, 45.8911465 ], [ 15.6840535, 45.891263 ], [ 15.6841036, 45.8916714 ], [ 15.6841259, 45.8920999 ], [ 15.6840812, 45.8921469 ], [ 15.6840706, 45.8921582 ], [ 15.683912, 45.8923418 ], [ 15.6837774, 45.8924524 ], [ 15.6837054, 45.892488 ], [ 15.6834441, 45.8926066 ], [ 15.6831695, 45.8926752 ], [ 15.6828628, 45.8927142 ], [ 15.682659, 45.8927434 ], [ 15.6824862, 45.8928333 ], [ 15.6824059, 45.8929733 ], [ 15.6823745, 45.8931726 ], [ 15.6824093, 45.8934036 ], [ 15.682492, 45.8936153 ], [ 15.6825758, 45.8937146 ], [ 15.6828005, 45.8939397 ], [ 15.6830592, 45.8941433 ], [ 15.6831136, 45.8942371 ], [ 15.6830034, 45.8943707 ], [ 15.6831087, 45.8945532 ], [ 15.6831485, 45.8946057 ], [ 15.6831717, 45.8946858 ], [ 15.6831705, 45.8947552 ], [ 15.6831914, 45.894875 ], [ 15.6832171, 45.894963 ], [ 15.6832448, 45.8951145 ], [ 15.6832467, 45.8951392 ], [ 15.6832706, 45.8951649 ], [ 15.683324, 45.8952124 ], [ 15.6833709, 45.8953815 ], [ 15.683407, 45.8954825 ], [ 15.6833723, 45.8956246 ], [ 15.6833248, 45.8958234 ], [ 15.6832648, 45.8959647 ], [ 15.6831757, 45.8962505 ], [ 15.6831291, 45.8963673 ], [ 15.6830844, 45.8964943 ], [ 15.6830321, 45.8965027 ], [ 15.6829654, 45.8965945 ], [ 15.6825975, 45.896506 ], [ 15.6825711, 45.8965812 ], [ 15.6824869, 45.8965674 ], [ 15.6823552, 45.8965208 ], [ 15.682358, 45.8964055 ], [ 15.6821512, 45.8963209 ], [ 15.6820253, 45.8962431 ], [ 15.6819257, 45.8961924 ], [ 15.6818277, 45.8961339 ], [ 15.6817569, 45.8961141 ], [ 15.6816403, 45.8960637 ], [ 15.6815345, 45.8961067 ], [ 15.6813874, 45.8961365 ], [ 15.6810175, 45.8961803 ], [ 15.6807973, 45.8962996 ], [ 15.6807373, 45.8964839 ], [ 15.6808395, 45.8967071 ], [ 15.6809864, 45.8969873 ], [ 15.681147293318665, 45.897287924806747 ], [ 15.681202759215115, 45.897304006118851 ], [ 15.681232, 45.897167 ], [ 15.6812932, 45.8972811 ], [ 15.681318168446177, 45.897337466893546 ], [ 15.6814128, 45.8975511 ], [ 15.6815118, 45.8978093 ], [ 15.6815565, 45.8979714 ], [ 15.6815802, 45.8979971 ], [ 15.6817706, 45.8981884 ], [ 15.6819332, 45.8983571 ], [ 15.6819201, 45.8984324 ], [ 15.6819829, 45.8988092 ], [ 15.6818754, 45.8991355 ], [ 15.6819, 45.8991867 ], [ 15.6819394, 45.8992684 ], [ 15.6819518, 45.8994294 ], [ 15.6819646, 45.8996306 ], [ 15.6819108, 45.899866 ], [ 15.6818551, 45.8999873 ], [ 15.6816954, 45.9002235 ], [ 15.6817202, 45.9005588 ], [ 15.6817896, 45.9006926 ], [ 15.6820136, 45.9008586 ], [ 15.6821504, 45.9009918 ], [ 15.682221, 45.9011858 ], [ 15.6821953, 45.9013807 ], [ 15.6821308, 45.9015557 ], [ 15.6819513, 45.9017452 ], [ 15.6817122, 45.9018276 ], [ 15.6814511, 45.9017492 ], [ 15.681457, 45.9015209 ], [ 15.6815104, 45.9012586 ], [ 15.6814772, 45.9009971 ], [ 15.6813397, 45.900817 ], [ 15.6812171, 45.9007332 ], [ 15.6811479, 45.9007851 ], [ 15.6810635, 45.9007407 ], [ 15.6810164, 45.9007502 ], [ 15.6810001, 45.9006693 ], [ 15.6809133, 45.9006788 ], [ 15.6808508, 45.9007102 ], [ 15.6807824, 45.9007529 ], [ 15.6807739, 45.9007778 ], [ 15.6805508, 45.9008662 ], [ 15.6803611, 45.9010288 ], [ 15.6802098, 45.9011844 ], [ 15.6801358, 45.9013595 ], [ 15.6800435, 45.901602 ], [ 15.6800753, 45.9017896 ], [ 15.680203, 45.9019497 ], [ 15.6802815, 45.9020174 ], [ 15.6803032, 45.9019596 ], [ 15.6804555, 45.90213 ], [ 15.6804719, 45.9021641 ], [ 15.6804921, 45.902297 ], [ 15.6804812, 45.9024187 ], [ 15.6804384, 45.9025121 ], [ 15.6803783, 45.902598 ], [ 15.6802256, 45.9027992 ], [ 15.6799807, 45.9030823 ], [ 15.6798882, 45.9033187 ], [ 15.67985, 45.9034192 ], [ 15.6798114, 45.9035516 ], [ 15.6797728, 45.9038858 ], [ 15.6797526, 45.9039428 ], [ 15.6796111, 45.9042022 ], [ 15.679475, 45.9044979 ], [ 15.6795784, 45.9045661 ], [ 15.6800226, 45.904636 ], [ 15.6800853, 45.90467 ], [ 15.680412, 45.9050023 ], [ 15.6805663, 45.9050577 ], [ 15.6807121, 45.9051769 ], [ 15.6808097, 45.9053036 ], [ 15.680968, 45.9054152 ], [ 15.6810576, 45.9054632 ], [ 15.6811792, 45.9056817 ], [ 15.6812807, 45.9057903 ], [ 15.6813472, 45.9058293 ], [ 15.6814366, 45.9058468 ], [ 15.6816939, 45.9058293 ], [ 15.6820917, 45.9058023 ], [ 15.6824902, 45.905908 ], [ 15.6829154, 45.9060393 ], [ 15.6829493, 45.9060435 ], [ 15.6831833, 45.9062045 ], [ 15.6836231, 45.9062578 ], [ 15.684064, 45.9063227 ], [ 15.684129, 45.9063983 ], [ 15.6841501, 45.9065739 ], [ 15.6841716, 45.906987 ], [ 15.6842018, 45.9070037 ], [ 15.6843398, 45.9071368 ], [ 15.68434, 45.9071411 ], [ 15.6843619, 45.9073759 ], [ 15.6841689, 45.9072562 ], [ 15.6841508, 45.9074342 ], [ 15.6841589, 45.9075039 ], [ 15.6842228, 45.9076103 ], [ 15.6842945, 45.9076871 ], [ 15.6843634, 45.9077529 ], [ 15.6847708, 45.9080729 ], [ 15.6848226, 45.908123 ], [ 15.684857, 45.9081642 ], [ 15.6848379, 45.9083261 ], [ 15.6850777, 45.9084592 ], [ 15.6853899, 45.908572 ], [ 15.685529, 45.9085678 ], [ 15.6858601, 45.9085008 ], [ 15.6864377, 45.908423 ], [ 15.6866497, 45.9084346 ], [ 15.687012, 45.9085751 ], [ 15.6872011, 45.9086778 ], [ 15.6874139, 45.9088257 ], [ 15.6876093, 45.909023 ], [ 15.6878718, 45.9093377 ], [ 15.6884158, 45.9097321 ], [ 15.6888236, 45.909962 ], [ 15.689704, 45.9103808 ], [ 15.690082, 45.9105078 ], [ 15.6903832, 45.9105773 ], [ 15.690974, 45.9107701 ], [ 15.6911784, 45.9108927 ], [ 15.691427, 45.9111517 ], [ 15.6918174, 45.9114311 ], [ 15.6919651, 45.9115627 ], [ 15.6921843, 45.9118175 ], [ 15.6922843, 45.9119653 ], [ 15.6922863, 45.9120808 ], [ 15.6920708, 45.9122649 ], [ 15.6920372, 45.9122935 ], [ 15.691707, 45.912401 ], [ 15.6915573, 45.9124065 ], [ 15.6914768, 45.9124096 ], [ 15.6910578, 45.9123978 ], [ 15.6907195, 45.9124242 ], [ 15.6905209, 45.9124397 ], [ 15.6902181, 45.9125741 ], [ 15.6901371, 45.9126101 ], [ 15.6902308, 45.9126981 ], [ 15.6901549, 45.912753 ], [ 15.6900465, 45.9126501 ], [ 15.6899903, 45.912675 ], [ 15.6899082, 45.9128275 ], [ 15.6898792, 45.9129962 ], [ 15.6899503, 45.9131279 ], [ 15.6902697, 45.9133951 ], [ 15.6907364, 45.9135426 ], [ 15.6909963, 45.913509 ], [ 15.6911364, 45.9134908 ], [ 15.6912623, 45.9134746 ], [ 15.6915092, 45.9134428 ], [ 15.6916508, 45.9133931 ], [ 15.6917974, 45.9133156 ], [ 15.69203120056693, 45.913191959427301 ], [ 15.695866959942643, 45.906095762545455 ], [ 15.692031200566932, 45.913191959427301 ], [ 15.6922518, 45.9130753 ], [ 15.6925149, 45.913031 ], [ 15.6927416, 45.9129964 ], [ 15.6929894, 45.9130455 ], [ 15.6932672, 45.9131562 ], [ 15.6933221, 45.9132319 ], [ 15.6933994, 45.9133799 ], [ 15.6935355, 45.9135114 ], [ 15.6935574, 45.9136655 ], [ 15.6936319, 45.9141905 ], [ 15.6938075, 45.9144402 ], [ 15.694413, 45.9146889 ], [ 15.694601, 45.914755 ], [ 15.6952015, 45.9145085 ], [ 15.6954307, 45.9144144 ], [ 15.6956606, 45.9143773 ], [ 15.6959264, 45.9143602 ], [ 15.6965464, 45.914458 ], [ 15.6971191, 45.9145438 ], [ 15.6972434, 45.9146753 ], [ 15.6976035, 45.9147407 ], [ 15.6983648, 45.9147066 ], [ 15.6985714, 45.9147145 ], [ 15.6987367, 45.9147554 ], [ 15.6989613, 45.9148944 ], [ 15.6990694, 45.915007 ], [ 15.6991261, 45.9151688 ], [ 15.6992926, 45.9154304 ], [ 15.6994658, 45.9156377 ], [ 15.699708, 45.9157265 ], [ 15.699987, 45.915739 ], [ 15.7005251, 45.9157498 ], [ 15.7006104, 45.9157978 ], [ 15.7006854, 45.9159905 ], [ 15.7006675, 45.9162759 ], [ 15.7007856, 45.9164993 ], [ 15.7008425, 45.9168627 ], [ 15.7008322, 45.9169228 ], [ 15.7007979, 45.9169896 ], [ 15.7007077, 45.9170602 ], [ 15.7004846, 45.9170921 ], [ 15.7002839, 45.9171247 ], [ 15.7001046, 45.9171407 ], [ 15.699743, 45.9171171 ], [ 15.6995046, 45.9170954 ], [ 15.6993777, 45.9171158 ], [ 15.6991993, 45.9171848 ], [ 15.6991356, 45.9172331 ], [ 15.699051, 45.9174278 ], [ 15.6990656, 45.9175202 ], [ 15.699081, 45.9176197 ], [ 15.6991132, 45.9177289 ], [ 15.6992094, 45.9178075 ], [ 15.6994275, 45.917964 ], [ 15.6996546, 45.9181092 ], [ 15.6997214, 45.9182018 ], [ 15.699637, 45.9184261 ], [ 15.6995396, 45.9187889 ], [ 15.6994962, 45.919011 ], [ 15.6994715, 45.9191227 ], [ 15.6994785, 45.9192522 ], [ 15.699588, 45.9195002 ], [ 15.6998616, 45.91974 ], [ 15.6999141, 45.9197484 ], [ 15.7000244, 45.9198689 ], [ 15.7000319, 45.9198772 ], [ 15.7005511, 45.9200294 ], [ 15.7007667, 45.9201125 ], [ 15.701484, 45.920448 ], [ 15.7016064, 45.9205146 ], [ 15.702005, 45.9207971 ], [ 15.7021904, 45.9209338 ], [ 15.7026163, 45.9211129 ], [ 15.703023, 45.9211235 ], [ 15.7034631, 45.9209027 ], [ 15.7037916, 45.9207032 ], [ 15.7040991, 45.920569 ], [ 15.7042641, 45.9204837 ], [ 15.7044139, 45.9204466 ], [ 15.704535, 45.9204166 ], [ 15.704673, 45.9203682 ], [ 15.7049382, 45.9201788 ], [ 15.7050619, 45.9200905 ], [ 15.7054013, 45.9198027 ], [ 15.7056063, 45.9197253 ], [ 15.705939, 45.9198897 ], [ 15.7061781, 45.9206617 ], [ 15.7062626, 45.9208169 ], [ 15.7065445, 45.9212869 ], [ 15.7066443, 45.9214083 ], [ 15.7067832, 45.9214953 ], [ 15.7071734, 45.9216482 ], [ 15.7073017, 45.9218334 ], [ 15.7072281, 45.9219562 ], [ 15.7071565, 45.9220757 ], [ 15.7065379, 45.9223194 ], [ 15.7065513, 45.9225024 ], [ 15.707246, 45.9227219 ], [ 15.7073663, 45.9228348 ], [ 15.7076883, 45.9230511 ], [ 15.7076573, 45.9231712 ], [ 15.7075434, 45.9232919 ], [ 15.707249, 45.923485 ], [ 15.7069833, 45.9235819 ], [ 15.7069161, 45.9235785 ], [ 15.7065767, 45.923614 ], [ 15.7061077, 45.9236966 ], [ 15.7059889, 45.9239786 ], [ 15.7061908, 45.9242603 ], [ 15.7064756, 45.9246578 ], [ 15.706955, 45.9248882 ], [ 15.7070668, 45.9249843 ], [ 15.7073285, 45.9253324 ], [ 15.7073132, 45.9255623 ], [ 15.707088, 45.9257233 ], [ 15.7068699, 45.925731 ], [ 15.7066598, 45.9256628 ], [ 15.7064811, 45.925513 ], [ 15.7062132, 45.925428 ], [ 15.7060848, 45.9254505 ], [ 15.7058966, 45.9255749 ], [ 15.7058732, 45.9257715 ], [ 15.7058928, 45.9261268 ], [ 15.7058016, 45.9263155 ], [ 15.7056156, 45.9264029 ], [ 15.7052278, 45.9264571 ], [ 15.7040574, 45.9266766 ], [ 15.7035502, 45.9268293 ], [ 15.7033539, 45.9269372 ], [ 15.7033514, 45.9270354 ], [ 15.7035883, 45.9271734 ], [ 15.7036537, 45.9272224 ], [ 15.7044577, 45.9275053 ], [ 15.7048544, 45.9276953 ], [ 15.7050645, 45.9277489 ], [ 15.7053291, 45.9277375 ], [ 15.7055664, 45.9275799 ], [ 15.7058072, 45.9273351 ], [ 15.7058093, 45.9271146 ], [ 15.7058899, 45.9269239 ], [ 15.7060778, 45.9268504 ], [ 15.7062214, 45.9268332 ], [ 15.7062878, 45.9268252 ], [ 15.7064779, 45.926865 ], [ 15.7066586, 45.9269876 ], [ 15.706657, 45.9271148 ], [ 15.7065824, 45.9273524 ], [ 15.7063499, 45.927764 ], [ 15.7061156, 45.9282997 ], [ 15.706116, 45.9284365 ], [ 15.7062747, 45.9285012 ], [ 15.7064607, 45.9284719 ], [ 15.7065006, 45.9284605 ], [ 15.7065047, 45.9284593 ], [ 15.7067121, 45.9283997 ], [ 15.7068862, 45.9283346 ], [ 15.7071177, 45.9282983 ], [ 15.7073192, 45.9283083 ], [ 15.7074522, 45.9284061 ], [ 15.7075636, 45.9285345 ], [ 15.7076077, 45.9286373 ], [ 15.7076055, 45.9288463 ], [ 15.7076031, 45.9290158 ], [ 15.707539, 45.9291569 ], [ 15.7073428, 45.9292021 ], [ 15.7068736, 45.9291007 ], [ 15.7066566, 45.9290213 ], [ 15.7064775, 45.9289275 ], [ 15.7063375, 45.9288628 ], [ 15.7063103, 45.9288501 ], [ 15.7060465, 45.9288525 ], [ 15.7058616, 45.9289759 ], [ 15.7058185, 45.9292254 ], [ 15.7057751, 45.929393 ], [ 15.7057171, 45.9294647 ], [ 15.7056399, 45.9295589 ], [ 15.7054786, 45.9297343 ], [ 15.7050175, 45.9303621 ], [ 15.7050529, 45.9304479 ], [ 15.7051763, 45.9306235 ], [ 15.7057613, 45.9305138 ], [ 15.7061507, 45.9303804 ], [ 15.7061782, 45.9303792 ], [ 15.7062913, 45.9303741 ], [ 15.7067608, 45.9306431 ], [ 15.7070076, 45.9308225 ], [ 15.7073336, 45.9310836 ], [ 15.7073477, 45.9311706 ], [ 15.707374, 45.931332 ], [ 15.7074038, 45.9314954 ], [ 15.7075129, 45.9317119 ], [ 15.7077297, 45.9317218 ], [ 15.7079434, 45.9315405 ], [ 15.7079635, 45.9315233 ], [ 15.7079132, 45.9311788 ], [ 15.7079855, 45.9310096 ], [ 15.7080942, 45.9309314 ], [ 15.708346, 45.9308594 ], [ 15.708942171494314, 45.930895905617092 ], [ 15.7090319, 45.9309014 ], [ 15.7091795, 45.9311252 ], [ 15.7091981, 45.9313913 ], [ 15.7092009, 45.9314316 ], [ 15.7091807, 45.931544 ], [ 15.7088524, 45.9318594 ], [ 15.7087976, 45.9319278 ], [ 15.7088488, 45.9324468 ], [ 15.7090226, 45.9326231 ], [ 15.7090553, 45.9326367 ], [ 15.7093012, 45.9327392 ], [ 15.7094785, 45.9327721 ], [ 15.7094813, 45.9327961 ], [ 15.7096378, 45.9327509 ], [ 15.7096416, 45.9327944 ], [ 15.7100752, 45.9328566 ], [ 15.710126, 45.9329156 ], [ 15.7101523, 45.9330857 ], [ 15.7100033, 45.93315 ], [ 15.7095283, 45.9332848 ], [ 15.7093212, 45.9333531 ], [ 15.7091233, 45.9334005 ], [ 15.7087218, 45.9334487 ], [ 15.7085885, 45.933391 ], [ 15.7085196, 45.9333612 ], [ 15.7084167, 45.9333123 ], [ 15.7082582, 45.9332042 ], [ 15.7081438, 45.9331696 ], [ 15.7080618, 45.9331595 ], [ 15.7079036, 45.9331904 ], [ 15.7077341, 45.93335 ], [ 15.7076347, 45.9334768 ], [ 15.7075384, 45.9336281 ], [ 15.7078504, 45.933968 ], [ 15.7082054, 45.9340349 ], [ 15.7082378, 45.9341064 ], [ 15.7082498, 45.9342004 ], [ 15.7082268, 45.9343618 ], [ 15.708198, 45.9345274 ], [ 15.708134, 45.9347232 ], [ 15.7080731, 45.934903 ], [ 15.7079738, 45.9350647 ], [ 15.7079333, 45.9352179 ], [ 15.7080039, 45.9353608 ], [ 15.7083878, 45.9353561 ], [ 15.7087535, 45.9352104 ], [ 15.7092001, 45.9350408 ], [ 15.7092719, 45.9350617 ], [ 15.7095785, 45.9351507 ], [ 15.7095173, 45.9352877 ], [ 15.7093117, 45.9354206 ], [ 15.709017, 45.9356111 ], [ 15.7087985, 45.9357041 ], [ 15.7086893, 45.9357505 ], [ 15.7082724, 45.9358875 ], [ 15.7082202, 45.9360816 ], [ 15.7083085, 45.9362449 ], [ 15.7089454, 45.9364751 ], [ 15.7091536, 45.9365502 ], [ 15.7092014, 45.9366761 ], [ 15.7091315, 45.9368192 ], [ 15.7090412, 45.9368628 ], [ 15.7085023, 45.9371225 ], [ 15.7082533, 45.9374143 ], [ 15.708055, 45.937721 ], [ 15.7079707, 45.9379561 ], [ 15.7077866, 45.9383278 ], [ 15.7077674, 45.9388263 ], [ 15.7080583, 45.9389501 ], [ 15.7081758, 45.9390542 ], [ 15.7084402, 45.9392357 ], [ 15.708622, 45.9392947 ], [ 15.70922, 45.9393143 ], [ 15.7095102, 45.9393097 ], [ 15.7096131, 45.9392783 ], [ 15.7098135, 45.939217 ], [ 15.7099071, 45.939129 ], [ 15.7098943, 45.9387756 ], [ 15.7099558, 45.9385148 ], [ 15.7099765, 45.9384668 ], [ 15.7099159, 45.9382337 ], [ 15.7099554, 45.9381556 ], [ 15.7102043, 45.9380576 ], [ 15.7103585, 45.9380487 ], [ 15.7103181, 45.9381797 ], [ 15.710562, 45.9384363 ], [ 15.7108355, 45.9387343 ], [ 15.710988, 45.9388363 ], [ 15.7114062, 45.9391165 ], [ 15.7115941, 45.9392246 ], [ 15.7117819, 45.939312 ], [ 15.7119376, 45.9394427 ], [ 15.7119301, 45.9396119 ], [ 15.7119199, 45.939659 ], [ 15.7118528, 45.9397079 ], [ 15.7117017, 45.9397296 ], [ 15.7114972, 45.9397757 ], [ 15.7113675, 45.9398605 ], [ 15.7112498, 45.9399681 ], [ 15.7112076, 45.9400495 ], [ 15.7112587, 45.9401488 ], [ 15.7112218, 45.9402178 ], [ 15.7113061, 45.9404361 ], [ 15.7116076, 45.9408399 ], [ 15.7115363, 45.9409521 ], [ 15.711469, 45.9409832 ], [ 15.7112837, 45.9410666 ], [ 15.7111368, 45.9410825 ], [ 15.7108867, 45.9410835 ], [ 15.710809, 45.9410736 ], [ 15.710425, 45.9409862 ], [ 15.7102059, 45.9409584 ], [ 15.7099389, 45.9410278 ], [ 15.7090867, 45.9416392 ], [ 15.7090148, 45.9417457 ], [ 15.7089765, 45.941824 ], [ 15.70907, 45.9419118 ], [ 15.7092475, 45.9419857 ], [ 15.7094691, 45.9420612 ], [ 15.7097324, 45.9421251 ], [ 15.7098424, 45.942196 ], [ 15.7098707, 45.9422374 ], [ 15.7098835, 45.9422918 ], [ 15.7098167, 45.9424209 ], [ 15.7097064, 45.942505 ], [ 15.7094209, 45.9426048 ], [ 15.7091357, 45.9427539 ], [ 15.709104523608604, 45.942776764256834 ], [ 15.709104523608602, 45.942776764256834 ], [ 15.7091045236086, 45.942776764256834 ], [ 15.7090033, 45.942851 ], [ 15.7087985, 45.9430014 ], [ 15.7086112, 45.9431505 ], [ 15.7084433, 45.9432838 ], [ 15.7083802, 45.943488 ], [ 15.7084324, 45.9438562 ], [ 15.708477, 45.9440256 ], [ 15.7087394, 45.944477 ], [ 15.7091438, 45.944597 ], [ 15.7093968, 45.944672 ], [ 15.7094686, 45.944792 ], [ 15.7094535, 45.9448457 ], [ 15.7093414, 45.9451437 ], [ 15.7091901, 45.9454898 ], [ 15.7091614, 45.9457776 ], [ 15.7090247, 45.946037 ], [ 15.7087811, 45.9464072 ], [ 15.7085246, 45.9467101 ], [ 15.7082103, 45.9471083 ], [ 15.7083325, 45.9472861 ], [ 15.7084791, 45.9474993 ], [ 15.7090952, 45.947525 ], [ 15.7093701, 45.9476635 ], [ 15.7094208, 45.9478264 ], [ 15.7093607, 45.9480262 ], [ 15.7091729, 45.9482338 ], [ 15.7089611, 45.9483398 ], [ 15.7083094, 45.9483679 ], [ 15.7079821, 45.9483821 ], [ 15.7079272, 45.9484681 ], [ 15.7080034, 45.9487464 ], [ 15.7082392, 45.9489903 ], [ 15.7084508, 45.949275 ], [ 15.7088055, 45.9493848 ], [ 15.7088576, 45.949401 ], [ 15.7097156, 45.9492626 ], [ 15.710286, 45.9493507 ], [ 15.7104012, 45.9495262 ], [ 15.7104516, 45.9496827 ], [ 15.7103596, 45.9497681 ], [ 15.7097178, 45.9504208 ], [ 15.7094599, 45.9507191 ], [ 15.7094394, 45.9507427 ], [ 15.7094215, 45.9508114 ], [ 15.7092876, 45.9514162 ], [ 15.7092983, 45.9516087 ], [ 15.7093041, 45.9519585 ], [ 15.7093554, 45.9522524 ], [ 15.7093975, 45.9525132 ], [ 15.7094647, 45.9532415 ], [ 15.709548, 45.9536592 ], [ 15.709541, 45.9539598 ], [ 15.7096012, 45.9545747 ], [ 15.7095561, 45.9551903 ], [ 15.7095996, 45.9556581 ], [ 15.7096555, 45.9558807 ], [ 15.70965, 45.9563264 ], [ 15.7096354, 45.9564897 ], [ 15.7095479, 45.9573205 ], [ 15.7094558, 45.9581481 ], [ 15.7094144, 45.959062 ], [ 15.7095983, 45.9595665 ], [ 15.7095084, 45.9602418 ], [ 15.7094367, 45.960695 ], [ 15.7094694, 45.9610362 ], [ 15.7095928, 45.9613162 ], [ 15.709683960738696, 45.961463276624094 ], [ 15.7100219, 45.9620085 ], [ 15.7097191, 45.9632368 ], [ 15.7091212, 45.9642904 ], [ 15.7089731, 45.9651573 ], [ 15.7081066, 45.9667486 ], [ 15.7076565, 45.9682207 ], [ 15.7077312, 45.9685542 ], [ 15.7073748, 45.9695884 ], [ 15.7072859, 45.9700265 ], [ 15.7070742, 45.9717531 ], [ 15.7069865, 45.9723286 ], [ 15.7068787, 45.9736411 ], [ 15.7067529, 45.9741915 ], [ 15.7064124, 45.9752604 ], [ 15.7066697, 45.9752743 ], [ 15.7066346, 45.9753499 ], [ 15.7064091, 45.9753409 ], [ 15.7066043, 45.9758547 ], [ 15.7062807, 45.9762233 ], [ 15.7057861, 45.9763585 ], [ 15.7056447, 45.9765623 ], [ 15.705512, 45.9771751 ], [ 15.7056974, 45.977819 ], [ 15.7057846, 45.9781661 ], [ 15.7056828, 45.9784294 ], [ 15.70539, 45.9787665 ], [ 15.7051518, 45.9788861 ], [ 15.7045428, 45.9789348 ], [ 15.7041838, 45.9791167 ], [ 15.7041672, 45.9793624 ], [ 15.7044586, 45.9796215 ], [ 15.7050787, 45.9796891 ], [ 15.7051954, 45.9795436 ], [ 15.7053443, 45.979671 ], [ 15.7056238, 45.9796545 ], [ 15.7058249, 45.9797491 ], [ 15.7060427, 45.980235 ], [ 15.7061527, 45.9809213 ], [ 15.7060542, 45.9810091 ], [ 15.7058415, 45.9810255 ], [ 15.705642, 45.980985 ], [ 15.7054159, 45.9807333 ], [ 15.705559, 45.9804605 ], [ 15.705603, 45.9801632 ], [ 15.7056008, 45.9801545 ], [ 15.7052774, 45.9800508 ], [ 15.7049779, 45.9801861 ], [ 15.7044295, 45.9803281 ], [ 15.7043308, 45.980564 ], [ 15.7046418, 45.9807941 ], [ 15.7047003, 45.9810942 ], [ 15.7045968, 45.9813843 ], [ 15.7041047, 45.982038 ], [ 15.7039743, 45.9823311 ], [ 15.7040017, 45.9826259 ], [ 15.7042305, 45.9828213 ], [ 15.7048642, 45.9830303 ], [ 15.7050532, 45.9832559 ], [ 15.7049212, 45.9836243 ], [ 15.7048042, 45.9838238 ], [ 15.7048451, 45.9839847 ], [ 15.7048104, 45.9843003 ], [ 15.7048925, 45.9845757 ], [ 15.70545, 45.9850521 ], [ 15.7054092, 45.9851854 ], [ 15.7052752, 45.9852661 ], [ 15.7049154, 45.9853378 ], [ 15.7045999, 45.9852772 ], [ 15.7042134, 45.9848612 ], [ 15.7042718, 45.9844728 ], [ 15.7041244, 45.9842502 ], [ 15.7039733, 45.9841215 ], [ 15.7036521, 45.9843369 ], [ 15.7033959, 45.9846538 ], [ 15.7027002, 45.9851908 ], [ 15.7026544, 45.9855847 ], [ 15.7028329, 45.9857746 ], [ 15.703094, 45.9859155 ], [ 15.7033482, 45.9859989 ], [ 15.7039974, 45.9863913 ], [ 15.7041322, 45.9867007 ], [ 15.704228830199565, 45.986843859920441 ], [ 15.709388103326214, 45.987252927592834 ], [ 15.728447125083237, 45.971797187135785 ], [ 15.728778155347795, 45.970037497106787 ], [ 15.749546813717476, 45.959855717676803 ], [ 15.765741986369802, 45.965657694013508 ], [ 15.769910803741832, 45.964515075917518 ], [ 15.772646132668333, 45.965205162779448 ], [ 15.784337597920418, 45.971564530003434 ], [ 15.795939095081931, 45.971866260160056 ], [ 15.817370613982725, 45.988511846130066 ], [ 15.84291646300735, 45.971900804845525 ], [ 15.843030001628419, 45.971819358560737 ], [ 15.851681045778264, 45.972026682388041 ], [ 15.856300420778446, 45.967753196498066 ], [ 15.859830901121418, 45.966011059723336 ], [ 15.889316876700672, 45.972140280835553 ], [ 15.898468089286879, 45.960636561654127 ], [ 15.898675390836933, 45.957198695454558 ], [ 15.922400981141593, 45.954385838469236 ], [ 15.932637507981598, 45.90855758445003 ], [ 15.938028052918959, 45.901008385958015 ], [ 15.913331063658521, 45.886924694750846 ], [ 15.904464209604949, 45.879627951988866 ], [ 15.902387007290695, 45.877448134265471 ], [ 15.898973399602616, 45.870687020897904 ], [ 15.898704764034692, 45.870264499434626 ], [ 15.887171889492233, 45.861757694158257 ], [ 15.870135046259172, 45.859991221962694 ], [ 15.856877775342367, 45.851865490233692 ], [ 15.854392318672355, 45.846571674110663 ], [ 15.832133184180565, 45.833602111757557 ], [ 15.824145949306725, 45.833391902428247 ], [ 15.817605975532079, 45.829126255187973 ], [ 15.818175065158798, 45.822117245628199 ], [ 15.831868117501644, 45.791193518369099 ], [ 15.836280235097959, 45.786566607785545 ], [ 15.852611419493746, 45.787489120838742 ], [ 15.853675107843413, 45.780362376702584 ], [ 15.862965114864998, 45.752306954761544 ], [ 15.872599778185402, 45.744762495636351 ], [ 15.873372027648552, 45.740907816854268 ], [ 15.866754467484434, 45.711049287726681 ], [ 15.846686896585664, 45.71300582982321 ], [ 15.827268223434579, 45.721272593892927 ], [ 15.805061933601566, 45.704492032128861 ], [ 15.811727559919541, 45.683460527660344 ], [ 15.842413359770877, 45.666091982784366 ], [ 15.848003113107682, 45.659370674122812 ], [ 15.850308646851783, 45.649595761986028 ], [ 15.891535995011349, 45.6448986033258 ], [ 15.894574073200902, 45.624575104154843 ], [ 15.920587990352653, 45.613370699202143 ], [ 15.929233778664003, 45.604213852688467 ], [ 15.940072432316912, 45.615966028143774 ], [ 15.934204893206902, 45.63986578079858 ], [ 15.935816622395073, 45.647011309971994 ], [ 15.95513166250386, 45.652930431378927 ], [ 15.959898197082673, 45.685090369884598 ], [ 15.971540319387403, 45.693739641643489 ], [ 15.971572301798586, 45.698032497673076 ], [ 15.985302800253558, 45.719060589485579 ], [ 15.999265423935292, 45.723921637550376 ], [ 16.01246554444997, 45.721661380272536 ], [ 16.01619438799063, 45.72458707623445 ], [ 16.019456058980161, 45.72509477281038 ], [ 16.02041521871713, 45.749509077192251 ], [ 16.033262031879669, 45.754535631877395 ], [ 16.035748376151712, 45.75600498603098 ], [ 16.037625290992271, 45.76498570816274 ], [ 16.039121082989599, 45.766430072121537 ], [ 16.07103799873703, 45.761658954838381 ], [ 16.078623113858683, 45.773215147214707 ], [ 16.084781485165955, 45.779624299073248 ], [ 16.093693605566852, 45.780888847933312 ], [ 16.096087204300396, 45.783749561411014 ], [ 16.127777078941026, 45.788651944034235 ], [ 16.131274897873233, 45.79874575233071 ], [ 16.144716186823473, 45.804979898370945 ], [ 16.160826384501988, 45.795997090070983 ], [ 16.172065636432226, 45.796168737902242 ], [ 16.185738550684345, 45.785490309169553 ], [ 16.201014377017799, 45.79092875097129 ], [ 16.206253841686113, 45.815878450864318 ], [ 16.20919164715664, 45.819818472495434 ], [ 16.20987658246408, 45.820957291855414 ], [ 16.213418800887272, 45.823297552133546 ], [ 16.214120114557581, 45.823914985342391 ], [ 16.216740112306073, 45.830660072647959 ], [ 16.227218262903065, 45.844603064457509 ], [ 16.212757750481309, 45.870225090275468 ], [ 16.200976526618422, 45.87153135052116 ], [ 16.193524143611057, 45.869976382759297 ], [ 16.189922386498743, 45.869832082984061 ], [ 16.18125874355367, 45.877009158426247 ], [ 16.178329222751767, 45.881088123955642 ], [ 16.179225111066074, 45.886224967443304 ], [ 16.174500888785875, 45.916453209628799 ], [ 16.166698225383943, 45.920757181631174 ], [ 16.160781413519935, 45.929811058745642 ], [ 16.164544091018616, 45.96024510819862 ], [ 16.164507731078295, 45.960602871375499 ], [ 16.158026125346176, 45.975214867805889 ], [ 16.168004636143959, 45.986416493567532 ], [ 16.176063737265896, 45.989974228783346 ], [ 16.182832467699548, 46.023586989029504 ], [ 16.203445473377403, 46.034778659519347 ], [ 16.20434634504673, 46.0398101970071 ], [ 16.219148633731258, 46.056655471141887 ], [ 16.22070538435608, 46.057126596302886 ], [ 16.221349606871929, 46.056942672612493 ], [ 16.224227668932638, 46.057187569096115 ], [ 16.25074661031358, 46.066911546438305 ], [ 16.263921506062193, 46.051164830591155 ], [ 16.264766347883963, 46.047052507856478 ], [ 16.268337667553578, 46.041601270260294 ], [ 16.26863604045943, 46.029275001528951 ], [ 16.272398127508218, 46.020640489402346 ], [ 16.293016576492143, 46.018688271216206 ], [ 16.303224634460488, 46.013689663259029 ], [ 16.306499525182357, 46.013309723505088 ], [ 16.319474266061302, 46.027059572858249 ], [ 16.334381951477294, 46.022343215904776 ], [ 16.360366816306563, 46.035549333668264 ], [ 16.371965985174636, 46.018195708635098 ], [ 16.402333735844937, 46.017251704738285 ], [ 16.40297793984799, 46.016275044801517 ], [ 16.433969353390577, 46.009400015825733 ], [ 16.434731538627382, 46.001318230118699 ], [ 16.443323503368656, 45.984394392920045 ], [ 16.46009261924798, 45.986654654625006 ], [ 16.470111439729777, 45.972525795789359 ], [ 16.458765702314508, 45.960566868163049 ], [ 16.450423278510112, 45.948559872756682 ], [ 16.453139617137818, 45.945942699479374 ], [ 16.474340248242399, 45.942163341364001 ], [ 16.485999323260192, 45.953948663555501 ], [ 16.487194423865851, 45.95901267184523 ], [ 16.484395739943562, 45.970640969650333 ], [ 16.490686030813599, 45.977133168935346 ], [ 16.521183070036962, 45.96696727045633 ], [ 16.522016880907579, 45.962308828867592 ], [ 16.523865184654731, 45.957962238758135 ], [ 16.550094135634097, 45.948677752345809 ], [ 16.555055237727306, 45.949273150044441 ], [ 16.565828515896584, 45.930454542721478 ], [ 16.568576813403894, 45.930274823336021 ], [ 16.596446254506439, 45.915611856012994 ], [ 16.606382273804844, 45.926369620368732 ], [ 16.626815672035999, 45.93099957112404 ], [ 16.63079442118795, 45.937471389776846 ], [ 16.635899322014673, 45.937255236934654 ], [ 16.658785500836832, 45.924299974891241 ], [ 16.669805038429121, 45.932729936913184 ], [ 16.676817017272992, 45.932120599106646 ], [ 16.680853685530948, 45.928406599840351 ], [ 16.701765236061327, 45.928038356627674 ], [ 16.703717466507353, 45.915553076445832 ], [ 16.685973242425618, 45.896935047996365 ], [ 16.700138421386743, 45.875054898691189 ], [ 16.69463966634796, 45.861613844460756 ], [ 16.695763068324084, 45.846733270803156 ], [ 16.688616944481222, 45.838084177092611 ], [ 16.666708805732235, 45.832327971979055 ], [ 16.654306602231291, 45.838396704810179 ], [ 16.631432621184025, 45.834095319950656 ], [ 16.615705298744619, 45.816715676647036 ], [ 16.615179352159622, 45.81652498620663 ], [ 16.605939445052069, 45.805458757366779 ], [ 16.600309847347557, 45.800574592487116 ], [ 16.586171037911932, 45.807919052386147 ], [ 16.560275685116007, 45.79705127095275 ], [ 16.553186880163626, 45.804790799854352 ], [ 16.545162456942272, 45.798454395180435 ], [ 16.522610670805889, 45.798601153507938 ], [ 16.520178339140809, 45.790318356343626 ], [ 16.520564530172965, 45.787104680803488 ], [ 16.515934443783294, 45.767995092010473 ], [ 16.504913993447975, 45.760591576785203 ], [ 16.498307943436838, 45.745629132058347 ], [ 16.512102128801381, 45.737646069215025 ], [ 16.521273579462587, 45.712084154509157 ], [ 16.521765293875532, 45.706974244094184 ], [ 16.546358123655967, 45.708941738190596 ], [ 16.560246510895571, 45.700141181901458 ], [ 16.567725536515233, 45.69845536387998 ], [ 16.571573224389574, 45.684342509018435 ], [ 16.597630780378708, 45.672725602455124 ], [ 16.59824079384876, 45.66148897139422 ], [ 16.583026414510385, 45.64700302449662 ], [ 16.584104629850906, 45.635675897434162 ], [ 16.575149056366122, 45.628958569369424 ], [ 16.564391901427154, 45.629609406429914 ], [ 16.546720815545878, 45.611541162741183 ], [ 16.544856508268445, 45.595177844569513 ], [ 16.489900291079628, 45.614753381981103 ], [ 16.459037893038943, 45.59229748199408 ], [ 16.421598163488209, 45.621742437837618 ], [ 16.415053521296642, 45.6197071909519 ], [ 16.40988826763461, 45.620050617516135 ], [ 16.407521682912975, 45.620340286126599 ], [ 16.370873290658189, 45.633290787750312 ], [ 16.364091818752225, 45.63076302604297 ], [ 16.322593470711166, 45.656266077642073 ], [ 16.321492624685082, 45.659222508677502 ], [ 16.313246128246657, 45.65473349999187 ], [ 16.301620016422927, 45.632517369237135 ], [ 16.306420224254712, 45.611486666734883 ], [ 16.297938600894753, 45.583869989490019 ], [ 16.293349303279779, 45.577219133630869 ], [ 16.26960326568852, 45.581070258095195 ], [ 16.266083292131007, 45.583167531496123 ], [ 16.251818455034741, 45.607109146590616 ], [ 16.247963560132725, 45.611685016609478 ], [ 16.213263847822926, 45.636917434027303 ], [ 16.209867047546808, 45.638065478033745 ], [ 16.204582929722314, 45.643287260720662 ], [ 16.194111541679408, 45.649280604254159 ], [ 16.161919811446381, 45.631652565689464 ], [ 16.158906468356726, 45.629588259863105 ], [ 16.141486758260047, 45.629523186962494 ], [ 16.121856945350693, 45.605031086836213 ], [ 16.105552187821466, 45.61811632928692 ], [ 16.094592223304261, 45.620983059368918 ], [ 16.092311248491981, 45.617954803767681 ], [ 16.089881592270451, 45.609518508272089 ], [ 16.093148851255336, 45.568243000681541 ], [ 16.101940507885214, 45.55830641197312 ], [ 16.097669030977027, 45.525514568649292 ], [ 16.101382661194997, 45.516819294329466 ], [ 16.096519103165807, 45.494645524551551 ], [ 16.057006148945526, 45.475745233667659 ], [ 16.026585167768445, 45.501828504351863 ], [ 16.009771652277902, 45.488526323482567 ], [ 16.00442744513348, 45.470863676070948 ], [ 15.967793487624119, 45.468117003277762 ], [ 15.956249855242692, 45.436727559047249 ], [ 15.90765590134281, 45.442294635236784 ], [ 15.91249658345585, 45.490550005147469 ], [ 15.896419888664708, 45.507312025423545 ], [ 15.876265764910247, 45.506681590334338 ], [ 15.869696494612858, 45.535340265866893 ], [ 15.836235078631567, 45.553084487129553 ], [ 15.824595858113222, 45.502019261607195 ], [ 15.785682259823435, 45.520742556999615 ], [ 15.761459904979684, 45.571763798959886 ], [ 15.755106947540645, 45.570027205996261 ], [ 15.720463215120969, 45.567386352287592 ], [ 15.690124737221508, 45.571810992790283 ], [ 15.679674898024118, 45.578157194555629 ], [ 15.679422972193018, 45.580079510716708 ], [ 15.620989649419521, 45.620600980375102 ], [ 15.618348231815894, 45.619531390333762 ], [ 15.609362977205237, 45.612432992542843 ], [ 15.593729951116664, 45.615052117917074 ], [ 15.581398945860897, 45.598311396261153 ], [ 15.569952770899134, 45.595325449755471 ], [ 15.565816956579335, 45.592954293666573 ], [ 15.561910904790521, 45.593773341616703 ], [ 15.552064578263211, 45.598653312910294 ], [ 15.545992721866048, 45.608558875232475 ], [ 15.545329605741765, 45.611613476630808 ] ] ] } }
]
}
