{
"type": "FeatureCollection",
"name": "zupanija_16_meta",
"crs": { "type": "name", "properties": { "name": "urn:ogc:def:crs:EPSG::3765" } },
"features": [
{ "type": "Feature", "properties": { "name": "VUKOVARSKO-SRIJEMSKA ŽUPANIJA", "population": 93699, "latitude": 6647.8116877446137, "longitude": 2774.622097719403 }, "geometry": { "type": "Polygon", "coordinates": [ [ [ 18.7232092, 45.0241196 ], [ 18.7216738, 45.0253228 ], [ 18.721219, 45.026722 ], [ 18.7202588, 45.0305495 ], [ 18.719927537161269, 45.032615745748508 ], [ 18.7199253, 45.0326297 ], [ 18.719502860674751, 45.033629281770196 ], [ 18.7192481, 45.0342321 ], [ 18.7166203, 45.037231 ], [ 18.7146922, 45.038135 ], [ 18.7127616, 45.0384963 ], [ 18.7108391, 45.0385297 ], [ 18.7071041, 45.0383555 ], [ 18.7027891, 45.0384834 ], [ 18.7026414, 45.0384878 ], [ 18.699034, 45.0385319 ], [ 18.6969037, 45.0387303 ], [ 18.6940271, 45.0395792 ], [ 18.6920679, 45.0410124 ], [ 18.6907988, 45.0420366 ], [ 18.690614162199694, 45.04218560328156 ], [ 18.6901905, 45.0425275 ], [ 18.6879628, 45.0447274 ], [ 18.6841553, 45.047776 ], [ 18.6821293, 45.0491687 ], [ 18.6784296, 45.0517118 ], [ 18.673382630557708, 45.056115955818285 ], [ 18.6705374, 45.0585988 ], [ 18.6679065, 45.0620968 ], [ 18.668153, 45.0638939 ], [ 18.6688351, 45.0651573 ], [ 18.6706098, 45.0671005 ], [ 18.6745904, 45.0689407 ], [ 18.6799771, 45.0706221 ], [ 18.6836868, 45.0718496 ], [ 18.6860969, 45.0738108 ], [ 18.6873253, 45.0757609 ], [ 18.6878851, 45.0784821 ], [ 18.6876537, 45.0802933 ], [ 18.687235892013533, 45.081106297438197 ], [ 18.687235892013529, 45.081106297438204 ], [ 18.6855479, 45.0843909 ], [ 18.6832267, 45.0878871 ], [ 18.680106356700986, 45.09137630287421 ], [ 18.6796086, 45.0919329 ], [ 18.6771405, 45.0935512 ], [ 18.6752352, 45.0944902 ], [ 18.6731864, 45.0949392 ], [ 18.6711211, 45.0949115 ], [ 18.6689503, 45.0947523 ], [ 18.6670908, 45.0942583 ], [ 18.6651104, 45.0933223 ], [ 18.6605027, 45.0896741 ], [ 18.660045242160312, 45.088954974820631 ], [ 18.6561022, 45.0827565 ], [ 18.6535149, 45.0784903 ], [ 18.6534744, 45.0771601 ], [ 18.6538787, 45.0755295 ], [ 18.6554647, 45.0728963 ], [ 18.658271146382848, 45.069209285197182 ], [ 18.652677412960102, 45.056372406675727 ], [ 18.6519397, 45.0565598 ], [ 18.6507878, 45.0570547 ], [ 18.646551, 45.0594734 ], [ 18.6432585, 45.0612821 ], [ 18.6407084, 45.0619874 ], [ 18.6383493, 45.0623155 ], [ 18.6307667, 45.0619875 ], [ 18.6220803, 45.061205 ], [ 18.6185039, 45.0611609 ], [ 18.6152917, 45.0616596 ], [ 18.6091121, 45.0631115 ], [ 18.60609, 45.0657326 ], [ 18.6058156, 45.0671446 ], [ 18.6062821, 45.0692823 ], [ 18.607666, 45.0710673 ], [ 18.6131253, 45.0745564 ], [ 18.6182396, 45.0772262 ], [ 18.6243505, 45.0794295 ], [ 18.6309215, 45.0811129 ], [ 18.6338617, 45.0832983 ], [ 18.6363377, 45.0859206 ], [ 18.636802, 45.0879964 ], [ 18.636183, 45.0906185 ], [ 18.6356082, 45.0920533 ], [ 18.634326, 45.0929128 ], [ 18.6303214, 45.0952253 ], [ 18.6276519, 45.0960341 ], [ 18.6258146, 45.0962994 ], [ 18.6243153, 45.0961553 ], [ 18.6228743, 45.0954255 ], [ 18.6219549, 45.0942694 ], [ 18.621327, 45.0924758 ], [ 18.6209607, 45.0887048 ], [ 18.6204631, 45.0856867 ], [ 18.6181618, 45.0827344 ], [ 18.6130461, 45.0804321 ], [ 18.6084124, 45.0806854 ], [ 18.60248, 45.0815369 ], [ 18.5971858, 45.083109 ], [ 18.5929097, 45.0865239 ], [ 18.58893090802319, 45.089776487771168 ], [ 18.5879009, 45.0906185 ], [ 18.582927, 45.0931877 ], [ 18.574283, 45.095207 ], [ 18.5714205, 45.0951812 ], [ 18.5702854, 45.0950821 ], [ 18.5691347, 45.0946966 ], [ 18.5685128, 45.094179 ], [ 18.5679057, 45.0934572 ], [ 18.5677975, 45.0919541 ], [ 18.5678908, 45.0905884 ], [ 18.568921, 45.0894436 ], [ 18.5735196, 45.0863586 ], [ 18.5804731, 45.0820962 ], [ 18.5819007, 45.0804981 ], [ 18.5826782, 45.078405 ], [ 18.5828182, 45.0749566 ], [ 18.5817476, 45.0718186 ], [ 18.5798955, 45.069296 ], [ 18.5775329, 45.0676712 ], [ 18.5758896, 45.0669715 ], [ 18.5751057, 45.0666377 ], [ 18.5741284, 45.0665782 ], [ 18.573162, 45.06677 ], [ 18.5722601, 45.0670895 ], [ 18.5712317, 45.0680315 ], [ 18.5704144, 45.0719334 ], [ 18.5695761, 45.0773251 ], [ 18.5664811, 45.0803847 ], [ 18.5576604, 45.0862851 ], [ 18.5527143, 45.0897634 ], [ 18.550904322522392, 45.090920251612545 ], [ 18.5481409, 45.0926865 ], [ 18.5443894, 45.0939204 ], [ 18.5401254, 45.0939922 ], [ 18.536949, 45.0930682 ], [ 18.5307009, 45.0897542 ], [ 18.5295439, 45.088512 ], [ 18.5299482, 45.0864853 ], [ 18.5315031, 45.0853617 ], [ 18.5430407, 45.0817044 ], [ 18.546024, 45.0804651 ], [ 18.5488562, 45.078763 ], [ 18.5502245, 45.0769232 ], [ 18.5507164, 45.075922 ], [ 18.5510063, 45.0749208 ], [ 18.5506423, 45.0730284 ], [ 18.5496432, 45.0714011 ], [ 18.5469077, 45.0693523 ], [ 18.5432453, 45.0672939 ], [ 18.5421335, 45.0665973 ], [ 18.53887, 45.0646382 ], [ 18.5373674, 45.0634862 ], [ 18.536489186087362, 45.061483227718512 ], [ 18.517297591158059, 45.081928025945061 ], [ 18.513537826587044, 45.087401887066143 ], [ 18.493270313864606, 45.10298246129112 ], [ 18.487559471410254, 45.127606143085572 ], [ 18.514251803593208, 45.147009568858287 ], [ 18.541595713303867, 45.176433577539441 ], [ 18.557987217381992, 45.203121697724384 ], [ 18.534656251568066, 45.215134423825617 ], [ 18.521709170834093, 45.237896805855762 ], [ 18.53049558804635, 45.299839718489089 ], [ 18.555026100333858, 45.295211102816992 ], [ 18.559329725169526, 45.295520967336643 ], [ 18.57563615086838, 45.298331131866931 ], [ 18.592251432399962, 45.328317745189061 ], [ 18.615761118554836, 45.340180274148253 ], [ 18.630748061806116, 45.33615610796226 ], [ 18.649655274698969, 45.342936818798172 ], [ 18.658721473861739, 45.37367097299294 ], [ 18.66817920789342, 45.404328380072116 ], [ 18.674999048969372, 45.408496638573759 ], [ 18.703392939376247, 45.39691580487542 ], [ 18.726880542253447, 45.388281844910452 ], [ 18.727620235112873, 45.389017435197388 ], [ 18.740923774497027, 45.44244348299847 ], [ 18.76687742284993, 45.401589363747334 ], [ 18.792234176071524, 45.400631576189383 ], [ 18.814251834958817, 45.409997630861625 ], [ 18.814872324878323, 45.435270239930929 ], [ 18.879614497549014, 45.463981624394521 ], [ 18.882905273492213, 45.467852203579 ], [ 18.918904234222225, 45.477165043330615 ], [ 18.924156191405547, 45.47464768740624 ], [ 18.932954314923428, 45.46881012600312 ], [ 18.991637568509791, 45.478561486143619 ], [ 18.991598, 45.4782964 ], [ 18.9914803, 45.4755759 ], [ 18.9915576, 45.472087 ], [ 18.9916109, 45.4711001 ], [ 18.9919145, 45.4696847 ], [ 18.9920022, 45.4684005 ], [ 18.9918634, 45.4647992 ], [ 18.991762, 45.462988 ], [ 18.991592, 45.4614899 ], [ 18.9913232, 45.4604327 ], [ 18.9908484, 45.4592672 ], [ 18.9902766, 45.4583569 ], [ 18.9895105, 45.4572347 ], [ 18.9891113, 45.4563388 ], [ 18.9887593, 45.4553658 ], [ 18.988641, 45.4544294 ], [ 18.9886665, 45.4526524 ], [ 18.9887788, 45.4515901 ], [ 18.9888824, 45.4507332 ], [ 18.9891493, 45.44959 ], [ 18.9897443, 45.4478763 ], [ 18.9900566, 45.4472273 ], [ 18.992234, 45.4441052 ], [ 18.9934532, 45.4426112 ], [ 18.9944083, 45.4415723 ], [ 18.9952498, 45.4409089 ], [ 18.9965879, 45.4399882 ], [ 18.9990915, 45.4385483 ], [ 19.0010787, 45.4373364 ], [ 19.0038496, 45.4354921 ], [ 19.0047551, 45.4350005 ], [ 19.0059197, 45.4344465 ], [ 19.0087875, 45.4334714 ], [ 19.0108443, 45.4327011 ], [ 19.0130896, 45.4316962 ], [ 19.0143246, 45.4311077 ], [ 19.0156718, 45.4303976 ], [ 19.0169395, 45.4296416 ], [ 19.0189237, 45.4283453 ], [ 19.0195963, 45.4278363 ], [ 19.020484, 45.4271472 ], [ 19.0212412, 45.4263749 ], [ 19.021933, 45.4258103 ], [ 19.0237283, 45.4246182 ], [ 19.0246968, 45.4239347 ], [ 19.0253869, 45.4233025 ], [ 19.025716110871812, 45.42301241059949 ], [ 19.025716110871816, 45.42301241059949 ], [ 19.025716110871819, 45.42301241059949 ], [ 19.0269479, 45.421927 ], [ 19.0275855, 45.4213253 ], [ 19.0281084, 45.4207665 ], [ 19.0289721, 45.4197062 ], [ 19.0293969, 45.4189826 ], [ 19.0297582, 45.4182258 ], [ 19.030127, 45.4167276 ], [ 19.0304818, 45.4145261 ], [ 19.0304794, 45.4134137 ], [ 19.0302405, 45.4120835 ], [ 19.0297586, 45.4105562 ], [ 19.0295687, 45.4100003 ], [ 19.0288378, 45.4087494 ], [ 19.0278378, 45.4074673 ], [ 19.0272816, 45.4068048 ], [ 19.0265315, 45.4061423 ], [ 19.026090198952318, 45.40575663898364 ], [ 19.0248445, 45.404668 ], [ 19.0233172, 45.4034507 ], [ 19.0222185, 45.4027422 ], [ 19.0214223, 45.4023877 ], [ 19.0204567, 45.4019439 ], [ 19.0189176, 45.4014826 ], [ 19.0173927, 45.4011373 ], [ 19.0157352, 45.4008852 ], [ 19.0146621, 45.4008881 ], [ 19.0111582, 45.4011336 ], [ 19.005731, 45.4007108 ], [ 19.0012514, 45.4007108 ], [ 18.998268, 45.4004929 ], [ 18.9924383, 45.3998176 ], [ 18.9894818, 45.3993657 ], [ 18.9871785, 45.3988851 ], [ 18.9855166, 45.3986254 ], [ 18.9840681, 45.3985096 ], [ 18.982348, 45.3973508 ], [ 18.982052849257947, 45.397210835660985 ], [ 18.9805467, 45.3964966 ], [ 18.9765384, 45.3945957 ], [ 18.9752877, 45.393735 ], [ 18.9736263, 45.3924151 ], [ 18.9712836, 45.3899047 ], [ 18.9709444, 45.3893377 ], [ 18.9705059, 45.3884258 ], [ 18.969995, 45.3868074 ], [ 18.96980401950815, 45.385865892966024 ], [ 18.9695958, 45.3848394 ], [ 18.9695505, 45.3839353 ], [ 18.9695081, 45.3827614 ], [ 18.9695644, 45.3822131 ], [ 18.9697369, 45.3811304 ], [ 18.970124, 45.3798969 ], [ 18.970512, 45.3788958 ], [ 18.9709291, 45.3781179 ], [ 18.971133902364897, 45.377840419261076 ], [ 18.9714321, 45.3774364 ], [ 18.9724989, 45.3760222 ], [ 18.9741017, 45.3739124 ], [ 18.9744515, 45.3735631 ], [ 18.974821341422469, 45.37331837752366 ], [ 18.974821341422473, 45.37331837752366 ], [ 18.9763693, 45.3722941 ], [ 18.9790904, 45.3705073 ], [ 18.98421022029709, 45.36733974283203 ], [ 18.9844647, 45.3671823 ], [ 18.9861104, 45.3662659 ], [ 18.9968188, 45.3611698 ], [ 19.001442506741505, 45.359113306310562 ], [ 19.0031009, 45.3583757 ], [ 19.003637503158242, 45.358066002429986 ], [ 19.004923231834042, 45.357323951175751 ], [ 19.0051678, 45.3571828 ], [ 19.0092156, 45.3587234 ], [ 19.009599, 45.3587999 ], [ 19.0102345, 45.358757 ], [ 19.0107979, 45.3586127 ], [ 19.0123406, 45.3581407 ], [ 19.013570592684108, 45.357741645238349 ], [ 19.013570592684111, 45.357741645238349 ], [ 19.0138318, 45.3576569 ], [ 19.0145664, 45.3573563 ], [ 19.0158177, 45.356591 ], [ 19.0193999, 45.3542037 ], [ 19.020550360604336, 45.353426342919541 ], [ 19.020550360604339, 45.353426342919541 ], [ 19.0210508, 45.3530882 ], [ 19.021865, 45.3526053 ], [ 19.0232471, 45.3519511 ], [ 19.0239655, 45.3516672 ], [ 19.0246575, 45.3514352 ], [ 19.0271378, 45.3510138 ], [ 19.0312066, 45.3504111 ], [ 19.0328105, 45.3502074 ], [ 19.0344294, 45.3500342 ], [ 19.0377153, 45.3495918 ], [ 19.0393333, 45.3494022 ], [ 19.040174, 45.3493175 ], [ 19.0418135, 45.3491994 ], [ 19.044309, 45.3490328 ], [ 19.0459174, 45.3489066 ], [ 19.0470066, 45.3487819 ], [ 19.0478259, 45.348629 ], [ 19.0484765, 45.3484614 ], [ 19.0491155, 45.3481808 ], [ 19.0497583, 45.3478257 ], [ 19.0510292, 45.3470462 ], [ 19.052191, 45.3462989 ], [ 19.0524928, 45.3460559 ], [ 19.0526562, 45.3458157 ], [ 19.0528935, 45.3453104 ], [ 19.0536371, 45.3431064 ], [ 19.0619908, 45.3418385 ], [ 19.0652057, 45.3417244 ], [ 19.0692309, 45.3416365 ], [ 19.0726955, 45.3416731 ], [ 19.0731912, 45.3416515 ], [ 19.0761809, 45.3410597 ], [ 19.0789795, 45.3404872 ], [ 19.0825355, 45.3395052 ], [ 19.0833843, 45.3392347 ], [ 19.0858479, 45.3381357 ], [ 19.0872576, 45.3375845 ], [ 19.0893337, 45.336588 ], [ 19.0920011, 45.3351767 ], [ 19.0925996, 45.334783 ], [ 19.0930263, 45.3342635 ], [ 19.0941399, 45.3327122 ], [ 19.0952664, 45.3314342 ], [ 19.095717, 45.3306857 ], [ 19.095780049232381, 45.330556034450431 ], [ 19.0968111, 45.3284356 ], [ 19.0973871, 45.3273174 ], [ 19.097482, 45.3267854 ], [ 19.097519, 45.3254727 ], [ 19.0975243, 45.324829 ], [ 19.0976718, 45.3239843 ], [ 19.0980159, 45.3224892 ], [ 19.0981863, 45.3215169 ], [ 19.0983364, 45.3204032 ], [ 19.0982284, 45.3197926 ], [ 19.0981277, 45.3191605 ], [ 19.0981191, 45.3168557 ], [ 19.0980279, 45.3162804 ], [ 19.0974607, 45.3140578 ], [ 19.0974208, 45.313545 ], [ 19.0974549, 45.3128835 ], [ 19.0978876, 45.311402 ], [ 19.0981978, 45.3102635 ], [ 19.0991676, 45.308001 ], [ 19.1002024, 45.3058528 ], [ 19.1036946, 45.2998012 ], [ 19.104229, 45.2992967 ], [ 19.1060813, 45.2978897 ], [ 19.108713, 45.296013 ], [ 19.1111869, 45.2944809 ], [ 19.112987, 45.2935058 ], [ 19.1142409, 45.2928381 ], [ 19.1166612, 45.291813 ], [ 19.1213297, 45.290082 ], [ 19.123685464074839, 45.289190479158066 ], [ 19.1248375, 45.2887545 ], [ 19.1263071, 45.2882183 ], [ 19.1275273, 45.2877256 ], [ 19.1297227, 45.2867381 ], [ 19.1348863, 45.2843011 ], [ 19.1383949, 45.2827764 ], [ 19.1419523, 45.2812455 ], [ 19.1437294, 45.2806124 ], [ 19.1462415, 45.279739 ], [ 19.149812, 45.2785011 ], [ 19.1519678, 45.2778494 ], [ 19.154591, 45.2771686 ], [ 19.1580963, 45.276333 ], [ 19.1636406, 45.2750238 ], [ 19.1676175, 45.2742407 ], [ 19.1683725, 45.2740067 ], [ 19.1694056, 45.2736599 ], [ 19.1707008, 45.273101 ], [ 19.1736234, 45.2715965 ], [ 19.1783291, 45.2692866 ], [ 19.1800227, 45.2684935 ], [ 19.1814322, 45.2680323 ], [ 19.1853698, 45.2669093 ], [ 19.1867847, 45.2669979 ], [ 19.1878694, 45.2670957 ], [ 19.188758, 45.2671283 ], [ 19.1898202, 45.267014 ], [ 19.1909099, 45.2668513 ], [ 19.1919653, 45.2666128 ], [ 19.1939597, 45.2658424 ], [ 19.196282951620489, 45.264927222808154 ], [ 19.1964074, 45.2648782 ], [ 19.1991956, 45.2642363 ], [ 19.1994559, 45.2646229 ], [ 19.2021901, 45.2661285 ], [ 19.2077253, 45.2658295 ], [ 19.214447, 45.2652582 ], [ 19.2165708, 45.2650297 ], [ 19.2186848, 45.2646836 ], [ 19.2204237, 45.264447 ], [ 19.2235927, 45.2648555 ], [ 19.2264044, 45.2654843 ], [ 19.229472, 45.2662681 ], [ 19.234115, 45.2678161 ], [ 19.2394094, 45.2696545 ], [ 19.241405, 45.270501 ], [ 19.2440276, 45.271522 ], [ 19.245079, 45.2722823 ], [ 19.2474559, 45.2741621 ], [ 19.2488595, 45.2753586 ], [ 19.2493349, 45.2763577 ], [ 19.2498923, 45.2772293 ], [ 19.2509679, 45.2784459 ], [ 19.2520561, 45.2791003 ], [ 19.2531566, 45.2796005 ], [ 19.2546582, 45.2802008 ], [ 19.2562114, 45.2806169 ], [ 19.257895, 45.2810353 ], [ 19.2591356, 45.2811744 ], [ 19.2607664, 45.2813866 ], [ 19.2620856, 45.2813317 ], [ 19.2633328, 45.2812467 ], [ 19.2633673, 45.2812413 ], [ 19.2645318, 45.2810842 ], [ 19.2669441, 45.2806755 ], [ 19.2681196, 45.2803479 ], [ 19.2693389, 45.2796239 ], [ 19.270305, 45.2789888 ], [ 19.2732295, 45.2769331 ], [ 19.2737472, 45.2765122 ], [ 19.2740934, 45.2761235 ], [ 19.2745931, 45.2752 ], [ 19.2748883, 45.2746734 ], [ 19.2749636, 45.2737655 ], [ 19.2750896, 45.2719939 ], [ 19.2751126, 45.2711762 ], [ 19.2750146, 45.2707464 ], [ 19.274852, 45.2702575 ], [ 19.2744437, 45.2694457 ], [ 19.2725997, 45.2671914 ], [ 19.2713337, 45.265626 ], [ 19.270435, 45.2646769 ], [ 19.2677132, 45.2623421 ], [ 19.2655966, 45.2605322 ], [ 19.264565, 45.2594994 ], [ 19.2638729, 45.2586604 ], [ 19.2624363, 45.2565775 ], [ 19.2610597, 45.2545611 ], [ 19.2601602, 45.2532851 ], [ 19.259986, 45.252863 ], [ 19.2598118, 45.2523081 ], [ 19.2594639, 45.2506819 ], [ 19.2593219, 45.2499863 ], [ 19.2592775, 45.249402 ], [ 19.2591987, 45.2474762 ], [ 19.259199, 45.246455 ], [ 19.2592691, 45.2459478 ], [ 19.2594594, 45.2453499 ], [ 19.260078, 45.2439783 ], [ 19.2606966, 45.2426066 ], [ 19.2661568, 45.2412283 ], [ 19.2681347, 45.2408018 ], [ 19.2749933, 45.2392568 ], [ 19.2770714, 45.2390781 ], [ 19.2808236, 45.2381341 ], [ 19.2845575, 45.2372756 ], [ 19.2883099, 45.2365167 ], [ 19.2894806, 45.2363609 ], [ 19.2918151, 45.2362049 ], [ 19.293417931285813, 45.236170554665939 ], [ 19.2939945, 45.2361582 ], [ 19.29799, 45.2362109 ], [ 19.3016984, 45.2361312 ], [ 19.3043333, 45.2359267 ], [ 19.3077461, 45.2355772 ], [ 19.3145666, 45.2346997 ], [ 19.3175785, 45.2342989 ], [ 19.3214635, 45.2339891 ], [ 19.3277325, 45.2334142 ], [ 19.3355527, 45.2326044 ], [ 19.336657, 45.2325047 ], [ 19.3377823, 45.2322164 ], [ 19.3389698, 45.2319893 ], [ 19.3402774, 45.2319183 ], [ 19.3418177, 45.2318216 ], [ 19.3444209, 45.2318571 ], [ 19.3466351, 45.2319002 ], [ 19.3481147, 45.23186 ], [ 19.3498295, 45.2316557 ], [ 19.3518989, 45.2314819 ], [ 19.3540465, 45.2313975 ], [ 19.3564618, 45.2313446 ], [ 19.358218, 45.2313763 ], [ 19.3608819, 45.2314719 ], [ 19.3626077, 45.231567 ], [ 19.3644581, 45.2318244 ], [ 19.3664854, 45.2321079 ], [ 19.3676151, 45.2322285 ], [ 19.3688973, 45.2322117 ], [ 19.3702577, 45.2321071 ], [ 19.3710407, 45.2319245 ], [ 19.3718237, 45.2317492 ], [ 19.3731947, 45.2317261 ], [ 19.374219832732223, 45.231739242727336 ], [ 19.3744271, 45.2317419 ], [ 19.374991901221524, 45.231778691522507 ], [ 19.375362, 45.2318028 ], [ 19.3764626, 45.2321157 ], [ 19.37708, 45.2321595 ], [ 19.377085731794935, 45.232159435722167 ], [ 19.379773, 45.2321293 ], [ 19.385544, 45.2321043 ], [ 19.3879049, 45.2322677 ], [ 19.3910249, 45.232514 ], [ 19.391684738285917, 45.232559224740321 ], [ 19.3944215, 45.2327468 ], [ 19.395647, 45.2328796 ], [ 19.3989025, 45.2332325 ], [ 19.4002776, 45.2332912 ], [ 19.4017519, 45.2333189 ], [ 19.4033636, 45.233287 ], [ 19.4035844, 45.233254910304595 ], [ 19.4035844, 45.170106963049001 ], [ 19.403501, 45.17016 ], [ 19.4029499, 45.1700856 ], [ 19.4022689, 45.1702151 ], [ 19.4017854, 45.1695058 ], [ 19.4011513, 45.1696459 ], [ 19.4001508, 45.1700914 ], [ 19.399057, 45.1704859 ], [ 19.396678, 45.1708655 ], [ 19.3949888, 45.1713933 ], [ 19.3937062, 45.1720565 ], [ 19.3901114, 45.172664 ], [ 19.3893115, 45.1729709 ], [ 19.3879812, 45.1731642 ], [ 19.3873167, 45.1732206 ], [ 19.3866409, 45.1731494 ], [ 19.386044017571834, 45.172968501751249 ], [ 19.3857652, 45.172884 ], [ 19.3856061, 45.1725846 ], [ 19.3851529, 45.1721417 ], [ 19.3844564, 45.1718274 ], [ 19.3801723, 45.1716536 ], [ 19.3792223, 45.1715403 ], [ 19.3781206, 45.1719079 ], [ 19.3769217, 45.1717882 ], [ 19.375424, 45.1715963 ], [ 19.3732074, 45.1717275 ], [ 19.3728591, 45.1717508 ], [ 19.3726084, 45.1716276 ], [ 19.372427, 45.1709393 ], [ 19.3723047, 45.1703398 ], [ 19.3684274, 45.1714998 ], [ 19.3670216, 45.1719374 ], [ 19.3666441, 45.1722531 ], [ 19.3645, 45.1743548 ], [ 19.3635375, 45.1753196 ], [ 19.3626734, 45.1733695 ], [ 19.361425854178034, 45.173194274313481 ], [ 19.3589961, 45.172853 ], [ 19.3599992, 45.170174 ], [ 19.354260888043097, 45.169229526594314 ], [ 19.3542024, 45.1692199 ], [ 19.354213243672806, 45.169080308481405 ], [ 19.352836053672235, 45.164767066607254 ], [ 19.3494207, 45.164767 ], [ 19.3484389, 45.1676696 ], [ 19.3483583, 45.1679168 ], [ 19.3470378, 45.1714417 ], [ 19.3480428, 45.1723058 ], [ 19.3479206, 45.1723696 ], [ 19.3468183, 45.1726823 ], [ 19.3463531, 45.1727345 ], [ 19.3459239, 45.1727289 ], [ 19.3455151, 45.1725895 ], [ 19.3450194, 45.1726221 ], [ 19.3445481, 45.1729613 ], [ 19.342025, 45.1740075 ], [ 19.3305749, 45.1769156 ], [ 19.3300267, 45.1770583 ], [ 19.3325927, 45.181884 ], [ 19.332262, 45.1821874 ], [ 19.3310813, 45.1829229 ], [ 19.3301151, 45.1846263 ], [ 19.3290818, 45.1844433 ], [ 19.3283919, 45.1853189 ], [ 19.328484, 45.187014 ], [ 19.3264916, 45.1895707 ], [ 19.3246526, 45.1933359 ], [ 19.3246022, 45.1935528 ], [ 19.3240896, 45.1944109 ], [ 19.323521, 45.1959198 ], [ 19.3225838, 45.1974114 ], [ 19.3217908, 45.1986553 ], [ 19.3214498, 45.2003994 ], [ 19.3213585, 45.2014291 ], [ 19.3213504, 45.2021924 ], [ 19.3213554, 45.2032819 ], [ 19.3214249, 45.2041598 ], [ 19.3212404, 45.2049757 ], [ 19.3209684, 45.2053503 ], [ 19.3207036, 45.2058115 ], [ 19.3205224, 45.2062361 ], [ 19.3203143, 45.2066872 ], [ 19.3200125, 45.2073489 ], [ 19.3193159, 45.207724 ], [ 19.3181336, 45.2079921 ], [ 19.3160032, 45.2076738 ], [ 19.3162554, 45.2077085 ], [ 19.3153141, 45.207444 ], [ 19.3142748, 45.2072405 ], [ 19.312558, 45.2070347 ], [ 19.3102133, 45.2069812 ], [ 19.3079096, 45.2063706 ], [ 19.3054963, 45.2063141 ], [ 19.3032975, 45.206197 ], [ 19.3005511, 45.2058333 ], [ 19.2957054, 45.2055191 ], [ 19.2925017, 45.2054602 ], [ 19.2883063, 45.205048 ], [ 19.288014520912675, 45.205073295051825 ], [ 19.286989, 45.2051622 ], [ 19.2859186, 45.2058174 ], [ 19.2855795, 45.2056934 ], [ 19.2843259, 45.206283 ], [ 19.2836007, 45.2067104 ], [ 19.2828326, 45.2068959 ], [ 19.2830063, 45.205074 ], [ 19.2838089, 45.2035491 ], [ 19.2839348, 45.2025202 ], [ 19.2844571, 45.2016418 ], [ 19.2856779, 45.1978939 ], [ 19.286628485538216, 45.197096499121571 ], [ 19.28606291443101, 45.193841571152674 ], [ 19.2854447, 45.1939395 ], [ 19.2836624, 45.1941227 ], [ 19.2812892, 45.1931455 ], [ 19.2820274, 45.1920376 ], [ 19.282829, 45.1907344 ], [ 19.2840225, 45.1892796 ], [ 19.285080711462363, 45.188188878019908 ], [ 19.282150421503498, 45.171324716073521 ], [ 19.2819942, 45.1713433 ], [ 19.2810946, 45.1711513 ], [ 19.2796826, 45.1713724 ], [ 19.2785566, 45.1714599 ], [ 19.2777055, 45.1715563 ], [ 19.277261, 45.1716705 ], [ 19.2766219, 45.1726473 ], [ 19.2756921, 45.1731721 ], [ 19.2745779, 45.1735911 ], [ 19.2745261, 45.1738826 ], [ 19.2746454, 45.1742573 ], [ 19.2741012, 45.1749262 ], [ 19.2738029, 45.1750554 ], [ 19.2729083, 45.1757026 ], [ 19.2722651, 45.1758489 ], [ 19.271606, 45.1756373 ], [ 19.2707978, 45.1757042 ], [ 19.2691307, 45.1754469 ], [ 19.268388, 45.1751161 ], [ 19.2669323, 45.1754843 ], [ 19.2664503, 45.1753812 ], [ 19.2636119, 45.1742951 ], [ 19.261603, 45.1743427 ], [ 19.2614713, 45.1743458 ], [ 19.261378, 45.1744323 ], [ 19.2572057, 45.1743362 ], [ 19.2571076, 45.1742425 ], [ 19.2549447, 45.1739599 ], [ 19.2539656, 45.1737806 ], [ 19.2500517, 45.1727887 ], [ 19.2475243, 45.1777668 ], [ 19.2377531, 45.1753657 ], [ 19.2368368, 45.176147 ], [ 19.2359974, 45.1773982 ], [ 19.2351524, 45.1784644 ], [ 19.2336603, 45.179424 ], [ 19.2332724, 45.1796734 ], [ 19.230445, 45.1821892 ], [ 19.2302632, 45.18294 ], [ 19.2295627, 45.1834031 ], [ 19.228528, 45.1838514 ], [ 19.2281611, 45.1841358 ], [ 19.2272359, 45.1847639 ], [ 19.2250761, 45.1851609 ], [ 19.2224573, 45.1855285 ], [ 19.2208786, 45.1857502 ], [ 19.2200759, 45.1858628 ], [ 19.218623, 45.1860668 ], [ 19.2180603, 45.1864214 ], [ 19.217236999197794, 45.186761392383872 ], [ 19.2172009, 45.1867763 ], [ 19.2164441, 45.1870705 ], [ 19.2150491, 45.1875536 ], [ 19.2143617, 45.187744 ], [ 19.2129098, 45.1888323 ], [ 19.212696, 45.1894254 ], [ 19.2118575, 45.1901681 ], [ 19.2106958, 45.1907923 ], [ 19.2082046, 45.1915979 ], [ 19.2067228, 45.1918454 ], [ 19.2058231, 45.1923861 ], [ 19.2009838, 45.1948638 ], [ 19.1996809, 45.1958595 ], [ 19.1989527, 45.1966957 ], [ 19.1960054, 45.197696 ], [ 19.1941219, 45.1984639 ], [ 19.1909093, 45.2011832 ], [ 19.1896125, 45.2009844 ], [ 19.188986, 45.200902 ], [ 19.1875012, 45.2011822 ], [ 19.1854425, 45.2018637 ], [ 19.1822548, 45.200671 ], [ 19.1790079, 45.2003115 ], [ 19.1779522, 45.200953 ], [ 19.1765431, 45.2025389 ], [ 19.1762166, 45.202511 ], [ 19.1715618, 45.2002354 ], [ 19.1691472, 45.1974057 ], [ 19.167679297950563, 45.193828828994391 ], [ 19.1660173, 45.189779 ], [ 19.1728239, 45.1879622 ], [ 19.186045, 45.1834861 ], [ 19.1945386, 45.1789152 ], [ 19.1888909, 45.1682741 ], [ 19.187238, 45.1659973 ], [ 19.1741635, 45.1553419 ], [ 19.1739585, 45.1552053 ], [ 19.171437574876382, 45.153130041074768 ], [ 19.171437574876379, 45.153130041074768 ], [ 19.1675027, 45.1498908 ], [ 19.1648383, 45.1476972 ], [ 19.1644773, 45.1474209 ], [ 19.1643926, 45.1473561 ], [ 19.1643277, 45.1473475 ], [ 19.1637283, 45.1468745 ], [ 19.1614804, 45.1451007 ], [ 19.1613719, 45.1450152 ], [ 19.1589488, 45.143103 ], [ 19.158826, 45.1430061 ], [ 19.1563589, 45.1410592 ], [ 19.1532157, 45.1385787 ], [ 19.1419574, 45.1298931 ], [ 19.1412488, 45.1302026 ], [ 19.128858, 45.1322598 ], [ 19.1199837, 45.1337331 ], [ 19.1143425, 45.1377067 ], [ 19.108459928232833, 45.139339585954453 ], [ 19.0928226, 45.1436802 ], [ 19.0906517, 45.1442828 ], [ 19.0882072, 45.1449613 ], [ 19.0865622, 45.1454179 ], [ 19.0875471, 45.1383634 ], [ 19.0858392, 45.1373224 ], [ 19.085708024885506, 45.137206220067988 ], [ 19.084136, 45.1358139 ], [ 19.0823378, 45.1346925 ], [ 19.081228, 45.1343286 ], [ 19.0810248, 45.1338545 ], [ 19.080931, 45.1334465 ], [ 19.0813999, 45.132862 ], [ 19.081353, 45.1319688 ], [ 19.0805558, 45.1311527 ], [ 19.0784108, 45.1280255 ], [ 19.07834, 45.1279223 ], [ 19.077897, 45.1272764 ], [ 19.077891, 45.1272028 ], [ 19.0768002, 45.1137373 ], [ 19.0808674, 45.1126216 ], [ 19.0834264, 45.1118141 ], [ 19.0842826, 45.1113995 ], [ 19.0823703, 45.1101085 ], [ 19.0824612, 45.1095756 ], [ 19.0837371, 45.107369 ], [ 19.0853016, 45.1071548 ], [ 19.0860675, 45.1066885 ], [ 19.0864314, 45.1064723 ], [ 19.0869914, 45.106479 ], [ 19.0877858, 45.1068829 ], [ 19.0886334, 45.1055938 ], [ 19.0886722, 45.1055475 ], [ 19.0896483, 45.1043842 ], [ 19.0911897, 45.1034178 ], [ 19.0935067, 45.1015527 ], [ 19.0927982, 45.1005119 ], [ 19.0931524, 45.0993968 ], [ 19.0941194, 45.0985588 ], [ 19.0944833, 45.0980452 ], [ 19.0944444, 45.0975168 ], [ 19.0938094, 45.0959946 ], [ 19.0916436, 45.0928694 ], [ 19.0927827, 45.0906507 ], [ 19.0944342, 45.0889093 ], [ 19.096239, 45.0876562 ], [ 19.0969092, 45.0868248 ], [ 19.0989636, 45.0847509 ], [ 19.099877, 45.0831925 ], [ 19.1003128, 45.0827072 ], [ 19.1010404, 45.0825348 ], [ 19.10187, 45.0824907 ], [ 19.1047744, 45.08123 ], [ 19.104897, 45.0800661 ], [ 19.1052812, 45.0796079 ], [ 19.1058576, 45.0791612 ], [ 19.1046684, 45.0761204 ], [ 19.1042715, 45.0753406 ], [ 19.102209, 45.0711251 ], [ 19.0973051, 45.0630673 ], [ 19.0952302, 45.0585443 ], [ 19.0975293, 45.0582229 ], [ 19.0988882, 45.0575287 ], [ 19.100139, 45.0561788 ], [ 19.1013758, 45.0556004 ], [ 19.1013993, 45.0554812 ], [ 19.1014009, 45.0550948 ], [ 19.10135, 45.0539031 ], [ 19.1043326, 45.0532994 ], [ 19.1039759, 45.0521644 ], [ 19.1058933, 45.0515323 ], [ 19.1052601, 45.0497204 ], [ 19.1052347, 45.0496477 ], [ 19.1051999, 45.0496071 ], [ 19.1041716, 45.0484067 ], [ 19.1036163, 45.0478275 ], [ 19.1035583, 45.047767 ], [ 19.1034308, 45.0476326 ], [ 19.1033617, 45.0475874 ], [ 19.101658, 45.0464733 ], [ 19.1020818, 45.0448669 ], [ 19.1020881, 45.044843 ], [ 19.1010968, 45.043242 ], [ 19.1007583, 45.0428363 ], [ 19.1002425, 45.042218 ], [ 19.0968447, 45.0397255 ], [ 19.0955341, 45.0387544 ], [ 19.0944518, 45.037968 ], [ 19.0941612, 45.0374451 ], [ 19.0948334, 45.0356133 ], [ 19.0956305, 45.0335486 ], [ 19.096430413092218, 45.033372682430638 ], [ 19.0987639, 45.0328595 ], [ 19.0979967, 45.0300273 ], [ 19.0990544, 45.0283834 ], [ 19.0987472, 45.0273095 ], [ 19.0978961, 45.0272403 ], [ 19.0972527, 45.0254182 ], [ 19.0973578, 45.0224982 ], [ 19.0982007, 45.0216071 ], [ 19.0993417, 45.0171863 ], [ 19.0995476, 45.0164343 ], [ 19.099533, 45.0148629 ], [ 19.1024829, 45.0110022 ], [ 19.1027174, 45.0106953 ], [ 19.0967184, 45.005279 ], [ 19.0953442, 45.0001507 ], [ 19.0944785, 44.9995585 ], [ 19.0943158, 44.9988559 ], [ 19.0942125, 44.9984361 ], [ 19.0940165, 44.9980387 ], [ 19.0929245, 44.9972043 ], [ 19.0931, 44.9968024 ], [ 19.0928308, 44.9961232 ], [ 19.0927233, 44.9951341 ], [ 19.0914726, 44.9950314 ], [ 19.0891024, 44.9949096 ], [ 19.0872446, 44.9943944 ], [ 19.0858291, 44.9934864 ], [ 19.084972, 44.9920543 ], [ 19.0846924, 44.9915916 ], [ 19.0839852, 44.9912865 ], [ 19.0829983, 44.9905187 ], [ 19.0813463, 44.9887801 ], [ 19.0808983, 44.9884821 ], [ 19.0804363, 44.9882337 ], [ 19.0798483, 44.9882138 ], [ 19.0790978, 44.9879601 ], [ 19.0778183, 44.9875184 ], [ 19.0772723, 44.987578 ], [ 19.0768523, 44.9872402 ], [ 19.0762223, 44.9869521 ], [ 19.0755614, 44.9869108 ], [ 19.0745002, 44.9867434 ], [ 19.0739542, 44.9864851 ], [ 19.0734362, 44.9861076 ], [ 19.0717422, 44.9857896 ], [ 19.0703982, 44.9853127 ], [ 19.0689576, 44.9851258 ], [ 19.0670521, 44.984349 ], [ 19.0624485, 44.9828057 ], [ 19.0617157, 44.9828449 ], [ 19.0609, 44.9827272 ], [ 19.0577891, 44.9812847 ], [ 19.056149, 44.9808246 ], [ 19.0533618, 44.9791374 ], [ 19.0520449, 44.977891 ], [ 19.0519478, 44.977328 ], [ 19.0521986, 44.9769676 ], [ 19.0525116, 44.9767627 ], [ 19.0533576, 44.9765715 ], [ 19.0547791, 44.9764805 ], [ 19.0559904, 44.9760749 ], [ 19.0573983, 44.9758129 ], [ 19.0597698, 44.9752266 ], [ 19.060821, 44.9749024 ], [ 19.0619911, 44.9745427 ], [ 19.0625605, 44.9741652 ], [ 19.0638745, 44.9735567 ], [ 19.0649625, 44.9732875 ], [ 19.0659519, 44.9731658 ], [ 19.0671787, 44.9732181 ], [ 19.068217, 44.9732102 ], [ 19.0698814, 44.9731347 ], [ 19.0712267, 44.972886 ], [ 19.0719212, 44.9725884 ], [ 19.073424, 44.9716697 ], [ 19.0744241, 44.9713759 ], [ 19.0752438, 44.971136 ], [ 19.0756943, 44.9710783 ], [ 19.0760924, 44.971271 ], [ 19.076758, 44.9717268 ], [ 19.0784662, 44.9724285 ], [ 19.0795237, 44.9730059 ], [ 19.0824708, 44.9740586 ], [ 19.0833823, 44.9742731 ], [ 19.0843042, 44.9743428 ], [ 19.0852365, 44.9741962 ], [ 19.0862064, 44.9742451 ], [ 19.0870497, 44.9742257 ], [ 19.0878332, 44.9740763 ], [ 19.0886592, 44.9737166 ], [ 19.0894038, 44.9732635 ], [ 19.0904925, 44.9724507 ], [ 19.0912246, 44.9718467 ], [ 19.0921082, 44.971306 ], [ 19.092864, 44.9709717 ], [ 19.0937525, 44.9708962 ], [ 19.0943154, 44.9709463 ], [ 19.0958478, 44.9710652 ], [ 19.0974756, 44.9712249 ], [ 19.0989265, 44.9713344 ], [ 19.1014456, 44.9712921 ], [ 19.1026652, 44.9710569 ], [ 19.105474, 44.9704283 ], [ 19.1072832, 44.9700952 ], [ 19.1079251, 44.9700123 ], [ 19.109122, 44.9698467 ], [ 19.1110827, 44.9698558 ], [ 19.1116193, 44.9699352 ], [ 19.112637, 44.9701262 ], [ 19.113494, 44.9705986 ], [ 19.1140133, 44.9710916 ], [ 19.1143387, 44.9716068 ], [ 19.1147114, 44.9721985 ], [ 19.1150948, 44.9728929 ], [ 19.1154342, 44.9733729 ], [ 19.1158654, 44.9738498 ], [ 19.1169485, 44.9745673 ], [ 19.1186812, 44.9757152 ], [ 19.1209411, 44.9759012 ], [ 19.122659, 44.9761578 ], [ 19.1247931, 44.9767089 ], [ 19.1278464, 44.9776557 ], [ 19.1302497, 44.9788498 ], [ 19.1335355, 44.9802473 ], [ 19.1362095, 44.9809405 ], [ 19.138335, 44.980711 ], [ 19.1397606, 44.9802702 ], [ 19.1411883, 44.9796696 ], [ 19.1432316, 44.9783479 ], [ 19.1449744, 44.976972 ], [ 19.1474108, 44.9753959 ], [ 19.1470828, 44.9737778 ], [ 19.1472973, 44.9719229 ], [ 19.1477999, 44.9668325 ], [ 19.1476718, 44.9637462 ], [ 19.1475609, 44.9614268 ], [ 19.1474755, 44.9595845 ], [ 19.1474317, 44.9576857 ], [ 19.1492529, 44.9570935 ], [ 19.1524195, 44.9577503 ], [ 19.1542934, 44.9576829 ], [ 19.1545069, 44.9570598 ], [ 19.154412, 44.9564451 ], [ 19.1545425, 44.9556787 ], [ 19.1542934, 44.9554345 ], [ 19.1541037, 44.9550808 ], [ 19.1543765, 44.9546261 ], [ 19.1548746, 44.9542471 ], [ 19.155432, 44.9540703 ], [ 19.155859, 44.9538176 ], [ 19.1560962, 44.9533881 ], [ 19.1564876, 44.9529418 ], [ 19.1557534, 44.952669 ], [ 19.1551784, 44.9525313 ], [ 19.1542104, 44.952167 ], [ 19.1530244, 44.9518048 ], [ 19.1526449, 44.9518048 ], [ 19.1524195, 44.9517459 ], [ 19.1524432, 44.9512995 ], [ 19.1522085, 44.950845 ], [ 19.151933, 44.9506796 ], [ 19.1509014, 44.9502636 ], [ 19.1500593, 44.9500531 ], [ 19.1491461, 44.9497751 ], [ 19.148138, 44.9492782 ], [ 19.1468927, 44.9485371 ], [ 19.1458253, 44.9480233 ], [ 19.144995, 44.947737 ], [ 19.144096, 44.9474969 ], [ 19.1435955, 44.9472148 ], [ 19.1430856, 44.9468105 ], [ 19.1428009, 44.9461956 ], [ 19.1428721, 44.9460188 ], [ 19.1435125, 44.945724 ], [ 19.1441767, 44.9453281 ], [ 19.1442834, 44.9451428 ], [ 19.1442004, 44.9449575 ], [ 19.1435357, 44.9447432 ], [ 19.14316, 44.94429 ], [ 19.1426349, 44.9429444 ], [ 19.1430959, 44.9412058 ], [ 19.1357948, 44.9391463 ], [ 19.124347, 44.9390528 ], [ 19.1115415, 44.9326757 ], [ 19.1092796, 44.934167 ], [ 19.1039148, 44.9323322 ], [ 19.1041135, 44.9311443 ], [ 19.1012845, 44.9299129 ], [ 19.099974, 44.930121 ], [ 19.0996759, 44.9299445 ], [ 19.0986659, 44.9295681 ], [ 19.0977055, 44.9290153 ], [ 19.0975068, 44.9288742 ], [ 19.0873734, 44.9253729 ], [ 19.0876615, 44.9238714 ], [ 19.0856052, 44.9234791 ], [ 19.0849068, 44.9232307 ], [ 19.0841902, 44.920022 ], [ 19.0841922, 44.9197651 ], [ 19.0853463, 44.9187725 ], [ 19.0854976, 44.9188505 ], [ 19.0882008, 44.9182042 ], [ 19.0877329, 44.9164191 ], [ 19.0845866, 44.9168064 ], [ 19.0832059, 44.9160163 ], [ 19.080504, 44.9134507 ], [ 19.0870394, 44.91049 ], [ 19.0861345, 44.9095886 ], [ 19.0841088, 44.9080189 ], [ 19.0826042, 44.9068646 ], [ 19.0820645, 44.9063647 ], [ 19.081735, 44.9061215 ], [ 19.0770792, 44.9060677 ], [ 19.0762575, 44.9058756 ], [ 19.0753854, 44.9056359 ], [ 19.0744269, 44.9052875 ], [ 19.0734477, 44.9047112 ], [ 19.0729874, 44.9043526 ], [ 19.0725811, 44.9040494 ], [ 19.0721464, 44.903603 ], [ 19.0717619, 44.9032458 ], [ 19.071277, 44.9027926 ], [ 19.0706356, 44.9021797 ], [ 19.0700654, 44.9017188 ], [ 19.0697661, 44.9014706 ], [ 19.0692988, 44.9013615 ], [ 19.0685831, 44.9011515 ], [ 19.0679205, 44.9010766 ], [ 19.0669724, 44.9011262 ], [ 19.0662883, 44.9012174 ], [ 19.0657181, 44.9014706 ], [ 19.0642727, 44.9020511 ], [ 19.0630449, 44.9028091 ], [ 19.0604805, 44.9042929 ], [ 19.0597777, 44.9047178 ], [ 19.0589674, 44.9050537 ], [ 19.0576005, 44.9058412 ], [ 19.0559503, 44.9068879 ], [ 19.0529675, 44.9086732 ], [ 19.0478643, 44.9105251 ], [ 19.0441144, 44.9125831 ], [ 19.04023, 44.9165716 ], [ 19.03945, 44.9170889 ], [ 19.0369919, 44.9194311 ], [ 19.0353847, 44.9215402 ], [ 19.033864, 44.9221816 ], [ 19.0322896, 44.9225048 ], [ 19.0291743, 44.9226139 ], [ 19.0254368, 44.9225467 ], [ 19.0224595, 44.9220998 ], [ 19.016245, 44.9213742 ], [ 19.0145947, 44.9211788 ], [ 19.013372520766413, 44.920809071414105 ], [ 19.01337252076641, 44.920809071414105 ], [ 19.0105245, 44.9199475 ], [ 19.0098269, 44.9190291 ], [ 19.003615, 44.9172538 ], [ 18.9979761, 44.91556 ], [ 18.99832, 44.914485 ], [ 18.9977698, 44.9140127 ], [ 18.998041, 44.9137614 ], [ 18.9976911, 44.9133747 ], [ 18.9972117, 44.9129879 ], [ 18.9967452, 44.9123986 ], [ 18.9964471, 44.9118646 ], [ 18.9960301, 44.9115454 ], [ 18.9954882, 44.9112752 ], [ 18.9950088, 44.9111371 ], [ 18.9892433, 44.905792 ], [ 18.9916882, 44.9026093 ], [ 18.9920964, 44.8961567 ], [ 18.9923916, 44.8938765 ], [ 18.999241957384257, 44.885375124138946 ], [ 18.99556067629878, 44.876143905513047 ], [ 19.000564071625845, 44.854163729045808 ], [ 18.9980549, 44.8536331 ], [ 18.9967584, 44.8533538 ], [ 18.9962389, 44.8533084 ], [ 18.9956164, 44.8532083 ], [ 18.9908164, 44.8521462 ], [ 18.9871663, 44.8512588 ], [ 18.9855606, 44.8509445 ], [ 18.9832353, 44.8504481 ], [ 18.9816874, 44.8501365 ], [ 18.9809949, 44.8500393 ], [ 18.9792895, 44.8499721 ], [ 18.9775627, 44.8498913 ], [ 18.9734561, 44.849747 ], [ 18.9681029, 44.8499521 ], [ 18.9632162, 44.850023 ], [ 18.9575332, 44.8500016 ], [ 18.9511259, 44.8499724 ], [ 18.9426255, 44.8498629 ], [ 18.937037, 44.8497265 ], [ 18.9358876, 44.8497405 ], [ 18.9319599, 44.8498979 ], [ 18.9289384, 44.8499915 ], [ 18.9278399, 44.8500179 ], [ 18.9263247, 44.850191 ], [ 18.9224775, 44.850715 ], [ 18.9181746, 44.8512757 ], [ 18.9163711, 44.8514472 ], [ 18.9113914, 44.8517735 ], [ 18.9095228, 44.8518521 ], [ 18.9058809, 44.8520287 ], [ 18.8997238, 44.8522171 ], [ 18.8948208, 44.8523736 ], [ 18.886672, 44.8526149 ], [ 18.884246933368036, 44.85261497649811 ], [ 18.8835019, 44.852615 ], [ 18.8794048, 44.8526213 ], [ 18.8710956, 44.852634 ], [ 18.863830899465373, 44.852618719934036 ], [ 18.8624902, 44.8526159 ], [ 18.8581192, 44.8529609 ], [ 18.8562025, 44.8531825 ], [ 18.8529003, 44.8537289 ], [ 18.8513513, 44.8540616 ], [ 18.8498343, 44.854485 ], [ 18.8467428, 44.8557063 ], [ 18.8456158, 44.8562951 ], [ 18.8398776, 44.8602158 ], [ 18.8375252, 44.8621329 ], [ 18.8346508, 44.864673 ], [ 18.834004929740669, 44.865294402750898 ], [ 18.8332148, 44.8660546 ], [ 18.8313693, 44.867656 ], [ 18.8308315, 44.8682719 ], [ 18.8264558, 44.8734243 ], [ 18.8254487, 44.8745589 ], [ 18.8251473, 44.8747653 ], [ 18.824641, 44.874969 ], [ 18.824369678325038, 44.875201014144103 ], [ 18.824124, 44.8754111 ], [ 18.8221467, 44.8768588 ], [ 18.8200253, 44.8780593 ], [ 18.8187874, 44.8786421 ], [ 18.815765, 44.87961 ], [ 18.8112501, 44.8808873 ], [ 18.811019, 44.8809441 ], [ 18.8070684, 44.8818705 ], [ 18.8050047, 44.8824653 ], [ 18.7985019, 44.8850665 ], [ 18.7916722, 44.8883002 ], [ 18.7893411, 44.889529 ], [ 18.7862383, 44.8916617 ], [ 18.784525152897878, 44.892819889796272 ], [ 18.784525152897874, 44.892819889796272 ], [ 18.7804539, 44.8955723 ], [ 18.7774229, 44.8975352 ], [ 18.7747907, 44.898941 ], [ 18.7720901, 44.9002392 ], [ 18.7688801, 44.9017952 ], [ 18.7680171, 44.9023152 ], [ 18.7674367, 44.9027042 ], [ 18.7650463, 44.9044148 ], [ 18.7643216, 44.9050698 ], [ 18.7637731, 44.9057664 ], [ 18.763139, 44.9069864 ], [ 18.7628317, 44.9076336 ], [ 18.7626925, 44.9083224 ], [ 18.7626953, 44.9092777 ], [ 18.76278, 44.9099378 ], [ 18.7630389, 44.9106462 ], [ 18.7636009, 44.9114945 ], [ 18.7644148, 44.912401 ], [ 18.7654862, 44.9133739 ], [ 18.7668, 44.9141643 ], [ 18.7696999, 44.9157821 ], [ 18.7714354, 44.916988 ], [ 18.7720955, 44.9176948 ], [ 18.7724635, 44.9183593 ], [ 18.7728087, 44.919276 ], [ 18.7728237, 44.9198784 ], [ 18.7726038, 44.9205229 ], [ 18.7720885, 44.9211246 ], [ 18.7714132, 44.9216143 ], [ 18.7704946, 44.9221132 ], [ 18.7686488, 44.9230157 ], [ 18.7646943, 44.9243998 ], [ 18.7635457, 44.9248591 ], [ 18.7615512, 44.9257673 ], [ 18.7597543, 44.9268918 ], [ 18.7580809, 44.9280246 ], [ 18.7561409, 44.9298726 ], [ 18.7542803, 44.9317549 ], [ 18.7528345, 44.9334191 ], [ 18.7521816, 44.9345794 ], [ 18.7512895, 44.9365235 ], [ 18.7510087, 44.9374862 ], [ 18.7509543, 44.9382141 ], [ 18.7509711, 44.9391411 ], [ 18.7510935, 44.9399014 ], [ 18.7513841, 44.9406333 ], [ 18.7525666, 44.9418433 ], [ 18.7540176, 44.9429875 ], [ 18.7553692, 44.943704 ], [ 18.756696, 44.9441459 ], [ 18.7580742, 44.9444742 ], [ 18.7592281, 44.9446701 ], [ 18.7599042, 44.944666 ], [ 18.7608189, 44.94453 ], [ 18.7619859, 44.9442186 ], [ 18.7659393, 44.9419004 ], [ 18.7677286, 44.9408694 ], [ 18.7704878, 44.9394844 ], [ 18.7726893, 44.9383379 ], [ 18.7743803, 44.937485 ], [ 18.7750437, 44.9371809 ], [ 18.7763235, 44.9365856 ], [ 18.7771535, 44.9362446 ], [ 18.7786278, 44.9358037 ], [ 18.7801925, 44.9353454 ], [ 18.7825907, 44.9348495 ], [ 18.7840512, 44.9345962 ], [ 18.7857844, 44.9343912 ], [ 18.787518, 44.9343208 ], [ 18.7893273, 44.9343524 ], [ 18.79143, 44.9344484 ], [ 18.7929991, 44.9345691 ], [ 18.7952916, 44.9348248 ], [ 18.7973929, 44.9352583 ], [ 18.7987424, 44.9356783 ], [ 18.8014281, 44.9367938 ], [ 18.8033175, 44.9379846 ], [ 18.803837, 44.9383948 ], [ 18.8046297, 44.9394342 ], [ 18.8051429, 44.9405383 ], [ 18.8053163, 44.9413884 ], [ 18.8053842, 44.9422489 ], [ 18.8054139, 44.9431037 ], [ 18.8053237, 44.9436591 ], [ 18.8050527, 44.9445077 ], [ 18.80458, 44.9453053 ], [ 18.8041361, 44.946038 ], [ 18.8028567, 44.9474359 ], [ 18.8020371, 44.9481435 ], [ 18.8010348, 44.9489047 ], [ 18.7995095, 44.9497972 ], [ 18.7968439, 44.9511118 ], [ 18.7946913, 44.9524013 ], [ 18.7920843, 44.9542785 ], [ 18.7908484, 44.9554136 ], [ 18.7897914, 44.9566292 ], [ 18.7890814, 44.9576578 ], [ 18.7885043, 44.9586956 ], [ 18.7872124, 44.9618303 ], [ 18.7867482, 44.9628193 ], [ 18.7863511, 44.9638101 ], [ 18.7859155, 44.9653976 ], [ 18.7857691, 44.9662777 ], [ 18.785769, 44.9663321 ], [ 18.7845496, 44.9718275 ], [ 18.7845263, 44.9729312 ], [ 18.7846414, 44.9739212 ], [ 18.7849194, 44.975234 ], [ 18.7853885, 44.9763666 ], [ 18.7867728, 44.9780368 ], [ 18.7935205, 44.9838499 ], [ 18.796004, 44.9878668 ], [ 18.7962836, 44.9892129 ], [ 18.7964905, 44.9902126 ], [ 18.7962175, 44.9914389 ], [ 18.796093088737557, 44.991739115252045 ], [ 18.7958217, 44.992394 ], [ 18.7948432, 44.9936582 ], [ 18.7938944, 44.9944337 ], [ 18.792449, 44.9949884 ], [ 18.7875988, 44.9955406 ], [ 18.7789353, 44.9965417 ], [ 18.7670935, 44.9993564 ], [ 18.7566825, 44.9995876 ], [ 18.7508731, 44.9967528 ], [ 18.7498514, 44.9961607 ], [ 18.7437084, 44.9926007 ], [ 18.7379014, 44.9920131 ], [ 18.73475, 44.9921661 ], [ 18.7317216, 44.9926657 ], [ 18.7291798, 44.9939379 ], [ 18.7275267, 44.9962847 ], [ 18.7273979, 44.9979387 ], [ 18.7277867, 44.9990748 ], [ 18.7285716, 45.0001424 ], [ 18.7372401, 45.0099102 ], [ 18.7383427, 45.0131916 ], [ 18.7384344, 45.0160306 ], [ 18.7376897, 45.0174048 ], [ 18.736245, 45.0185629 ], [ 18.733005436172391, 45.019525290559038 ], [ 18.7293787, 45.0206027 ], [ 18.72508581712718, 45.023049841547198 ], [ 18.725085817127177, 45.023049841547198 ], [ 18.7232092, 45.0241196 ] ] ] } }
]
}
