{
"type": "FeatureCollection",
"name": "zupanija_11_meta",
"crs": { "type": "name", "properties": { "name": "urn:ogc:def:crs:EPSG::3765" } },
"features": [
{ "type": "Feature", "properties": { "name": "POŽEŠKO-SLAVONSKA ŽUPANIJA", "population": 54502, "latitude": 9846.0740039946013, "longitude": 3828.9872953269487 }, "geometry": { "type": "Polygon", "coordinates": [ [ [ 17.484102843005306, 45.365929813937321 ], [ 17.476524034103193, 45.376319787613404 ], [ 17.464341934366654, 45.381002822478671 ], [ 17.417769594164632, 45.448806756514834 ], [ 17.38532497782829, 45.421800768325113 ], [ 17.354454492755153, 45.379320049821189 ], [ 17.350466362534092, 45.377847561957843 ], [ 17.276173192095168, 45.374463142930772 ], [ 17.270631980336081, 45.370035569657006 ], [ 17.211530110080229, 45.380993947358057 ], [ 17.15809571356731, 45.337252076135421 ], [ 17.142296720652482, 45.33914844070469 ], [ 17.10748773960464, 45.360055521385767 ], [ 17.105069456418086, 45.362567170075337 ], [ 17.089538674611568, 45.3663829379405 ], [ 17.069261749586641, 45.420487157009234 ], [ 17.069013180040031, 45.421378623756773 ], [ 17.061884195390473, 45.429974645245196 ], [ 17.057834607487415, 45.42981990687494 ], [ 17.005391873033179, 45.400597554089885 ], [ 16.984124974819263, 45.428970629428868 ], [ 16.975738117819976, 45.42972831562777 ], [ 16.959694109694528, 45.447802378850326 ], [ 16.954353024939024, 45.473014913498233 ], [ 16.929382028799516, 45.491291794495069 ], [ 16.933371733537179, 45.501493009261118 ], [ 16.955740716622632, 45.52991578454003 ], [ 16.960939466755182, 45.532420669095593 ], [ 16.980708341654381, 45.521962336085579 ], [ 16.98093978441549, 45.521377110224101 ], [ 17.025207656222136, 45.487925074527872 ], [ 17.030128272760475, 45.490056399854346 ], [ 17.037330167567809, 45.510386130608929 ], [ 17.058201609176916, 45.533503539663428 ], [ 17.086244126816769, 45.494775042450463 ], [ 17.092168879051279, 45.497935755767159 ], [ 17.105507485913801, 45.523392649489558 ], [ 17.126312713974102, 45.520447525413637 ], [ 17.128350247878444, 45.51766877128258 ], [ 17.148186722682187, 45.513593055408947 ], [ 17.152757533120539, 45.509876214798737 ], [ 17.170523997830827, 45.50849752372676 ], [ 17.181748437097969, 45.516116921295314 ], [ 17.196048593376236, 45.514212618741567 ], [ 17.220314006455119, 45.494476473698434 ], [ 17.230915156104732, 45.497119570806689 ], [ 17.262974540269116, 45.486929050820251 ], [ 17.272407612491115, 45.495188854911433 ], [ 17.297253350456248, 45.514310786088544 ], [ 17.319552869433029, 45.515880730800852 ], [ 17.398126168812315, 45.552844861980354 ], [ 17.412029767124782, 45.550741124085015 ], [ 17.448008781554595, 45.533080306386914 ], [ 17.450182248589616, 45.533670932655504 ], [ 17.492021631762082, 45.523450066765669 ], [ 17.618118390634596, 45.57953868387925 ], [ 17.635487972606594, 45.567132518737225 ], [ 17.659805076879831, 45.51561662314311 ], [ 17.700204724769073, 45.496029419717857 ], [ 17.704585015304918, 45.495354512307799 ], [ 17.709867711657953, 45.494912161900189 ], [ 17.772607334612694, 45.514258638090915 ], [ 17.776379336695278, 45.516192673139685 ], [ 17.794143340949464, 45.510309572045173 ], [ 17.807448337469982, 45.491694148292481 ], [ 17.823097620680485, 45.481534991979274 ], [ 17.835496579632991, 45.478086497774648 ], [ 17.88405049748156, 45.471882388729121 ], [ 17.898363642474337, 45.474398646555791 ], [ 17.911726415816396, 45.461367945673885 ], [ 17.9280200569311, 45.446011048678372 ], [ 17.935676725624266, 45.445988353856656 ], [ 17.972984802034837, 45.43003528687418 ], [ 17.993454978487694, 45.429745387088083 ], [ 18.013899053660619, 45.402411314381226 ], [ 18.030635301356323, 45.408516717730471 ], [ 18.07483243497148, 45.405444337754474 ], [ 18.085604710807981, 45.411503447609057 ], [ 18.102800021477336, 45.381362230310764 ], [ 18.121574262403346, 45.370180396430023 ], [ 18.094320733467494, 45.335818651187608 ], [ 18.118995426103822, 45.316743633672871 ], [ 18.116511558697553, 45.301800244204181 ], [ 18.093968592271068, 45.269507313848955 ], [ 18.093782696284034, 45.265770447893033 ], [ 18.091437447655306, 45.263522018442629 ], [ 18.077718766779839, 45.256907022958501 ], [ 18.058504954113822, 45.261148724574156 ], [ 18.03608420944418, 45.277113661303481 ], [ 18.022452383256866, 45.277846499109565 ], [ 18.009710371342038, 45.285690565349633 ], [ 17.977869200517048, 45.276588473438359 ], [ 17.969676181748035, 45.283424137393673 ], [ 17.916139475805753, 45.283608826973342 ], [ 17.913836738063154, 45.280258116120763 ], [ 17.913852671689188, 45.279358699713001 ], [ 17.868165199056687, 45.244244505288833 ], [ 17.865104716385609, 45.243663270063422 ], [ 17.856879555346083, 45.245618237887285 ], [ 17.854259639348843, 45.247803464453845 ], [ 17.828732600223237, 45.233661633636011 ], [ 17.82272083740115, 45.221217122393185 ], [ 17.822134131364372, 45.220544872202687 ], [ 17.798637744586141, 45.223850752577697 ], [ 17.771885149248881, 45.203937451239653 ], [ 17.76909787462224, 45.19566401476844 ], [ 17.748827666724655, 45.194069497648478 ], [ 17.734981498830962, 45.197805471267479 ], [ 17.729661479449291, 45.205292621309283 ], [ 17.722036395339508, 45.207965008163598 ], [ 17.704916128152117, 45.234242904242613 ], [ 17.706856168987027, 45.242687109277696 ], [ 17.706205329734985, 45.250095224633412 ], [ 17.710270447411865, 45.271293386394802 ], [ 17.709392760290349, 45.279753853704165 ], [ 17.706750608893465, 45.280083217196243 ], [ 17.684125180446209, 45.277596908514901 ], [ 17.675763119525161, 45.279766213607282 ], [ 17.649102923219072, 45.267927025702228 ], [ 17.647142714720818, 45.264253442468387 ], [ 17.614567314509976, 45.250982800255841 ], [ 17.593858523689718, 45.285927025722579 ], [ 17.574775183312671, 45.286674655927065 ], [ 17.566201725674844, 45.284563330318505 ], [ 17.540263001824332, 45.295927928992242 ], [ 17.533718452728714, 45.296318528146998 ], [ 17.528752621202823, 45.298032381094131 ], [ 17.509198936319375, 45.298470018067398 ], [ 17.498628484121184, 45.309210827145833 ], [ 17.489309807633269, 45.316182909987482 ], [ 17.484102843005306, 45.365929813937321 ] ] ] } }
]
}
