{
"type": "FeatureCollection",
"name": "zupanija_graph_8",
"crs": { "type": "name", "properties": { "name": "urn:ogc:def:crs:EPSG::3765" } },
"features": [
{ "type": "Feature", "properties": { "BM": 739, "longitude": 15.373780933046511, "latitude": 44.505225464783358, "population": 154 }, "geometry": { "type": "Polygon", "coordinates": [ [ [ 15.348696636447881, 44.528034607727747 ], [ 15.359983575070125, 44.541782892588806 ], [ 15.378661766614451, 44.528462643896546 ], [ 15.395041094192647, 44.512625608798025 ], [ 15.385710745338448, 44.455143987007922 ], [ 15.350032446689614, 44.518504446262533 ], [ 15.348696636447881, 44.528034607727747 ] ] ] } },
{ "type": "Feature", "properties": { "BM": 736, "longitude": 15.444158439206578, "latitude": 44.506145372249314, "population": 255 }, "geometry": { "type": "Polygon", "coordinates": [ [ [ 15.385710745338448, 44.455143987007922 ], [ 15.395041094192647, 44.512625608798025 ], [ 15.407305062153528, 44.538980466886954 ], [ 15.425550261196417, 44.559198220129154 ], [ 15.429915647990301, 44.561604970730549 ], [ 15.525802350559946, 44.572901637398488 ], [ 15.531078684536194, 44.556879358488544 ], [ 15.404375790116347, 44.410137384329524 ], [ 15.386569203361029, 44.424356962038289 ], [ 15.385710745338448, 44.455143987007922 ] ] ] } },
{ "type": "Feature", "properties": { "BM": 747, "longitude": 15.404536405623963, "latitude": 44.687007884111068, "population": 193 }, "geometry": { "type": "Polygon", "coordinates": [ [ [ 15.394153597339791, 44.721797928135764 ], [ 15.432792932123409, 44.710170008526781 ], [ 15.455968376231422, 44.6700821783149 ], [ 15.448681494564706, 44.665706605611938 ], [ 15.388060964283257, 44.661640808472477 ], [ 15.368899208212396, 44.661352698522116 ], [ 15.355709587435902, 44.685938332306357 ], [ 15.394153597339791, 44.721797928135764 ] ] ] } },
{ "type": "Feature", "properties": { "BM": 744, "longitude": 15.363502820934389, "latitude": 44.559878276727275, "population": 1438 }, "geometry": { "type": "Polygon", "coordinates": [ [ [ 15.349878070302879, 44.568087025447063 ], [ 15.359495121414088, 44.574799637621197 ], [ 15.378050144658015, 44.556531392894961 ], [ 15.372160943171149, 44.546712423568302 ], [ 15.357636017129016, 44.550802954606823 ], [ 15.349878070302879, 44.568087025447063 ] ] ] } },
{ "type": "Feature", "properties": { "BM": 745, "longitude": 15.368003794424068, "latitude": 44.541392563007022, "population": 859 }, "geometry": { "type": "Polygon", "coordinates": [ [ [ 15.357636017129016, 44.550802954606823 ], [ 15.372160943171149, 44.546712423568302 ], [ 15.378661766614451, 44.528462643896546 ], [ 15.359983575070125, 44.541782892588806 ], [ 15.357636017129016, 44.550802954606823 ] ] ] } },
{ "type": "Feature", "properties": { "BM": 754, "longitude": 15.370654758722033, "latitude": 44.640805759116894, "population": 722 }, "geometry": { "type": "Polygon", "coordinates": [ [ [ 15.367631829868053, 44.655633099812775 ], [ 15.382980820920114, 44.64935152969332 ], [ 15.370773806226271, 44.627224732232065 ], [ 15.360415138945211, 44.625899946061459 ], [ 15.367631829868053, 44.655633099812775 ] ] ] } },
{ "type": "Feature", "properties": { "BM": 755, "longitude": 15.383253095533385, "latitude": 44.612702498416411, "population": 156 }, "geometry": { "type": "Polygon", "coordinates": [ [ [ 15.360415138945211, 44.625899946061459 ], [ 15.370773806226271, 44.627224732232065 ], [ 15.393320928402304, 44.629787619623727 ], [ 15.40956198558926, 44.631254947237622 ], [ 15.405615212312465, 44.603968822440713 ], [ 15.367709156594897, 44.588116740720174 ], [ 15.357047623877554, 44.62335214857027 ], [ 15.360415138945211, 44.625899946061459 ] ] ] } },
{ "type": "Feature", "properties": { "BM": 759, "longitude": 15.388962383793826, "latitude": 44.535901488725514, "population": 1388 }, "geometry": { "type": "Polygon", "coordinates": [ [ [ 15.378661766614451, 44.528462643896546 ], [ 15.372160943171149, 44.546712423568302 ], [ 15.378050144658015, 44.556531392894961 ], [ 15.407305062153528, 44.538980466886954 ], [ 15.395041094192647, 44.512625608798025 ], [ 15.378661766614451, 44.528462643896546 ] ] ] } },
{ "type": "Feature", "properties": { "BM": 761, "longitude": 15.414717861391731, "latitude": 44.868583031550131, "population": 202 }, "geometry": { "type": "Polygon", "coordinates": [ [ [ 15.395719551211455, 44.94016773333265 ], [ 15.429719315399506, 44.926262485522102 ], [ 15.448342563214021, 44.84803779420681 ], [ 15.428433392920221, 44.808345641948385 ], [ 15.386013725095793, 44.815306461317931 ], [ 15.395719551211455, 44.94016773333265 ] ] ] } },
{ "type": "Feature", "properties": { "BM": 767, "longitude": 15.391825427073963, "latitude": 44.562903581637919, "population": 772 }, "geometry": { "type": "Polygon", "coordinates": [ [ [ 15.367549944580299, 44.586754783012779 ], [ 15.425550261196417, 44.559198220129154 ], [ 15.407305062153528, 44.538980466886954 ], [ 15.378050144658015, 44.556531392894961 ], [ 15.359495121414088, 44.574799637621197 ], [ 15.367549944580299, 44.586754783012779 ] ] ] } },
{ "type": "Feature", "properties": { "BM": 707, "longitude": 15.349433823356936, "latitude": 44.723909577211742, "population": 31 }, "geometry": { "type": "Polygon", "coordinates": [ [ [ 15.319151024359048, 44.756436087177683 ], [ 15.357213805583211, 44.765979878309189 ], [ 15.394153597339791, 44.721797928135764 ], [ 15.355709587435902, 44.685938332306357 ], [ 15.326805024435924, 44.682625945443142 ], [ 15.32180112978013, 44.685774891013892 ], [ 15.319151024359048, 44.756436087177683 ] ] ] } },
{ "type": "Feature", "properties": { "BM": 714, "longitude": 15.339379213838441, "latitude": 44.598828611881871, "population": 41 }, "geometry": { "type": "Polygon", "coordinates": [ [ [ 15.332179753812083, 44.628091078880992 ], [ 15.357047623877554, 44.62335214857027 ], [ 15.367709156594897, 44.588116740720174 ], [ 15.367549944580299, 44.586754783012779 ], [ 15.359495121414088, 44.574799637621197 ], [ 15.349878070302879, 44.568087025447063 ], [ 15.348058211272486, 44.567744928479762 ], [ 15.301961985653639, 44.596667867143047 ], [ 15.332179753812083, 44.628091078880992 ] ] ] } },
{ "type": "Feature", "properties": { "BM": 715, "longitude": 15.341681903929807, "latitude": 44.827615583122096, "population": 423 }, "geometry": { "type": "Polygon", "coordinates": [ [ [ 15.314895612595208, 44.865010686847512 ], [ 15.380782525929371, 44.811886451249009 ], [ 15.371284190595704, 44.799269470900633 ], [ 15.315328029220415, 44.822317761160207 ], [ 15.314895612595208, 44.865010686847512 ] ] ] } },
{ "type": "Feature", "properties": { "BM": 725, "longitude": 15.333140949677432, "latitude": 44.531989600153743, "population": 138 }, "geometry": { "type": "Polygon", "coordinates": [ [ [ 15.322500684263735, 44.543176191707524 ], [ 15.331427166476265, 44.547290621439998 ], [ 15.348696636447881, 44.528034607727747 ], [ 15.350032446689614, 44.518504446262533 ], [ 15.316864388258493, 44.527282927257076 ], [ 15.322500684263735, 44.543176191707524 ] ] ] } },
{ "type": "Feature", "properties": { "BM": 729, "longitude": 15.34692890134329, "latitude": 44.655476537869674, "population": 77 }, "geometry": { "type": "Polygon", "coordinates": [ [ [ 15.331285613778544, 44.630203132452884 ], [ 15.326805024435924, 44.682625945443142 ], [ 15.355709587435902, 44.685938332306357 ], [ 15.368899208212396, 44.661352698522116 ], [ 15.367631829868053, 44.655633099812775 ], [ 15.360415138945211, 44.625899946061459 ], [ 15.357047623877554, 44.62335214857027 ], [ 15.332179753812083, 44.628091078880992 ], [ 15.331285613778544, 44.630203132452884 ] ] ] } },
{ "type": "Feature", "properties": { "BM": 734, "longitude": 15.347056984293042, "latitude": 44.547627764819246, "population": 344 }, "geometry": { "type": "Polygon", "coordinates": [ [ [ 15.348058211272486, 44.567744928479762 ], [ 15.349878070302879, 44.568087025447063 ], [ 15.357636017129016, 44.550802954606823 ], [ 15.359983575070125, 44.541782892588806 ], [ 15.348696636447881, 44.528034607727747 ], [ 15.331427166476265, 44.547290621439998 ], [ 15.348058211272486, 44.567744928479762 ] ] ] } },
{ "type": "Feature", "properties": { "BM": 733, "longitude": 15.409670865851904, "latitude": 44.76625322295957, "population": 72 }, "geometry": { "type": "Polygon", "coordinates": [ [ [ 15.371284190595704, 44.799269470900633 ], [ 15.380782525929371, 44.811886451249009 ], [ 15.386013725095793, 44.815306461317931 ], [ 15.428433392920221, 44.808345641948385 ], [ 15.461960513105327, 44.779257712400884 ], [ 15.432792932123409, 44.710170008526781 ], [ 15.394153597339791, 44.721797928135764 ], [ 15.357213805583211, 44.765979878309189 ], [ 15.371284190595704, 44.799269470900633 ] ] ] } },
{ "type": "Feature", "properties": { "BM": 673, "longitude": 15.303043929779088, "latitude": 44.71576414625423, "population": 55 }, "geometry": { "type": "Polygon", "coordinates": [ [ [ 15.305851812376332, 44.759939448974933 ], [ 15.319151024359048, 44.756436087177683 ], [ 15.32180112978013, 44.685774891013892 ], [ 15.277856825621509, 44.678087250541786 ], [ 15.293435087735615, 44.749099678549072 ], [ 15.305851812376332, 44.759939448974933 ] ] ] } },
{ "type": "Feature", "properties": { "BM": 679, "longitude": 15.295636476530605, "latitude": 44.622437680104262, "population": 187 }, "geometry": { "type": "Polygon", "coordinates": [ [ [ 15.271325415696987, 44.606908462462037 ], [ 15.276818954359793, 44.655486284961697 ], [ 15.331285613778544, 44.630203132452884 ], [ 15.332179753812083, 44.628091078880992 ], [ 15.301961985653639, 44.596667867143047 ], [ 15.284808277803045, 44.591254047004831 ], [ 15.271325415696987, 44.606908462462037 ] ] ] } },
{ "type": "Feature", "properties": { "BM": 681, "longitude": 15.30567653682626, "latitude": 44.66186964655477, "population": 11 }, "geometry": { "type": "Polygon", "coordinates": [ [ [ 15.277856825621509, 44.678087250541786 ], [ 15.32180112978013, 44.685774891013892 ], [ 15.326805024435924, 44.682625945443142 ], [ 15.331285613778544, 44.630203132452884 ], [ 15.276818954359793, 44.655486284961697 ], [ 15.272069185758923, 44.675165630054778 ], [ 15.277856825621509, 44.678087250541786 ] ] ] } },
{ "type": "Feature", "properties": { "BM": 687, "longitude": 15.294239456745339, "latitude": 44.827935231420447, "population": 445 }, "geometry": { "type": "Polygon", "coordinates": [ [ [ 15.261908406666656, 44.802800666498648 ], [ 15.308856399286459, 44.876528555562572 ], [ 15.314895612595208, 44.865010686847512 ], [ 15.315328029220415, 44.822317761160207 ], [ 15.282903240544815, 44.790200433966277 ], [ 15.261908406666656, 44.802800666498648 ] ] ] } },
{ "type": "Feature", "properties": { "BM": 689, "longitude": 15.298343740152129, "latitude": 44.543302857526278, "population": 62 }, "geometry": { "type": "Polygon", "coordinates": [ [ [ 15.301740096909429, 44.507183929974858 ], [ 15.273586149396197, 44.565873945083922 ], [ 15.280933852795579, 44.576195605539809 ], [ 15.322500684263735, 44.543176191707524 ], [ 15.316864388258493, 44.527282927257076 ], [ 15.301742440690994, 44.507181945175695 ], [ 15.301740096909429, 44.507183929974858 ] ] ] } },
{ "type": "Feature", "properties": { "BM": 694, "longitude": 15.326879505388893, "latitude": 44.787782327815563, "population": 202 }, "geometry": { "type": "Polygon", "coordinates": [ [ [ 15.282903240544815, 44.790200433966277 ], [ 15.315328029220415, 44.822317761160207 ], [ 15.371284190595704, 44.799269470900633 ], [ 15.357213805583211, 44.765979878309189 ], [ 15.319151024359048, 44.756436087177683 ], [ 15.305851812376332, 44.759939448974933 ], [ 15.282903240544815, 44.790200433966277 ] ] ] } },
{ "type": "Feature", "properties": { "BM": 698, "longitude": 15.358860334168083, "latitude": 44.878262741306465, "population": 76 }, "geometry": { "type": "Polygon", "coordinates": [ [ [ 15.308856399286459, 44.876528555562572 ], [ 15.306874827157944, 44.894944497579381 ], [ 15.395290399977119, 44.940593296884444 ], [ 15.395719551211455, 44.94016773333265 ], [ 15.386013725095793, 44.815306461317931 ], [ 15.380782525929371, 44.811886451249009 ], [ 15.314895612595208, 44.865010686847512 ], [ 15.308856399286459, 44.876528555562572 ] ] ] } },
{ "type": "Feature", "properties": { "BM": 696, "longitude": 15.313095863753356, "latitude": 44.571039505450877, "population": 473 }, "geometry": { "type": "Polygon", "coordinates": [ [ [ 15.284808277803045, 44.591254047004831 ], [ 15.301961985653639, 44.596667867143047 ], [ 15.348058211272486, 44.567744928479762 ], [ 15.331427166476265, 44.547290621439998 ], [ 15.322500684263735, 44.543176191707524 ], [ 15.280933852795579, 44.576195605539809 ], [ 15.284808277803045, 44.591254047004831 ] ] ] } },
{ "type": "Feature", "properties": { "BM": 700, "longitude": 15.342758284937673, "latitude": 44.473196517086969, "population": 221 }, "geometry": { "type": "Polygon", "coordinates": [ [ [ 15.301742440690994, 44.507181945175695 ], [ 15.316864388258493, 44.527282927257076 ], [ 15.350032446689614, 44.518504446262533 ], [ 15.385710745338448, 44.455143987007922 ], [ 15.386569203361029, 44.424356962038289 ], [ 15.318131269083663, 44.436941093990981 ], [ 15.301742440690994, 44.507181945175695 ] ] ] } },
{ "type": "Feature", "properties": { "BM": 640, "longitude": 15.262307759042253, "latitude": 44.769894520644378, "population": 74 }, "geometry": { "type": "Polygon", "coordinates": [ [ [ 15.233767888466511, 44.806764049791596 ], [ 15.261908406666656, 44.802800666498648 ], [ 15.282903240544815, 44.790200433966277 ], [ 15.305851812376332, 44.759939448974933 ], [ 15.293435087735615, 44.749099678549072 ], [ 15.246479326649563, 44.728305821945987 ], [ 15.227093946538275, 44.800781483270427 ], [ 15.233767888466511, 44.806764049791596 ] ] ] } },
{ "type": "Feature", "properties": { "BM": 646, "longitude": 15.265145960853612, "latitude": 45.049865630972562, "population": 150 }, "geometry": { "type": "Polygon", "coordinates": [ [ [ 15.243266343109266, 45.082148660875212 ], [ 15.263859086478661, 45.085246507409138 ], [ 15.296640283357943, 45.07448118313993 ], [ 15.316155115663198, 45.042302629400517 ], [ 15.234634043986615, 45.011668752801377 ], [ 15.222294975625305, 45.020592417642455 ], [ 15.243266343109266, 45.082148660875212 ] ] ] } },
{ "type": "Feature", "properties": { "BM": 648, "longitude": 15.269183694332627, "latitude": 44.846672229091837, "population": 325 }, "geometry": { "type": "Polygon", "coordinates": [ [ [ 15.231022636713009, 44.824196228068907 ], [ 15.261988545275193, 44.871354849871736 ], [ 15.303568902471808, 44.895976279938409 ], [ 15.306874827157944, 44.894944497579381 ], [ 15.308856399286459, 44.876528555562572 ], [ 15.261908406666656, 44.802800666498648 ], [ 15.233767888466511, 44.806764049791596 ], [ 15.231022636713009, 44.824196228068907 ] ] ] } },
{ "type": "Feature", "properties": { "BM": 663, "longitude": 15.283432846495421, "latitude": 45.006512420211209, "population": 94 }, "geometry": { "type": "Polygon", "coordinates": [ [ [ 15.234634043986615, 45.011668752801377 ], [ 15.316155115663198, 45.042302629400517 ], [ 15.339010957731764, 45.019854726110097 ], [ 15.257948344994944, 44.962306369123738 ], [ 15.234634043986615, 45.011668752801377 ] ] ] } },
{ "type": "Feature", "properties": { "BM": 667, "longitude": 15.262046789188819, "latitude": 44.708668757390392, "population": 78 }, "geometry": { "type": "Polygon", "coordinates": [ [ [ 15.246479326649563, 44.728305821945987 ], [ 15.293435087735615, 44.749099678549072 ], [ 15.277856825621509, 44.678087250541786 ], [ 15.272069185758923, 44.675165630054778 ], [ 15.222983099889195, 44.690241744764926 ], [ 15.246479326649563, 44.728305821945987 ] ] ] } },
{ "type": "Feature", "properties": { "BM": 670, "longitude": 15.26340886576722, "latitude": 44.534115471285205, "population": 148 }, "geometry": { "type": "Polygon", "coordinates": [ [ [ 15.273586149396197, 44.565873945083922 ], [ 15.301740096909429, 44.507183929974858 ], [ 15.214900350996032, 44.529288538796862 ], [ 15.273586149396197, 44.565873945083922 ] ] ] } },
{ "type": "Feature", "properties": { "BM": 668, "longitude": 15.328017042800814, "latitude": 44.957628559196344, "population": 76 }, "geometry": { "type": "Polygon", "coordinates": [ [ [ 15.257948344994944, 44.962306369123738 ], [ 15.339010957731764, 45.019854726110097 ], [ 15.385062588516121, 45.004051157432635 ], [ 15.395290399977119, 44.940593296884444 ], [ 15.306874827157944, 44.894944497579381 ], [ 15.303568902471808, 44.895976279938409 ], [ 15.250878999128069, 44.942340952781308 ], [ 15.257948344994944, 44.962306369123738 ] ] ] } },
{ "type": "Feature", "properties": { "BM": 608, "longitude": 15.226352236983002, "latitude": 44.568177959098485, "population": 75 }, "geometry": { "type": "Polygon", "coordinates": [ [ [ 15.163231947560993, 44.534825090155728 ], [ 15.228026537028374, 44.615432657610498 ], [ 15.271325415696987, 44.606908462462037 ], [ 15.284808277803045, 44.591254047004831 ], [ 15.280933852795579, 44.576195605539809 ], [ 15.273586149396197, 44.565873945083922 ], [ 15.214900350996032, 44.529288538796862 ], [ 15.187760256469206, 44.519964852551269 ], [ 15.165915552479772, 44.527056280198643 ], [ 15.163231947560993, 44.534825090155728 ] ] ] } },
{ "type": "Feature", "properties": { "BM": 613, "longitude": 15.215258067625024, "latitude": 44.876107543952024, "population": 1260 }, "geometry": { "type": "Polygon", "coordinates": [ [ [ 15.200665858720027, 44.91647764535859 ], [ 15.236355496853205, 44.880901828709405 ], [ 15.22168597688235, 44.838053960082355 ], [ 15.200627452667696, 44.861258086877115 ], [ 15.200665858720027, 44.91647764535859 ] ] ] } },
{ "type": "Feature", "properties": { "BM": 616, "longitude": 15.249483033487792, "latitude": 44.907317936444429, "population": 83 }, "geometry": { "type": "Polygon", "coordinates": [ [ [ 15.199786188545339, 44.92020051227307 ], [ 15.20257043871694, 44.928844136434165 ], [ 15.250878999128069, 44.942340952781308 ], [ 15.303568902471808, 44.895976279938409 ], [ 15.261988545275193, 44.871354849871736 ], [ 15.236355496853205, 44.880901828709405 ], [ 15.200665858720027, 44.91647764535859 ], [ 15.199786188545339, 44.92020051227307 ] ] ] } },
{ "type": "Feature", "properties": { "BM": 617, "longitude": 15.261689291902556, "latitude": 44.480385327778698, "population": 129 }, "geometry": { "type": "Polygon", "coordinates": [ [ [ 15.187760256469206, 44.519964852551269 ], [ 15.214900350996032, 44.529288538796862 ], [ 15.301740096909429, 44.507183929974858 ], [ 15.301742440690994, 44.507181945175695 ], [ 15.318131269083663, 44.436941093990981 ], [ 15.268317989822842, 44.424700319916354 ], [ 15.187760256469206, 44.519964852551269 ] ] ] } },
{ "type": "Feature", "properties": { "BM": 628, "longitude": 15.245039922970241, "latitude": 44.649744753841382, "population": 107 }, "geometry": { "type": "Polygon", "coordinates": [ [ [ 15.213124018310729, 44.687695421182561 ], [ 15.222983099889195, 44.690241744764926 ], [ 15.272069185758923, 44.675165630054778 ], [ 15.276818954359793, 44.655486284961697 ], [ 15.271325415696987, 44.606908462462037 ], [ 15.228026537028374, 44.615432657610498 ], [ 15.210608016842494, 44.667871253663542 ], [ 15.213124018310729, 44.687695421182561 ] ] ] } },
{ "type": "Feature", "properties": { "BM": 633, "longitude": 15.239276774396354, "latitude": 44.855640245758487, "population": 514 }, "geometry": { "type": "Polygon", "coordinates": [ [ [ 15.22168597688235, 44.838053960082355 ], [ 15.236355496853205, 44.880901828709405 ], [ 15.261988545275193, 44.871354849871736 ], [ 15.231022636713009, 44.824196228068907 ], [ 15.22168597688235, 44.838053960082355 ] ] ] } },
{ "type": "Feature", "properties": { "BM": 582, "longitude": 15.193723658837994, "latitude": 44.446360155715176, "population": 187 }, "geometry": { "type": "Polygon", "coordinates": [ [ [ 15.128511822893163, 44.476542831435211 ], [ 15.165915552479772, 44.527056280198643 ], [ 15.187760256469206, 44.519964852551269 ], [ 15.268317989822842, 44.424700319916354 ], [ 15.241118232451884, 44.386669631663352 ], [ 15.17698405552475, 44.378270494021166 ], [ 15.128308359319014, 44.470536167052501 ], [ 15.128511822893163, 44.476542831435211 ] ] ] } },
{ "type": "Feature", "properties": { "BM": 580, "longitude": 15.129869146026023, "latitude": 44.988645012188208, "population": 742 }, "geometry": { "type": "Polygon", "coordinates": [ [ [ 15.09500504572974, 45.010011948022729 ], [ 15.109414962973876, 45.023722509437555 ], [ 15.139180738111728, 45.021426884051699 ], [ 15.171862655173674, 44.97975684914033 ], [ 15.169843459422967, 44.966794206365968 ], [ 15.109889829579879, 44.954515448753654 ], [ 15.106615468540618, 44.954924137394784 ], [ 15.09500504572974, 45.010011948022729 ] ] ] } },
{ "type": "Feature", "properties": { "BM": 586, "longitude": 15.169268784124363, "latitude": 45.021536273176629, "population": 365 }, "geometry": { "type": "Polygon", "coordinates": [ [ [ 15.167444454525139, 45.06598510024503 ], [ 15.199183333099606, 45.016187616908759 ], [ 15.171862655173674, 44.97975684914033 ], [ 15.139180738111728, 45.021426884051699 ], [ 15.167444454525139, 45.06598510024503 ] ] ] } },
{ "type": "Feature", "properties": { "BM": 587, "longitude": 15.200643366370311, "latitude": 45.067125890425189, "population": 240 }, "geometry": { "type": "Polygon", "coordinates": [ [ [ 15.162650480097883, 45.115810209226495 ], [ 15.16430353725203, 45.118083387114559 ], [ 15.243266343109266, 45.082148660875212 ], [ 15.222294975625305, 45.020592417642455 ], [ 15.199183333099606, 45.016187616908759 ], [ 15.167444454525139, 45.06598510024503 ], [ 15.162650480097883, 45.115810209226495 ] ] ] } },
{ "type": "Feature", "properties": { "BM": 585, "longitude": 15.156534469520798, "latitude": 44.931905931586883, "population": 449 }, "geometry": { "type": "Polygon", "coordinates": [ [ [ 15.109889829579879, 44.954515448753654 ], [ 15.169843459422967, 44.966794206365968 ], [ 15.20257043871694, 44.928844136434165 ], [ 15.199786188545339, 44.92020051227307 ], [ 15.144839428474441, 44.888674233259103 ], [ 15.109889829579879, 44.954515448753654 ] ] ] } },
{ "type": "Feature", "properties": { "BM": 590, "longitude": 15.180763188127854, "latitude": 44.599334601190392, "population": 97 }, "geometry": { "type": "Polygon", "coordinates": [ [ [ 15.127476774353257, 44.581515653129358 ], [ 15.210608016842494, 44.667871253663542 ], [ 15.228026537028374, 44.615432657610498 ], [ 15.163231947560993, 44.534825090155728 ], [ 15.136679603933061, 44.569368543423415 ], [ 15.127476774353257, 44.581515653129358 ] ] ] } },
{ "type": "Feature", "properties": { "BM": 593, "longitude": 15.172453505188718, "latitude": 44.879023733604654, "population": 350 }, "geometry": { "type": "Polygon", "coordinates": [ [ [ 15.144839428474441, 44.888674233259103 ], [ 15.199786188545339, 44.92020051227307 ], [ 15.200665858720027, 44.91647764535859 ], [ 15.200627452667696, 44.861258086877115 ], [ 15.160554467512597, 44.846248451377647 ], [ 15.131384886544495, 44.867192279956612 ], [ 15.144839428474441, 44.888674233259103 ] ] ] } },
{ "type": "Feature", "properties": { "BM": 597, "longitude": 15.214400475954493, "latitude": 44.97335429942143, "population": 84 }, "geometry": { "type": "Polygon", "coordinates": [ [ [ 15.171862655173674, 44.97975684914033 ], [ 15.199183333099606, 45.016187616908759 ], [ 15.222294975625305, 45.020592417642455 ], [ 15.234634043986615, 45.011668752801377 ], [ 15.257948344994944, 44.962306369123738 ], [ 15.250878999128069, 44.942340952781308 ], [ 15.20257043871694, 44.928844136434165 ], [ 15.169843459422967, 44.966794206365968 ], [ 15.171862655173674, 44.97975684914033 ] ] ] } },
{ "type": "Feature", "properties": { "BM": 602, "longitude": 15.19491936735807, "latitude": 44.821048250650392, "population": 172 }, "geometry": { "type": "Polygon", "coordinates": [ [ [ 15.160554467512597, 44.846248451377647 ], [ 15.200627452667696, 44.861258086877115 ], [ 15.22168597688235, 44.838053960082355 ], [ 15.231022636713009, 44.824196228068907 ], [ 15.233767888466511, 44.806764049791596 ], [ 15.227093946538275, 44.800781483270427 ], [ 15.173461646917012, 44.778498412474207 ], [ 15.160554467512597, 44.846248451377647 ] ] ] } },
{ "type": "Feature", "properties": { "BM": 605, "longitude": 15.199007714909929, "latitude": 44.742912010725277, "population": 71 }, "geometry": { "type": "Polygon", "coordinates": [ [ [ 15.173461646917012, 44.778498412474207 ], [ 15.227093946538275, 44.800781483270427 ], [ 15.246479326649563, 44.728305821945987 ], [ 15.222983099889195, 44.690241744764926 ], [ 15.213124018310729, 44.687695421182561 ], [ 15.133466248289087, 44.735695911754391 ], [ 15.173461646917012, 44.778498412474207 ] ] ] } },
{ "type": "Feature", "properties": { "BM": 551, "longitude": 15.063859264185727, "latitude": 45.056635732270429, "population": 39 }, "geometry": { "type": "Polygon", "coordinates": [ [ [ 15.012676344105504, 45.051705581955197 ], [ 15.012680780140409, 45.093871340472141 ], [ 15.108271449091895, 45.089959095059427 ], [ 15.109414962973876, 45.023722509437555 ], [ 15.09500504572974, 45.010011948022729 ], [ 15.032258739049565, 45.028182909729757 ], [ 15.012676344105504, 45.051705581955197 ] ] ] } },
{ "type": "Feature", "properties": { "BM": 554, "longitude": 15.09476620351351, "latitude": 44.902472975882823, "population": 130 }, "geometry": { "type": "Polygon", "coordinates": [ [ [ 15.044862323981514, 44.916371841375359 ], [ 15.106615468540618, 44.954924137394784 ], [ 15.109889829579879, 44.954515448753654 ], [ 15.144839428474441, 44.888674233259103 ], [ 15.131384886544495, 44.867192279956612 ], [ 15.094189382146183, 44.856927531132293 ], [ 15.035622573370704, 44.902089715151106 ], [ 15.044862323981514, 44.916371841375359 ] ] ] } },
{ "type": "Feature", "properties": { "BM": 555, "longitude": 15.066345794974261, "latitude": 44.976017598976149, "population": 98 }, "geometry": { "type": "Polygon", "coordinates": [ [ [ 15.032258739049565, 45.028182909729757 ], [ 15.09500504572974, 45.010011948022729 ], [ 15.106615468540618, 44.954924137394784 ], [ 15.044862323981514, 44.916371841375359 ], [ 15.032258739049565, 45.028182909729757 ] ] ] } },
{ "type": "Feature", "properties": { "BM": 558, "longitude": 15.110413492395086, "latitude": 44.516908629918809, "population": 65 }, "geometry": { "type": "Polygon", "coordinates": [ [ [ 15.04386558162885, 44.508405375189646 ], [ 15.136679603933061, 44.569368543423415 ], [ 15.163231947560993, 44.534825090155728 ], [ 15.165915552479772, 44.527056280198643 ], [ 15.128511822893163, 44.476542831435211 ], [ 15.097965985972674, 44.480130640285189 ], [ 15.04826350873533, 44.493014864041278 ], [ 15.04386558162885, 44.508405375189646 ] ] ] } },
{ "type": "Feature", "properties": { "BM": 559, "longitude": 15.127342152200518, "latitude": 44.667494454109786, "population": 62 }, "geometry": { "type": "Polygon", "coordinates": [ [ [ 15.100575077917469, 44.731162045286069 ], [ 15.133466248289087, 44.735695911754391 ], [ 15.213124018310729, 44.687695421182561 ], [ 15.210608016842494, 44.667871253663542 ], [ 15.127476774353257, 44.581515653129358 ], [ 15.092811460820805, 44.60758998007141 ], [ 15.041854696222357, 44.692548626524747 ], [ 15.100575077917469, 44.731162045286069 ] ] ] } },
{ "type": "Feature", "properties": { "BM": 556, "longitude": 15.083975782893095, "latitude": 44.559495334002541, "population": 459 }, "geometry": { "type": "Polygon", "coordinates": [ [ [ 15.036442703556546, 44.532861288279932 ], [ 15.092811460820805, 44.60758998007141 ], [ 15.127476774353257, 44.581515653129358 ], [ 15.136679603933061, 44.569368543423415 ], [ 15.04386558162885, 44.508405375189646 ], [ 15.036442703556546, 44.532861288279932 ] ] ] } },
{ "type": "Feature", "properties": { "BM": 564, "longitude": 15.129537830959226, "latitude": 44.800695443436965, "population": 377 }, "geometry": { "type": "Polygon", "coordinates": [ [ [ 15.094189382146183, 44.856927531132293 ], [ 15.131384886544495, 44.867192279956612 ], [ 15.160554467512597, 44.846248451377647 ], [ 15.173461646917012, 44.778498412474207 ], [ 15.133466248289087, 44.735695911754391 ], [ 15.100575077917469, 44.731162045286069 ], [ 15.094189382146183, 44.856927531132293 ] ] ] } },
{ "type": "Feature", "properties": { "BM": 569, "longitude": 15.136337494399349, "latitude": 45.066688865307221, "population": 155 }, "geometry": { "type": "Polygon", "coordinates": [ [ [ 15.108271449091895, 45.089959095059427 ], [ 15.162650480097883, 45.115810209226495 ], [ 15.167444454525139, 45.06598510024503 ], [ 15.139180738111728, 45.021426884051699 ], [ 15.109414962973876, 45.023722509437555 ], [ 15.108271449091895, 45.089959095059427 ] ] ] } },
{ "type": "Feature", "properties": { "BM": 514, "longitude": 14.924024886999147, "latitude": 44.720863660017223, "population": 206 }, "geometry": { "type": "Polygon", "coordinates": [ [ [ 14.879624470874196, 44.819812359951122 ], [ 14.937557910671986, 44.814002218506388 ], [ 15.027015248745055, 44.694307835206871 ], [ 14.96140058825317, 44.637237317500002 ], [ 14.849613483039048, 44.658926300331444 ], [ 14.837417302648795, 44.681543348788864 ], [ 14.879624470874196, 44.819812359951122 ] ] ] } },
{ "type": "Feature", "properties": { "BM": 515, "longitude": 14.881778413877189, "latitude": 44.611539823281312, "population": 263 }, "geometry": { "type": "Polygon", "coordinates": [ [ [ 14.849613483039048, 44.658926300331444 ], [ 14.96140058825317, 44.637237317500002 ], [ 14.955469570787008, 44.610220086962428 ], [ 14.93906036033481, 44.588960591073928 ], [ 14.922576216756966, 44.585388903600744 ], [ 14.80006546662778, 44.562602631219661 ], [ 14.849613483039048, 44.658926300331444 ] ] ] } },
{ "type": "Feature", "properties": { "BM": 518, "longitude": 14.863103751800766, "latitude": 45.006339638359684, "population": 1005 }, "geometry": { "type": "Polygon", "coordinates": [ [ [ 14.820069490022458, 45.022180257816409 ], [ 14.878260225962809, 45.051017587913485 ], [ 14.912893375297797, 45.024372647749516 ], [ 14.901014595691716, 44.991029039076956 ], [ 14.830344089650175, 44.955306348343221 ], [ 14.820069490022458, 45.022180257816409 ] ] ] } },
{ "type": "Feature", "properties": { "BM": 523, "longitude": 14.953288294004848, "latitude": 45.072738541648789, "population": 151 }, "geometry": { "type": "Polygon", "coordinates": [ [ [ 14.878260225962809, 45.051017587913485 ], [ 14.919949279046957, 45.117819929913914 ], [ 14.962621882953691, 45.153772929717171 ], [ 14.982295154620282, 45.142954893930984 ], [ 15.012680780140409, 45.093871340472141 ], [ 15.012676344105504, 45.051705581955197 ], [ 14.955758828631806, 44.994123272533272 ], [ 14.912893375297797, 45.024372647749516 ], [ 14.878260225962809, 45.051017587913485 ] ] ] } },
{ "type": "Feature", "properties": { "BM": 527, "longitude": 14.952177937151255, "latitude": 44.554902662311164, "population": 145 }, "geometry": { "type": "Polygon", "coordinates": [ [ [ 14.93906036033481, 44.588960591073928 ], [ 14.955469570787008, 44.610220086962428 ], [ 14.984664278314263, 44.559956023134966 ], [ 14.965109470857222, 44.513857833225984 ], [ 14.919789997921123, 44.522360946613482 ], [ 14.917499962029071, 44.524363808260524 ], [ 14.93906036033481, 44.588960591073928 ] ] ] } },
{ "type": "Feature", "properties": { "BM": 525, "longitude": 14.875989682421546, "latitude": 44.530221420370452, "population": 1068 }, "geometry": { "type": "Polygon", "coordinates": [ [ [ 14.793761777589145, 44.490126479991368 ], [ 14.922576216756966, 44.585388903600744 ], [ 14.93906036033481, 44.588960591073928 ], [ 14.917499962029071, 44.524363808260524 ], [ 14.810837923688906, 44.480147393468599 ], [ 14.793761777589145, 44.490126479991368 ] ] ] } },
{ "type": "Feature", "properties": { "BM": 529, "longitude": 14.927723290662527, "latitude": 44.998041242646963, "population": 1290 }, "geometry": { "type": "Polygon", "coordinates": [ [ [ 14.912893375297797, 45.024372647749516 ], [ 14.955758828631806, 44.994123272533272 ], [ 14.953689375555085, 44.977841856542703 ], [ 14.901014595691716, 44.991029039076956 ], [ 14.912893375297797, 45.024372647749516 ] ] ] } },
{ "type": "Feature", "properties": { "BM": 534, "longitude": 15.022712392546898, "latitude": 44.611904283142096, "population": 149 }, "geometry": { "type": "Polygon", "coordinates": [ [ [ 14.96140058825317, 44.637237317500002 ], [ 15.027015248745055, 44.694307835206871 ], [ 15.041854696222357, 44.692548626524747 ], [ 15.092811460820805, 44.60758998007141 ], [ 15.036442703556546, 44.532861288279932 ], [ 15.005462342243002, 44.538761576685026 ], [ 14.984664278314263, 44.559956023134966 ], [ 14.955469570787008, 44.610220086962428 ], [ 14.96140058825317, 44.637237317500002 ] ] ] } },
{ "type": "Feature", "properties": { "BM": 535, "longitude": 15.003718880969087, "latitude": 44.968170377537433, "population": 257 }, "geometry": { "type": "Polygon", "coordinates": [ [ [ 14.953689375555085, 44.977841856542703 ], [ 14.955758828631806, 44.994123272533272 ], [ 15.012676344105504, 45.051705581955197 ], [ 15.032258739049565, 45.028182909729757 ], [ 15.044862323981514, 44.916371841375359 ], [ 15.035622573370704, 44.902089715151106 ], [ 14.9999986044926, 44.89183841098901 ], [ 14.952939145157337, 44.970257550993161 ], [ 14.953689375555085, 44.977841856542703 ] ] ] } },
{ "type": "Feature", "properties": { "BM": 537, "longitude": 15.030990628865412, "latitude": 44.800080748345856, "population": 365 }, "geometry": { "type": "Polygon", "coordinates": [ [ [ 14.9999986044926, 44.89183841098901 ], [ 15.035622573370704, 44.902089715151106 ], [ 15.094189382146183, 44.856927531132293 ], [ 15.100575077917469, 44.731162045286069 ], [ 15.041854696222357, 44.692548626524747 ], [ 15.027015248745055, 44.694307835206871 ], [ 14.937557910671986, 44.814002218506388 ], [ 14.9999986044926, 44.89183841098901 ] ] ] } },
{ "type": "Feature", "properties": { "BM": 543, "longitude": 14.985141114784559, "latitude": 44.527189809690427, "population": 153 }, "geometry": { "type": "Polygon", "coordinates": [ [ [ 14.965109470857222, 44.513857833225984 ], [ 14.984664278314263, 44.559956023134966 ], [ 15.005462342243002, 44.538761576685026 ], [ 14.98505628345004, 44.495046426254632 ], [ 14.965109470857222, 44.513857833225984 ] ] ] } },
{ "type": "Feature", "properties": { "BM": 541, "longitude": 15.015954157406927, "latitude": 44.502225739610537, "population": 189 }, "geometry": { "type": "Polygon", "coordinates": [ [ [ 14.98505628345004, 44.495046426254632 ], [ 15.005462342243002, 44.538761576685026 ], [ 15.036442703556546, 44.532861288279932 ], [ 15.04386558162885, 44.508405375189646 ], [ 15.04826350873533, 44.493014864041278 ], [ 15.006777532721621, 44.461834077410003 ], [ 14.98635038151882, 44.487524826305098 ], [ 14.98505628345004, 44.495046426254632 ] ] ] } },
{ "type": "Feature", "properties": { "BM": 899, "longitude": 15.561654269679059, "latitude": 44.747277668073174, "population": 20 }, "geometry": { "type": "Polygon", "coordinates": [ [ [ 15.498664358936788, 44.797710326534201 ], [ 15.50476911417862, 44.800192718415474 ], [ 15.603354738994609, 44.797238306746095 ], [ 15.617360253911317, 44.785032050576319 ], [ 15.613762769824801, 44.718920891007023 ], [ 15.586041213004467, 44.676364939329062 ], [ 15.565777381780032, 44.664760558661861 ], [ 15.485308347863226, 44.785278726402787 ], [ 15.498664358936788, 44.797710326534201 ] ] ] } },
{ "type": "Feature", "properties": { "BM": 883, "longitude": 15.504430313895504, "latitude": 44.857442303500029, "population": 38 }, "geometry": { "type": "Polygon", "coordinates": [ [ [ 15.477165317353531, 44.845474193269901 ], [ 15.521123884293319, 44.918275164845738 ], [ 15.531358718056495, 44.919555038955096 ], [ 15.50476911417862, 44.800192718415474 ], [ 15.498664358936788, 44.797710326534201 ], [ 15.477165317353531, 44.845474193269901 ] ] ] } },
{ "type": "Feature", "properties": { "BM": 833, "longitude": 15.518620767522174, "latitude": 44.446252499681115, "population": 93 }, "geometry": { "type": "Polygon", "coordinates": [ [ [ 15.404375790116347, 44.410137384329524 ], [ 15.531078684536194, 44.556879358488544 ], [ 15.615955752134278, 44.47574015271627 ], [ 15.608121888456372, 44.454032807320296 ], [ 15.546366622742845, 44.356726401856548 ], [ 15.498088511288648, 44.36501679077341 ], [ 15.407006578847854, 44.404702003791932 ], [ 15.404375790116347, 44.410137384329524 ] ] ] } },
{ "type": "Feature", "properties": { "BM": 851, "longitude": 15.470191020421936, "latitude": 44.891061938438014, "population": 31 }, "geometry": { "type": "Polygon", "coordinates": [ [ [ 15.429719315399506, 44.926262485522102 ], [ 15.521123884293319, 44.918275164845738 ], [ 15.477165317353531, 44.845474193269901 ], [ 15.448342563214021, 44.84803779420681 ], [ 15.429719315399506, 44.926262485522102 ] ] ] } },
{ "type": "Feature", "properties": { "BM": 822, "longitude": 15.463957421271388, "latitude": 44.81341017830232, "population": 77 }, "geometry": { "type": "Polygon", "coordinates": [ [ [ 15.428433392920221, 44.808345641948385 ], [ 15.448342563214021, 44.84803779420681 ], [ 15.477165317353531, 44.845474193269901 ], [ 15.498664358936788, 44.797710326534201 ], [ 15.485308347863226, 44.785278726402787 ], [ 15.461960513105327, 44.779257712400884 ], [ 15.428433392920221, 44.808345641948385 ] ] ] } },
{ "type": "Feature", "properties": { "BM": 772, "longitude": 15.46825975363071, "latitude": 44.611237944245943, "population": 189 }, "geometry": { "type": "Polygon", "coordinates": [ [ [ 15.40956198558926, 44.631254947237622 ], [ 15.448681494564706, 44.665706605611938 ], [ 15.455968376231422, 44.6700821783149 ], [ 15.531355409733866, 44.632551193385673 ], [ 15.525802350559946, 44.572901637398488 ], [ 15.429915647990301, 44.561604970730549 ], [ 15.405615212312465, 44.603968822440713 ], [ 15.40956198558926, 44.631254947237622 ] ] ] } },
{ "type": "Feature", "properties": { "BM": 778, "longitude": 15.378080208928623, "latitude": 44.65682861768709, "population": 157 }, "geometry": { "type": "Polygon", "coordinates": [ [ [ 15.388060964283257, 44.661640808472477 ], [ 15.38334804216402, 44.649494520574095 ], [ 15.382980820920114, 44.64935152969332 ], [ 15.367631829868053, 44.655633099812775 ], [ 15.368899208212396, 44.661352698522116 ], [ 15.388060964283257, 44.661640808472477 ] ] ] } },
{ "type": "Feature", "properties": { "BM": 779, "longitude": 15.409623182629543, "latitude": 44.650039036587316, "population": 58 }, "geometry": { "type": "Polygon", "coordinates": [ [ [ 15.448681494564706, 44.665706605611938 ], [ 15.40956198558926, 44.631254947237622 ], [ 15.393320928402304, 44.629787619623727 ], [ 15.38334804216402, 44.649494520574095 ], [ 15.388060964283257, 44.661640808472477 ], [ 15.448681494564706, 44.665706605611938 ] ] ] } },
{ "type": "Feature", "properties": { "BM": 782, "longitude": 15.401329850405984, "latitude": 44.582637445293464, "population": 119 }, "geometry": { "type": "Polygon", "coordinates": [ [ [ 15.367549944580299, 44.586754783012779 ], [ 15.367709156594897, 44.588116740720174 ], [ 15.405615212312465, 44.603968822440713 ], [ 15.429915647990301, 44.561604970730549 ], [ 15.425550261196417, 44.559198220129154 ], [ 15.367549944580299, 44.586754783012779 ] ] ] } },
{ "type": "Feature", "properties": { "BM": 780, "longitude": 15.38243475514734, "latitude": 44.635589647207077, "population": 73 }, "geometry": { "type": "Polygon", "coordinates": [ [ [ 15.382980820920114, 44.64935152969332 ], [ 15.38334804216402, 44.649494520574095 ], [ 15.393320928402304, 44.629787619623727 ], [ 15.370773806226271, 44.627224732232065 ], [ 15.382980820920114, 44.64935152969332 ] ] ] } },
{ "type": "Feature", "properties": { "BM": 495, "longitude": 14.888448933007544, "latitude": 44.965337912565587, "population": 714 }, "geometry": { "type": "Polygon", "coordinates": [ [ [ 14.830344089650175, 44.955306348343221 ], [ 14.901014595691716, 44.991029039076956 ], [ 14.953689375555085, 44.977841856542703 ], [ 14.952939145157337, 44.970257550993161 ], [ 14.83284527991094, 44.93552059068832 ], [ 14.830344089650175, 44.955306348343221 ] ] ] } },
{ "type": "Feature", "properties": { "BM": 492, "longitude": 14.75533273554106, "latitude": 44.596091341537942, "population": 115 }, "geometry": { "type": "Polygon", "coordinates": [ [ [ 14.64926841860888, 44.572981390660949 ], [ 14.797423083778316, 44.689401905531064 ], [ 14.837417302648795, 44.681543348788864 ], [ 14.849613483039048, 44.658926300331444 ], [ 14.80006546662778, 44.562602631219661 ], [ 14.756203220106, 44.511458364243595 ], [ 14.735320306012319, 44.511612618830199 ], [ 14.683334443803425, 44.528705943618569 ], [ 14.64926841860888, 44.572981390660949 ] ] ] } },
{ "type": "Feature", "properties": { "BM": 499, "longitude": 14.90867173463049, "latitude": 44.890893422067187, "population": 741 }, "geometry": { "type": "Polygon", "coordinates": [ [ [ 14.820796932333121, 44.888715145334018 ], [ 14.83284527991094, 44.93552059068832 ], [ 14.952939145157337, 44.970257550993161 ], [ 14.9999986044926, 44.89183841098901 ], [ 14.937557910671986, 44.814002218506388 ], [ 14.879624470874196, 44.819812359951122 ], [ 14.859396833245818, 44.83241679892042 ], [ 14.840242658476887, 44.851370928777662 ], [ 14.820796932333121, 44.888715145334018 ] ] ] } },
{ "type": "Feature", "properties": { "BM": 508, "longitude": 14.825134993813469, "latitude": 44.539966558501142, "population": 1350 }, "geometry": { "type": "Polygon", "coordinates": [ [ [ 14.80006546662778, 44.562602631219661 ], [ 14.922576216756966, 44.585388903600744 ], [ 14.793761777589145, 44.490126479991368 ], [ 14.756203220106, 44.511458364243595 ], [ 14.80006546662778, 44.562602631219661 ] ] ] } },
{ "type": "Feature", "properties": { "BM": 465, "longitude": 14.681793347194956, "latitude": 44.663062608032156, "population": 146 }, "geometry": { "type": "Polygon", "coordinates": [ [ [ 14.573597269792023, 44.682742314757057 ], [ 14.717780899655569, 44.726480518164152 ], [ 14.758944021283328, 44.721038288452149 ], [ 14.76989281773869, 44.717205621526496 ], [ 14.797423083778316, 44.689401905531064 ], [ 14.64926841860888, 44.572981390660949 ], [ 14.64113533722049, 44.580416687588546 ], [ 14.573593541250879, 44.682729044702107 ], [ 14.573597269792023, 44.682742314757057 ] ] ] } }
]
}
