{
"type": "FeatureCollection",
"name": "zupanija_10_meta",
"crs": { "type": "name", "properties": { "name": "urn:ogc:def:crs:EPSG::3765" } },
"features": [
{ "type": "Feature", "properties": { "name": "VIROVITIČKO-PODRAVSKA ŽUPANIJA", "population": 59146, "latitude": 8146.527086225612, "longitude": 3129.7671571451338 }, "geometry": { "type": "Polygon", "coordinates": [ [ [ 17.271485504133757, 45.800891147482844 ], [ 17.233272193341396, 45.800481429668373 ], [ 17.233099905663696, 45.800547508524566 ], [ 17.232558847228322, 45.800452963689139 ], [ 17.185519978923811, 45.834956679475958 ], [ 17.167958033003757, 45.843202455362146 ], [ 17.158955934721103, 45.853730467988356 ], [ 17.156230337348667, 45.858792211297235 ], [ 17.147094977422071, 45.869847309649415 ], [ 17.127064734922019, 45.881669977559916 ], [ 17.121470074377402, 45.891020071213923 ], [ 17.139127896328869, 45.950950428850298 ], [ 17.149102302083879, 45.947336710477636 ], [ 17.151374011208858, 45.947831189363939 ], [ 17.184460991633991, 45.967019838460068 ], [ 17.185177212599559, 45.989068934922862 ], [ 17.188248038019946, 45.990511853126932 ], [ 17.219193991409313, 45.982459868021465 ], [ 17.223931717395544, 45.983697139478181 ], [ 17.226093077814248, 45.985162996476191 ], [ 17.263253523975557, 45.977604497793223 ], [ 17.295358621419112, 45.992345375278283 ], [ 17.293814, 45.9900575 ], [ 17.2949454, 45.9866372 ], [ 17.296736212776718, 45.985337735618899 ], [ 17.2987654, 45.9838653 ], [ 17.2997434, 45.9837474 ], [ 17.3079889, 45.9822254 ], [ 17.3119698, 45.9897829 ], [ 17.312293411842141, 45.989926197544705 ], [ 17.318748769414896, 45.980756854438525 ], [ 17.3167101, 45.9796662 ], [ 17.3180398, 45.978016 ], [ 17.3170287, 45.9760513 ], [ 17.3084955, 45.9717705 ], [ 17.3081321, 45.9697232 ], [ 17.3097307, 45.9679841 ], [ 17.3129974, 45.9665348 ], [ 17.3192667, 45.9676692 ], [ 17.3226255, 45.9672477 ], [ 17.3253753, 45.9687505 ], [ 17.326912029074521, 45.969161566673236 ], [ 17.3291922, 45.9697715 ], [ 17.3319847, 45.9728948 ], [ 17.3367259, 45.9804419 ], [ 17.3368122, 45.9831285 ], [ 17.3342583, 45.9853721 ], [ 17.3294266, 45.9871554 ], [ 17.3274545, 45.9889951 ], [ 17.3274888, 45.992046 ], [ 17.3299363, 45.9944423 ], [ 17.3339583, 45.9960781 ], [ 17.3382214, 45.9957548 ], [ 17.3409386, 45.9937275 ], [ 17.3419903, 45.9913488 ], [ 17.342734, 45.9842103 ], [ 17.3488396, 45.9768975 ], [ 17.3525626, 45.9744167 ], [ 17.3567203, 45.9735837 ], [ 17.3593686, 45.9748495 ], [ 17.360881, 45.9763334 ], [ 17.3610977, 45.9782363 ], [ 17.3617912, 45.9888175 ], [ 17.3635685, 45.9915442 ], [ 17.3668746, 45.9923216 ], [ 17.3724305, 45.9911821 ], [ 17.3751896, 45.9881054 ], [ 17.3751771, 45.9845276 ], [ 17.3744015, 45.9819343 ], [ 17.3714261, 45.9799064 ], [ 17.3676784, 45.9773081 ], [ 17.3664192, 45.975075 ], [ 17.367659, 45.9730468 ], [ 17.3704151, 45.9717963 ], [ 17.3745825, 45.9713012 ], [ 17.3760385, 45.9700045 ], [ 17.3754853, 45.9686921 ], [ 17.3732631, 45.9677707 ], [ 17.3706249, 45.9682148 ], [ 17.3682216, 45.9691097 ], [ 17.3655802, 45.9695891 ], [ 17.3632121, 45.9695913 ], [ 17.3601347, 45.9682457 ], [ 17.3583812, 45.9660473 ], [ 17.358354, 45.9642738 ], [ 17.3592707, 45.963118 ], [ 17.361297, 45.9616314 ], [ 17.363416, 45.9608348 ], [ 17.3665615, 45.9607752 ], [ 17.3708523, 45.9607752 ], [ 17.3750299, 45.9608957 ], [ 17.3781852, 45.9615939 ], [ 17.3802527, 45.9627024 ], [ 17.3827279, 45.9645346 ], [ 17.384096, 45.9656708 ], [ 17.3854167, 45.9662441 ], [ 17.3874231, 45.9661823 ], [ 17.390108, 45.9644946 ], [ 17.3914236, 45.9630043 ], [ 17.3917962, 45.9607167 ], [ 17.39137615948205, 45.959873949073625 ], [ 17.377940590755102, 45.956199931367578 ], [ 17.3729423, 45.9564014 ], [ 17.3648877, 45.9587823 ], [ 17.3629893, 45.9591432 ], [ 17.3598128, 45.9584878 ], [ 17.3567456, 45.9563821 ], [ 17.3562334, 45.9538932 ], [ 17.3537711, 45.9525012 ], [ 17.3512254, 45.952702 ], [ 17.3495667, 45.9542337 ], [ 17.3493376, 45.955984 ], [ 17.3505388, 45.9566934 ], [ 17.3505901, 45.9585919 ], [ 17.3486598, 45.9606319 ], [ 17.3461795, 45.9609584 ], [ 17.3438769, 45.9605329 ], [ 17.3423396, 45.959583 ], [ 17.3415549, 45.9571672 ], [ 17.3423457, 45.9552176 ], [ 17.3417714, 45.9546672 ], [ 17.3395128, 45.9553364 ], [ 17.3398637, 45.9543002 ], [ 17.3411093, 45.951217 ], [ 17.3421578, 45.947938 ], [ 17.342666812525103, 45.946783098339949 ], [ 17.342788207676978, 45.94650766413055 ], [ 17.3433664, 45.9451958 ], [ 17.3476208, 45.9423413 ], [ 17.3515171, 45.9412571 ], [ 17.3642872, 45.9421368 ], [ 17.3730426, 45.947195 ], [ 17.379235, 45.9477334 ], [ 17.3828713, 45.9475733 ], [ 17.3866637, 45.9459085 ], [ 17.3879184, 45.9417005 ], [ 17.3849172, 45.9374049 ], [ 17.3887567, 45.9318675 ], [ 17.392149, 45.930215 ], [ 17.3955076, 45.9302707 ], [ 17.4003201, 45.9337997 ], [ 17.4036943, 45.935191 ], [ 17.4078662, 45.9381988 ], [ 17.410806, 45.9399665 ], [ 17.411713647645897, 45.937278831495078 ], [ 17.410958353464125, 45.93518202582495 ], [ 17.410958353464121, 45.935182025824943 ], [ 17.4095343, 45.933017 ], [ 17.409998678635688, 45.932517829978742 ], [ 17.4119809, 45.9303871 ], [ 17.425832, 45.9274323 ], [ 17.4351466, 45.9286763 ], [ 17.436513565797831, 45.930284346262361 ], [ 17.436513565797835, 45.930284346262361 ], [ 17.4372542, 45.9311556 ], [ 17.4367842, 45.9331832 ], [ 17.4341093, 45.9367736 ], [ 17.4271863, 45.9421323 ], [ 17.427214, 45.9439207 ], [ 17.4281637, 45.9469099 ], [ 17.4330558, 45.9495493 ], [ 17.4378254, 45.9503823 ], [ 17.4456763, 45.9503401 ], [ 17.4519921, 45.9490683 ], [ 17.4579684, 45.9469639 ], [ 17.4624782, 45.945317 ], [ 17.4709293, 45.9431091 ], [ 17.476931513725784, 45.94231884046323 ], [ 17.4774445, 45.9422513 ], [ 17.482037, 45.9422812 ], [ 17.4986777, 45.9413999 ], [ 17.5074354, 45.9396796 ], [ 17.5138166, 45.9395625 ], [ 17.5201956, 45.9377571 ], [ 17.522171903309669, 45.936738360365247 ], [ 17.524027, 45.9357821 ], [ 17.5271246, 45.9350553 ], [ 17.531813, 45.9340297 ], [ 17.5368571, 45.9340374 ], [ 17.5408139, 45.9350888 ], [ 17.5458216, 45.935146 ], [ 17.5516444, 45.9362922 ], [ 17.5563302, 45.9366164 ], [ 17.5605204, 45.9373995 ], [ 17.5652741, 45.9373317 ], [ 17.5700677, 45.9358204 ], [ 17.5730361, 45.9340712 ], [ 17.5786929, 45.9318651 ], [ 17.5825638, 45.9289448 ], [ 17.5845201, 45.9274689 ], [ 17.587545982319735, 45.925787641185742 ], [ 17.5906737, 45.9240498 ], [ 17.5929819, 45.9212167 ], [ 17.6011372, 45.915938 ], [ 17.6079696, 45.9126199 ], [ 17.614683, 45.9096989 ], [ 17.617938, 45.9074721 ], [ 17.6276212, 45.8979446 ], [ 17.6314043, 45.8931203 ], [ 17.6347989, 45.8881679 ], [ 17.635542358412199, 45.886571296649201 ], [ 17.6375013, 45.8823644 ], [ 17.6384316, 45.8803667 ], [ 17.6432877, 45.8723665 ], [ 17.6477852, 45.8666124 ], [ 17.6488834, 45.8619303 ], [ 17.6486804, 45.8558648 ], [ 17.6494471, 45.8532448 ], [ 17.6514305, 45.8487889 ], [ 17.6521346, 45.8483294 ], [ 17.6538332, 45.8460633 ], [ 17.655593056069222, 45.843999413299827 ], [ 17.656082, 45.843426 ], [ 17.6583024, 45.8415507 ], [ 17.6606657, 45.8399616 ], [ 17.661081, 45.8396823 ], [ 17.6632915, 45.8381849 ], [ 17.6660514, 45.8366942 ], [ 17.6682513, 45.835959 ], [ 17.6709917, 45.8352304 ], [ 17.6726411, 45.8348726 ], [ 17.6737313, 45.834886 ], [ 17.6748121, 45.8352773 ], [ 17.6753528, 45.835284 ], [ 17.6785949, 45.8364704 ], [ 17.6840091, 45.837677 ], [ 17.6872516, 45.838857 ], [ 17.6877924, 45.8388636 ], [ 17.6888827, 45.8388768 ], [ 17.6943445, 45.8381806 ], [ 17.6987151, 45.8378553 ], [ 17.6992652, 45.8374839 ], [ 17.7009145, 45.8371195 ], [ 17.7014646, 45.836748 ], [ 17.7025643, 45.8363769 ], [ 17.7053698, 45.832983 ], [ 17.7064788, 45.8322339 ], [ 17.7070287, 45.8318624 ], [ 17.7086685, 45.831882 ], [ 17.709436683189882, 45.831891230599695 ], [ 17.709436683189885, 45.831891230599695 ], [ 17.7097587, 45.8318951 ], [ 17.7124705, 45.8323056 ], [ 17.714651, 45.8323316 ], [ 17.7157323, 45.8323445 ], [ 17.7201301, 45.8308782 ], [ 17.7217703, 45.8305133 ], [ 17.7244913, 45.8305456 ], [ 17.7304736, 45.8310005 ], [ 17.7326633, 45.8306419 ], [ 17.7364836, 45.8303087 ], [ 17.740728062588342, 45.829619431611462 ], [ 17.7408625, 45.8295976 ], [ 17.7441514, 45.8284955 ], [ 17.74471, 45.8281177 ], [ 17.7458092, 45.8277524 ], [ 17.7469177, 45.8266186 ], [ 17.7475033, 45.8251069 ], [ 17.7486297, 45.8235952 ], [ 17.7491973, 45.8224613 ], [ 17.7503055, 45.8217118 ], [ 17.7542152, 45.8175671 ], [ 17.7553322, 45.8164334 ], [ 17.7564671, 45.8145436 ], [ 17.7570345, 45.8134097 ], [ 17.7581423, 45.8126601 ], [ 17.7592411, 45.8122947 ], [ 17.7603399, 45.8119231 ], [ 17.7614298, 45.8119356 ], [ 17.7630601, 45.8119544 ], [ 17.7641409, 45.8123511 ], [ 17.7646814, 45.8127354 ], [ 17.7646723, 45.8131195 ], [ 17.7657356, 45.8138879 ], [ 17.7662671, 45.8146564 ], [ 17.7673391, 45.815431 ], [ 17.7678618, 45.8161994 ], [ 17.7694834, 45.816596 ], [ 17.7711137, 45.8169989 ], [ 17.771606104868948, 45.817176759681182 ], [ 17.7721948, 45.8173894 ], [ 17.7743659, 45.8174141 ], [ 17.7776357, 45.8174513 ], [ 17.7809055, 45.8174884 ], [ 17.7820042, 45.8171227 ], [ 17.7841841, 45.8167631 ], [ 17.7858321, 45.8164036 ], [ 17.7869307, 45.8160379 ], [ 17.7885963, 45.814532 ], [ 17.7891543, 45.8137759 ], [ 17.7908373, 45.811892 ], [ 17.7908461, 45.8115078 ], [ 17.7930431, 45.810392 ], [ 17.7947171, 45.808886 ], [ 17.7963648, 45.8081421 ], [ 17.8002179, 45.8062824 ], [ 17.800767, 45.8059104 ], [ 17.8018567, 45.8059225 ], [ 17.806083345215807, 45.804864320539139 ], [ 17.8062416, 45.8048247 ], [ 17.8089785, 45.8040989 ], [ 17.8100682, 45.8041109 ], [ 17.8116982, 45.804129 ], [ 17.8127879, 45.804141 ], [ 17.8149502, 45.804921 ], [ 17.8154907, 45.804927 ], [ 17.8160313, 45.8053172 ], [ 17.8165545, 45.8060854 ], [ 17.8170697, 45.8076096 ], [ 17.817061, 45.8079938 ], [ 17.817593, 45.8083777 ], [ 17.8186656, 45.8091519 ], [ 17.8191974, 45.809542 ], [ 17.8208194, 45.8103222 ], [ 17.8213599, 45.8103281 ], [ 17.8224497, 45.81034 ], [ 17.8235395, 45.810352 ], [ 17.8246293, 45.8103639 ], [ 17.8262748, 45.8099957 ], [ 17.826826, 45.8096256 ], [ 17.8279155, 45.8092532 ], [ 17.8290307, 45.8081249 ], [ 17.829597, 45.8073687 ], [ 17.8307121, 45.8062404 ], [ 17.8312864, 45.8047219 ], [ 17.8312454, 45.8034499 ], [ 17.8319035, 45.8016792 ], [ 17.8324692, 45.8005449 ], [ 17.8325623, 45.796356 ], [ 17.8326215, 45.7936915 ], [ 17.8331871, 45.7925572 ], [ 17.833204, 45.791795 ], [ 17.8343104, 45.7910446 ], [ 17.8387522, 45.7872872 ], [ 17.8398668, 45.7861526 ], [ 17.8409645, 45.7857864 ], [ 17.8420534, 45.7854138 ], [ 17.8437001, 45.7850535 ], [ 17.8497036, 45.7843557 ], [ 17.8513414, 45.7839951 ], [ 17.8524473, 45.7832446 ], [ 17.8530041, 45.7824882 ], [ 17.8536031, 45.7802075 ], [ 17.8541515, 45.7798353 ], [ 17.853628, 45.7790674 ], [ 17.85314951019129, 45.777268184035549 ], [ 17.8531205, 45.7771591 ], [ 17.852597, 45.7763912 ], [ 17.8531455, 45.7760128 ], [ 17.8531538, 45.7756348 ], [ 17.8542762, 45.7741221 ], [ 17.8548418, 45.7733658 ], [ 17.8554149, 45.7718534 ], [ 17.85598, 45.7707128 ], [ 17.8565455, 45.7699564 ], [ 17.8570938, 45.7695842 ], [ 17.8592966, 45.7684672 ], [ 17.8620311, 45.7677339 ], [ 17.8636773, 45.7673671 ], [ 17.8653145, 45.7670064 ], [ 17.8669435, 45.7670236 ], [ 17.868016, 45.7677973 ], [ 17.8690968, 45.7681868 ], [ 17.8690886, 45.7685709 ], [ 17.8696041, 45.7697168 ], [ 17.8701121, 45.771625 ], [ 17.8711438, 45.774301 ], [ 17.8716593, 45.775453 ], [ 17.8721921, 45.7762148 ], [ 17.873256, 45.7769883 ], [ 17.8759343, 45.7793035 ], [ 17.880663350376633, 45.781792002390191 ], [ 17.8818467, 45.7824147 ], [ 17.884542, 45.7839613 ], [ 17.8861553, 45.7847405 ], [ 17.8877687, 45.7855196 ], [ 17.8910044, 45.7870778 ], [ 17.8969274, 45.7901822 ], [ 17.8985411, 45.7909611 ], [ 17.900704, 45.7917457 ], [ 17.902098, 45.7920067 ], [ 17.9028749, 45.7921522 ], [ 17.9045046, 45.7921689 ], [ 17.9066757, 45.7925692 ], [ 17.9105081, 45.7914678 ], [ 17.9119715, 45.7909299 ], [ 17.9159938, 45.7892364 ], [ 17.9176313, 45.7888749 ], [ 17.9220202, 45.7873945 ], [ 17.9247549, 45.7866597 ], [ 17.9258521, 45.7862864 ], [ 17.9274817, 45.7863028 ], [ 17.9291201, 45.7863192 ], [ 17.9302095, 45.7863301 ], [ 17.9318312, 45.7867305 ], [ 17.9334608, 45.7867468 ], [ 17.9350916, 45.7871411 ], [ 17.9367058, 45.7879195 ], [ 17.938822106361002, 45.789065455496754 ], [ 17.947189779605427, 45.772744692302382 ], [ 17.938205534491935, 45.728149038425769 ], [ 17.990317288357101, 45.697696938081073 ], [ 18.003110914850193, 45.698693216696029 ], [ 18.030893555602031, 45.660533874593014 ], [ 18.053394822437241, 45.650844358138166 ], [ 18.065233520257774, 45.644768669831713 ], [ 18.064876259496327, 45.644118211164937 ], [ 18.000427802736656, 45.572501702897583 ], [ 18.003957208810572, 45.561038287725424 ], [ 18.002455139818736, 45.556824564583721 ], [ 18.000171943157536, 45.552815205033141 ], [ 17.960615609815513, 45.54267449067784 ], [ 17.959243643706788, 45.54067397847971 ], [ 17.957595232200521, 45.517456730043264 ], [ 17.951962583242057, 45.509872637311616 ], [ 17.942526040962367, 45.50810598824765 ], [ 17.916460948612499, 45.494186826379838 ], [ 17.900459060327751, 45.481195043867466 ], [ 17.898363642474337, 45.474398646555791 ], [ 17.88405049748156, 45.471882388729121 ], [ 17.835496579632991, 45.478086497774648 ], [ 17.823097620680485, 45.481534991979274 ], [ 17.807448337469982, 45.491694148292481 ], [ 17.794143340949464, 45.510309572045173 ], [ 17.776379336695278, 45.516192673139685 ], [ 17.772607334612694, 45.514258638090915 ], [ 17.709867711657953, 45.494912161900189 ], [ 17.704585015304918, 45.495354512307799 ], [ 17.700204724769073, 45.496029419717857 ], [ 17.659805076879831, 45.51561662314311 ], [ 17.635487972606594, 45.567132518737225 ], [ 17.618118390634596, 45.57953868387925 ], [ 17.492021631762082, 45.523450066765669 ], [ 17.450182248589616, 45.533670932655504 ], [ 17.478723604122617, 45.615889075450582 ], [ 17.48312963343389, 45.627987084707513 ], [ 17.480548900690682, 45.65656759914075 ], [ 17.476471266658262, 45.66492470728776 ], [ 17.459787892460014, 45.680833431052797 ], [ 17.452521574376707, 45.725721836615776 ], [ 17.441806072473284, 45.735184756298722 ], [ 17.39189348352938, 45.68884301137129 ], [ 17.389625913650356, 45.688284517320739 ], [ 17.3763296089612, 45.696592799421651 ], [ 17.355655679476936, 45.730713241419465 ], [ 17.359514368509384, 45.754150597997395 ], [ 17.358654186024797, 45.756047530222745 ], [ 17.357900783376657, 45.757169742569467 ], [ 17.332080604492056, 45.783334685510525 ], [ 17.322536604494886, 45.78617468455429 ], [ 17.271485504133757, 45.800891147482844 ] ] ] } }
]
}
