{
"type": "FeatureCollection",
"name": "zupanija_21_meta",
"crs": { "type": "name", "properties": { "name": "urn:ogc:def:crs:EPSG::3765" } },
"features": [
{ "type": "Feature", "properties": { "name": "GRAD ZAGREB", "population": 280089, "latitude": 12828.060315327171, "longitude": 4479.7238342900382 }, "geometry": { "type": "Polygon", "coordinates": [ [ [ 15.929233778664003, 45.604213852688467 ], [ 15.920587990352653, 45.613370699202143 ], [ 15.894574073200902, 45.624575104154843 ], [ 15.891535995011349, 45.6448986033258 ], [ 15.850308646851783, 45.649595761986028 ], [ 15.848003113107682, 45.659370674122812 ], [ 15.842413359770877, 45.666091982784366 ], [ 15.811727559919541, 45.683460527660344 ], [ 15.805061933601566, 45.704492032128861 ], [ 15.827268223434579, 45.721272593892927 ], [ 15.846686896585664, 45.71300582982321 ], [ 15.866754467484434, 45.711049287726681 ], [ 15.873372027648552, 45.740907816854268 ], [ 15.872599778185402, 45.744762495636351 ], [ 15.862965114864998, 45.752306954761544 ], [ 15.853675107843413, 45.780362376702584 ], [ 15.852611419493746, 45.787489120838742 ], [ 15.836280235097959, 45.786566607785545 ], [ 15.831868117501644, 45.791193518369099 ], [ 15.818175065158798, 45.822117245628199 ], [ 15.817605975532079, 45.829126255187973 ], [ 15.824145949306725, 45.833391902428247 ], [ 15.832133184180565, 45.833602111757557 ], [ 15.854392318672355, 45.846571674110663 ], [ 15.856877775342367, 45.851865490233692 ], [ 15.870135046259172, 45.859991221962694 ], [ 15.887171889492233, 45.861757694158257 ], [ 15.898704764034692, 45.870264499434626 ], [ 15.898973399602616, 45.870687020897904 ], [ 15.902387007290695, 45.877448134265471 ], [ 15.904464209604949, 45.879627951988866 ], [ 15.913331063658521, 45.886924694750846 ], [ 15.938028052918959, 45.901008385958015 ], [ 15.938558706041791, 45.90100044733591 ], [ 15.950983286906007, 45.903204210495822 ], [ 15.969681287188386, 45.911348201449165 ], [ 15.972622503419021, 45.913514813523591 ], [ 15.9819451694327, 45.915736021515556 ], [ 15.982451373710859, 45.915965652493568 ], [ 15.992332155045265, 45.923497608399138 ], [ 15.992431648598295, 45.923536955508048 ], [ 16.000828002694906, 45.924496388511329 ], [ 16.035940295645421, 45.932456540288577 ], [ 16.041406508260671, 45.932453939399558 ], [ 16.047267799499281, 45.930287742937203 ], [ 16.05985700940256, 45.931361364030039 ], [ 16.070236204442732, 45.940434116155636 ], [ 16.092627317889171, 45.948609833877022 ], [ 16.106358826773793, 45.94608241773814 ], [ 16.112942542826989, 45.948970809022505 ], [ 16.124292602852773, 45.957502691557913 ], [ 16.133791481868755, 45.970694264098782 ], [ 16.141154798857915, 45.973525994002053 ], [ 16.158026125346176, 45.975214867805889 ], [ 16.164507731078295, 45.960602871375499 ], [ 16.164544091018616, 45.96024510819862 ], [ 16.160781413519935, 45.929811058745642 ], [ 16.166698225383943, 45.920757181631174 ], [ 16.174500888785875, 45.916453209628799 ], [ 16.179225111066074, 45.886224967443304 ], [ 16.178329222751767, 45.881088123955642 ], [ 16.18125874355367, 45.877009158426247 ], [ 16.189922386498743, 45.869832082984061 ], [ 16.193524143611057, 45.869976382759297 ], [ 16.200976526618422, 45.87153135052116 ], [ 16.212757750481309, 45.870225090275468 ], [ 16.227218262903065, 45.844603064457509 ], [ 16.216740112306073, 45.830660072647959 ], [ 16.214120114557581, 45.823914985342391 ], [ 16.213418800887272, 45.823297552133546 ], [ 16.20987658246408, 45.820957291855414 ], [ 16.20919164715664, 45.819818472495434 ], [ 16.206253841686113, 45.815878450864318 ], [ 16.201014377017799, 45.79092875097129 ], [ 16.185738550684345, 45.785490309169553 ], [ 16.172065636432226, 45.796168737902242 ], [ 16.160826384501988, 45.795997090070983 ], [ 16.144716186823473, 45.804979898370945 ], [ 16.131274897873233, 45.79874575233071 ], [ 16.127777078941026, 45.788651944034235 ], [ 16.096087204300396, 45.783749561411014 ], [ 16.093693605566852, 45.780888847933312 ], [ 16.084781485165955, 45.779624299073248 ], [ 16.078623113858683, 45.773215147214707 ], [ 16.07103799873703, 45.761658954838381 ], [ 16.039121082989599, 45.766430072121537 ], [ 16.037625290992271, 45.76498570816274 ], [ 16.035748376151712, 45.75600498603098 ], [ 16.033262031879669, 45.754535631877395 ], [ 16.02041521871713, 45.749509077192251 ], [ 16.019456058980161, 45.72509477281038 ], [ 16.01619438799063, 45.72458707623445 ], [ 16.01246554444997, 45.721661380272536 ], [ 15.999265423935292, 45.723921637550376 ], [ 15.985302800253558, 45.719060589485579 ], [ 15.971572301798586, 45.698032497673076 ], [ 15.971540319387403, 45.693739641643489 ], [ 15.959898197082673, 45.685090369884598 ], [ 15.95513166250386, 45.652930431378927 ], [ 15.935816622395073, 45.647011309971994 ], [ 15.934204893206902, 45.63986578079858 ], [ 15.940072432316912, 45.615966028143774 ], [ 15.929233778664003, 45.604213852688467 ] ] ] } }
]
}
