{
"type": "FeatureCollection",
"name": "zupanija_3_meta",
"crs": { "type": "name", "properties": { "name": "urn:ogc:def:crs:EPSG::3765" } },
"features": [
{ "type": "Feature", "properties": { "name": "SISAČKO-MOSLAVAČKA ŽUPANIJA", "population": 0.044406596636992077, "latitude": 13397.377297388828, "longitude": 4865.5168766565075 }, "geometry": { "type": "Polygon", "coordinates": [ [ [ 16.210431, 45.0307269 ], [ 16.2105207, 45.0313529 ], [ 16.2105526, 45.0315109 ], [ 16.2105655, 45.0315747 ], [ 16.2104119, 45.0318506 ], [ 16.2097635, 45.0322893 ], [ 16.209366, 45.0324536 ], [ 16.2090759, 45.0325735 ], [ 16.2083206, 45.0327151 ], [ 16.2066953, 45.0327207 ], [ 16.2060063, 45.0329082 ], [ 16.2055628, 45.0329923 ], [ 16.2050807, 45.0330121 ], [ 16.2039795, 45.0330117 ], [ 16.2015338, 45.0321552 ], [ 16.2012855, 45.0320682 ], [ 16.2009534, 45.0319447 ], [ 16.2004951, 45.0320801 ], [ 16.1997303, 45.0323859 ], [ 16.1990936, 45.0325515 ], [ 16.1982595, 45.0323412 ], [ 16.1970699, 45.0318979 ], [ 16.1963691, 45.0312719 ], [ 16.1957413, 45.0309391 ], [ 16.1950517, 45.0309866 ], [ 16.1942294, 45.0308057 ], [ 16.1936847, 45.0310391 ], [ 16.1931456, 45.0315826 ], [ 16.1925034, 45.031958 ], [ 16.1920133, 45.0323568 ], [ 16.1916486, 45.0329619 ], [ 16.1915059, 45.0335109 ], [ 16.1916961, 45.0340376 ], [ 16.1917263, 45.0346117 ], [ 16.1915318, 45.0357465 ], [ 16.191131, 45.036282 ], [ 16.1906712, 45.0367806 ], [ 16.1895667, 45.0376402 ], [ 16.189063465308863, 45.038279402879894 ], [ 16.1883779, 45.0391502 ], [ 16.188047, 45.0396602 ], [ 16.1878726, 45.0402596 ], [ 16.1879043, 45.0408254 ], [ 16.1881739, 45.0419962 ], [ 16.1882675, 45.0425606 ], [ 16.1880232, 45.0430717 ], [ 16.1874841, 45.0435591 ], [ 16.1865803, 45.044573 ], [ 16.1862711, 45.0451219 ], [ 16.1861046, 45.0456596 ], [ 16.1861307, 45.046259 ], [ 16.1856657, 45.0466919 ], [ 16.1851034, 45.047136 ], [ 16.1837662, 45.0478055 ], [ 16.1829908, 45.0480636 ], [ 16.1804077, 45.0493487 ], [ 16.1797742, 45.0497444 ], [ 16.1784246, 45.0504255 ], [ 16.1776717, 45.0507238 ], [ 16.1770474, 45.0510806 ], [ 16.1769005, 45.0512622 ], [ 16.1768362, 45.0516773 ], [ 16.1764412, 45.0519665 ], [ 16.1763313, 45.052047 ], [ 16.1759457, 45.0526308 ], [ 16.1758447, 45.0531756 ], [ 16.1757804, 45.0537788 ], [ 16.1758223, 45.0541316 ], [ 16.1759232, 45.0545003 ], [ 16.1760467, 45.0548814 ], [ 16.1761444, 45.0550341 ], [ 16.1763955, 45.0554262 ], [ 16.1769648, 45.0558607 ], [ 16.1771648, 45.0560949 ], [ 16.1772861, 45.0562369 ], [ 16.1771791, 45.0565565 ], [ 16.1771943, 45.0565871 ], [ 16.1767927, 45.0573658 ], [ 16.1758378, 45.0583516 ], [ 16.1754056, 45.0591427 ], [ 16.1750299, 45.0598303 ], [ 16.1747545, 45.0603556 ], [ 16.1746627, 45.0606669 ], [ 16.1746994, 45.0610819 ], [ 16.1748371, 45.0613672 ], [ 16.1752784, 45.0620014 ], [ 16.1753696, 45.0621325 ], [ 16.1754798, 45.0623594 ], [ 16.1753788, 45.0625345 ], [ 16.1746627, 45.0629366 ], [ 16.174121, 45.063196 ], [ 16.1738272, 45.06341 ], [ 16.1734416, 45.0637537 ], [ 16.1730743, 45.06424 ], [ 16.1728264, 45.0645319 ], [ 16.1723582, 45.0647588 ], [ 16.1721287, 45.0649145 ], [ 16.1717431, 45.0652581 ], [ 16.171183, 45.06555 ], [ 16.1701364, 45.0667107 ], [ 16.1704577, 45.0674369 ], [ 16.1708709, 45.0679297 ], [ 16.171408, 45.0684971 ], [ 16.1720552, 45.0694795 ], [ 16.1734048, 45.0701246 ], [ 16.1739287, 45.0703677 ], [ 16.1734921, 45.0710097 ], [ 16.1726933, 45.0720569 ], [ 16.1722251, 45.0725172 ], [ 16.1715457, 45.0727506 ], [ 16.1708809, 45.0728644 ], [ 16.1705755, 45.0729211 ], [ 16.1698974, 45.0730363 ], [ 16.168335, 45.0734434 ], [ 16.1667811, 45.0739486 ], [ 16.1661861, 45.0742732 ], [ 16.1655953, 45.0746996 ], [ 16.1650175, 45.0750984 ], [ 16.1645011, 45.0753247 ], [ 16.1640732, 45.0756025 ], [ 16.1637629, 45.0760132 ], [ 16.1632136, 45.0771639 ], [ 16.163108, 45.077362 ], [ 16.1629751, 45.0776002 ], [ 16.1625211, 45.0778211 ], [ 16.1602642, 45.078927 ], [ 16.1598187, 45.0792775 ], [ 16.1593243, 45.0797354 ], [ 16.1588179, 45.0802046 ], [ 16.1583497, 45.0806908 ], [ 16.1578172, 45.0810927 ], [ 16.1574796, 45.081344 ], [ 16.1566667, 45.0819332 ], [ 16.1566328, 45.0819744 ], [ 16.1555265, 45.0828055 ], [ 16.1548196, 45.0830745 ], [ 16.1543322, 45.0831231 ], [ 16.1531571, 45.0830887 ], [ 16.1523229, 45.0830773 ], [ 16.1515119, 45.0832129 ], [ 16.1507269, 45.0833361 ], [ 16.1498996, 45.0833879 ], [ 16.1490389, 45.0833928 ], [ 16.1486854, 45.0834074 ], [ 16.1482906, 45.0835257 ], [ 16.1475676, 45.0837671 ], [ 16.1467529, 45.0840233 ], [ 16.1461056, 45.0843863 ], [ 16.1455134, 45.084785 ], [ 16.1447927, 45.0850605 ], [ 16.1440766, 45.0853684 ], [ 16.1434293, 45.0857444 ], [ 16.1429014, 45.0861463 ], [ 16.1424056, 45.0866422 ], [ 16.1420751, 45.0871672 ], [ 16.14174, 45.0877409 ], [ 16.1412167, 45.0881428 ], [ 16.1405923, 45.0885382 ], [ 16.1400874, 45.088966 ], [ 16.1400045, 45.0890966 ], [ 16.1393983, 45.0899283 ], [ 16.1388409, 45.0903047 ], [ 16.1386232, 45.0908198 ], [ 16.1368724, 45.0901343 ], [ 16.1352615, 45.0890817 ], [ 16.1347077, 45.0886456 ], [ 16.1327635, 45.0872879 ], [ 16.1319358, 45.0867564 ], [ 16.1317028, 45.0866069 ], [ 16.1306128, 45.0870688 ], [ 16.1296814, 45.0874634 ], [ 16.1280212, 45.0886098 ], [ 16.1261672, 45.0905005 ], [ 16.1256461, 45.091279 ], [ 16.123986, 45.0923826 ], [ 16.1222741, 45.0927634 ], [ 16.121747, 45.09305 ], [ 16.1201221, 45.0934041 ], [ 16.1192802, 45.0934152 ], [ 16.1174141, 45.092611 ], [ 16.116481, 45.0926795 ], [ 16.1142385, 45.0932464 ], [ 16.1128425, 45.0927895 ], [ 16.1116428, 45.0924987 ], [ 16.1089163, 45.092704 ], [ 16.1078378, 45.0932686 ], [ 16.107019, 45.0940675 ], [ 16.1063312, 45.0947386 ], [ 16.1057001, 45.0953248 ], [ 16.1051591, 45.0958272 ], [ 16.1047401, 45.0963971 ], [ 16.1044488, 45.0970382 ], [ 16.1040461, 45.0972318 ], [ 16.1040289, 45.0977822 ], [ 16.1038834, 45.0978778 ], [ 16.1036664, 45.0980205 ], [ 16.1032835, 45.0982722 ], [ 16.1028, 45.0996169 ], [ 16.1024669, 45.099686 ], [ 16.1018493, 45.0998141 ], [ 16.1013974, 45.0999078 ], [ 16.0995322, 45.1009525 ], [ 16.0977285, 45.1014424 ], [ 16.0970654, 45.102262 ], [ 16.096641, 45.1024983 ], [ 16.0961739, 45.1030114 ], [ 16.0961098, 45.1030819 ], [ 16.0956681, 45.1039906 ], [ 16.0950032, 45.1039499 ], [ 16.0921903, 45.1038708 ], [ 16.0899516, 45.1043494 ], [ 16.0893184, 45.1049742 ], [ 16.088761, 45.1059749 ], [ 16.0877673, 45.1079248 ], [ 16.0865229, 45.1089666 ], [ 16.0844049, 45.1106074 ], [ 16.0848384, 45.1115689 ], [ 16.0844271, 45.1120648 ], [ 16.0850552, 45.1132482 ], [ 16.0853989, 45.1139091 ], [ 16.0856724, 45.1150577 ], [ 16.0855399, 45.1168664 ], [ 16.0854985, 45.1173886 ], [ 16.0847835, 45.1184575 ], [ 16.0851592, 45.1188423 ], [ 16.0849282, 45.1194924 ], [ 16.0848683, 45.1196717 ], [ 16.0862866, 45.1209503 ], [ 16.0852256, 45.1220651 ], [ 16.085884, 45.1242923 ], [ 16.0857851, 45.1256091 ], [ 16.0854525, 45.1262405 ], [ 16.0848184, 45.1268208 ], [ 16.0850583, 45.1274738 ], [ 16.0845837, 45.1281814 ], [ 16.0849674, 45.1287688 ], [ 16.0846899, 45.1307046 ], [ 16.0856801, 45.1314045 ], [ 16.0858132, 45.1318335 ], [ 16.084851, 45.1330142 ], [ 16.0838986, 45.1342708 ], [ 16.0836392, 45.1346131 ], [ 16.0826382, 45.1347977 ], [ 16.0818807, 45.1360988 ], [ 16.0819556, 45.1368687 ], [ 16.0819955, 45.1372787 ], [ 16.0818118, 45.1374641 ], [ 16.0812552, 45.1380256 ], [ 16.0811062, 45.1382204 ], [ 16.0804876, 45.1390292 ], [ 16.0799837, 45.1394318 ], [ 16.0796264, 45.1397173 ], [ 16.0794737, 45.1398393 ], [ 16.079096, 45.140376 ], [ 16.0780869, 45.1422387 ], [ 16.0771871, 45.1425629 ], [ 16.0767013, 45.1425651 ], [ 16.074942, 45.143568 ], [ 16.0740362, 45.1443983 ], [ 16.0733753, 45.1448273 ], [ 16.0724202, 45.1457129 ], [ 16.0723628, 45.1457249 ], [ 16.072252, 45.1457482 ], [ 16.0708154, 45.14605 ], [ 16.0706532, 45.1472412 ], [ 16.0702752, 45.1474586 ], [ 16.0698719, 45.147946 ], [ 16.0697887, 45.1480465 ], [ 16.0697938, 45.1482849 ], [ 16.0694612, 45.1486443 ], [ 16.0683199, 45.1497035 ], [ 16.0671768, 45.1508318 ], [ 16.0664859, 45.1511299 ], [ 16.0663379, 45.1511693 ], [ 16.0661271, 45.1512254 ], [ 16.0656771, 45.1513363 ], [ 16.0653555, 45.1514309 ], [ 16.0651137, 45.1519382 ], [ 16.0648915, 45.152416 ], [ 16.0647295, 45.1527994 ], [ 16.0644229, 45.152747 ], [ 16.0641112, 45.1534991 ], [ 16.0637875, 45.1533661 ], [ 16.0634166, 45.153785 ], [ 16.0631437, 45.1540931 ], [ 16.063026, 45.154226 ], [ 16.0628635, 45.1541831 ], [ 16.0625387, 45.1546063 ], [ 16.0623901, 45.1548001 ], [ 16.0617985, 45.1555167 ], [ 16.0613414, 45.1558314 ], [ 16.0605099, 45.1560455 ], [ 16.0598104, 45.1572924 ], [ 16.0594925, 45.1573654 ], [ 16.0577033, 45.1576404 ], [ 16.0566529, 45.1579612 ], [ 16.0531764, 45.1628726 ], [ 16.0510327, 45.1680113 ], [ 16.0516097, 45.1715831 ], [ 16.0471519, 45.1718849 ], [ 16.0464079, 45.1726939 ], [ 16.046462, 45.1738878 ], [ 16.0462698, 45.174989 ], [ 16.0462121, 45.1753195 ], [ 16.0468671, 45.1756492 ], [ 16.0473322, 45.1760584 ], [ 16.04769, 45.1762846 ], [ 16.0478879, 45.1764097 ], [ 16.0479458, 45.1768351 ], [ 16.0482173, 45.1770942 ], [ 16.0487049, 45.1786846 ], [ 16.0483208, 45.1785602 ], [ 16.0474636, 45.1791342 ], [ 16.0465114, 45.1791593 ], [ 16.0462031, 45.179604 ], [ 16.0457373, 45.179653 ], [ 16.0451499, 45.1796428 ], [ 16.0441173, 45.1794333 ], [ 16.0438861, 45.1794942 ], [ 16.0437067, 45.1796853 ], [ 16.0431286, 45.1803011 ], [ 16.0416052, 45.1801021 ], [ 16.0391215, 45.1797414 ], [ 16.0376076, 45.179907 ], [ 16.0365176, 45.1802692 ], [ 16.035535045584144, 45.180385962828424 ], [ 16.034875, 45.1804644 ], [ 16.032888, 45.1804833 ], [ 16.0300642, 45.1810542 ], [ 16.0275601, 45.1806746 ], [ 16.0224091, 45.1809158 ], [ 16.0212025, 45.1807038 ], [ 16.0204602, 45.1805733 ], [ 16.0200123, 45.1804946 ], [ 16.0177526, 45.1794969 ], [ 16.0175941, 45.1795002 ], [ 16.0168145, 45.1795229 ], [ 16.0156618, 45.1798926 ], [ 16.0155348, 45.1812188 ], [ 16.0154138, 45.1815904 ], [ 16.0146936, 45.1827959 ], [ 16.0146719, 45.1832773 ], [ 16.0152443, 45.1837834 ], [ 16.0160681, 45.1841435 ], [ 16.0165019, 45.1843776 ], [ 16.0168513, 45.1848471 ], [ 16.0174118, 45.1854316 ], [ 16.0181828, 45.1859164 ], [ 16.0190359, 45.1871467 ], [ 16.0200124, 45.1884932 ], [ 16.0216068, 45.1889836 ], [ 16.0221812, 45.1892498 ], [ 16.0232438, 45.1906148 ], [ 16.0238039, 45.1913344 ], [ 16.0251117, 45.1921087 ], [ 16.0253875, 45.1930878 ], [ 16.0256038, 45.1934015 ], [ 16.0258535, 45.1937634 ], [ 16.026323, 45.1944442 ], [ 16.0267769, 45.1957219 ], [ 16.0269995, 45.1962309 ], [ 16.0272952, 45.1969071 ], [ 16.0275171, 45.1974147 ], [ 16.027648, 45.1980044 ], [ 16.0296189, 45.1989812 ], [ 16.030045, 45.2000763 ], [ 16.0304063, 45.2010048 ], [ 16.0304493, 45.2011153 ], [ 16.0296644, 45.2011353 ], [ 16.0252194, 45.2012486 ], [ 16.0236269, 45.2012741 ], [ 16.022761, 45.2011001 ], [ 16.0222686, 45.2016112 ], [ 16.0217472, 45.2020338 ], [ 16.0207773, 45.2035695 ], [ 16.0207792, 45.203897 ], [ 16.0207698, 45.204302 ], [ 16.0202516, 45.2052383 ], [ 16.0200043, 45.2055947 ], [ 16.020135, 45.2058023 ], [ 16.0208755, 45.206978 ], [ 16.020545, 45.20874 ], [ 16.0195998, 45.2089531 ], [ 16.019404, 45.209681 ], [ 16.0183408, 45.2098934 ], [ 16.017601, 45.2100736 ], [ 16.016997, 45.2102207 ], [ 16.0171002, 45.2103285 ], [ 16.0174845, 45.2107296 ], [ 16.0170366, 45.211154 ], [ 16.0172318, 45.2118222 ], [ 16.0165489, 45.2136519 ], [ 16.0164887, 45.2138131 ], [ 16.0161205, 45.2147998 ], [ 16.0160037, 45.2151127 ], [ 16.0155941, 45.21621 ], [ 16.0154625, 45.2164667 ], [ 16.0150094, 45.2173503 ], [ 16.0148727, 45.2176169 ], [ 16.0148422, 45.2176764 ], [ 16.0146821, 45.2179885 ], [ 16.0141548, 45.2176883 ], [ 16.0137784, 45.2176719 ], [ 16.012921, 45.2176346 ], [ 16.0109281, 45.2188098 ], [ 16.0106814, 45.2188608 ], [ 16.0102747, 45.2187992 ], [ 16.0063528, 45.2169628 ], [ 16.0042998, 45.2173357 ], [ 16.002513, 45.218783 ], [ 16.0007062, 45.2204535 ], [ 16.0006332, 45.2207979 ], [ 16.0002706, 45.2218765 ], [ 15.998985, 45.2215879 ], [ 15.9979851, 45.2213635 ], [ 15.9963076, 45.2213307 ], [ 15.9949296, 45.2210061 ], [ 15.9945902, 45.2209262 ], [ 15.993838, 45.2211502 ], [ 15.9929527, 45.2224302 ], [ 15.9909402, 45.223127 ], [ 15.9885493, 45.2238579 ], [ 15.9862008, 45.2250621 ], [ 15.9848449, 45.2266146 ], [ 15.982285, 45.2285328 ], [ 15.9807677, 45.2289119 ], [ 15.9799056, 45.2297651 ], [ 15.9771795, 45.2301771 ], [ 15.9760472, 45.2293338 ], [ 15.9753584, 45.2294098 ], [ 15.9742462, 45.2289931 ], [ 15.9728265, 45.2288432 ], [ 15.9719983, 45.2279932 ], [ 15.9712884, 45.2277599 ], [ 15.9705076, 45.2269767 ], [ 15.9693369, 45.225744 ], [ 15.9695399, 45.2256243 ], [ 15.966813, 45.2235767 ], [ 15.9660124, 45.2218117 ], [ 15.9626256, 45.221106 ], [ 15.9572092, 45.2207767 ], [ 15.9549845, 45.2185752 ], [ 15.953963238340007, 45.217564601433679 ], [ 15.953963238340005, 45.217564601433679 ], [ 15.9536628, 45.2172673 ], [ 15.9476816, 45.2157022 ], [ 15.9463931, 45.2144097 ], [ 15.9445878, 45.2132912 ], [ 15.9422495, 45.2140551 ], [ 15.9403799, 45.2147214 ], [ 15.9363828, 45.213973 ], [ 15.935094, 45.2134878 ], [ 15.9341828, 45.2136008 ], [ 15.9308287, 45.212728 ], [ 15.929903, 45.2123526 ], [ 15.9291736, 45.2113678 ], [ 15.9289329, 45.2110286 ], [ 15.9277852, 45.2108605 ], [ 15.9269717, 45.2111372 ], [ 15.9267894, 45.2115522 ], [ 15.9273083, 45.2125897 ], [ 15.9273364, 45.2142891 ], [ 15.9268735, 45.2147535 ], [ 15.925485, 45.2145559 ], [ 15.9245874, 45.2140125 ], [ 15.9239141, 45.2126687 ], [ 15.9227079, 45.2116115 ], [ 15.9220728, 45.2117346 ], [ 15.9213597, 45.2120145 ], [ 15.9211267, 45.2124883 ], [ 15.9218804, 45.2141508 ], [ 15.9228239, 45.2152212 ], [ 15.9235354, 45.2162355 ], [ 15.9239279, 45.2173747 ], [ 15.9243239, 45.2178649 ], [ 15.9248265, 45.2183735 ], [ 15.9254708, 45.2186478 ], [ 15.926023, 45.2191515 ], [ 15.9262672, 45.2196588 ], [ 15.9263699, 45.2208222 ], [ 15.9263531, 45.2219877 ], [ 15.9263933, 45.2228617 ], [ 15.9264337, 45.2237394 ], [ 15.9263487, 45.2242929 ], [ 15.9257257, 45.2254049 ], [ 15.9246658, 45.2268971 ], [ 15.9240194, 45.2273197 ], [ 15.9232619, 45.2275541 ], [ 15.9221149, 45.228307 ], [ 15.9219023, 45.2284216 ], [ 15.9214211, 45.228681 ], [ 15.9211379, 45.2292195 ], [ 15.9209397, 45.229733 ], [ 15.9212795, 45.2302366 ], [ 15.9214371, 45.2306303 ], [ 15.9213078, 45.2307801 ], [ 15.9204975, 45.2307465 ], [ 15.9199842, 45.2309627 ], [ 15.9191448, 45.2311078 ], [ 15.9192816, 45.2309104 ], [ 15.9196665, 45.2306561 ], [ 15.9195609, 45.230464 ], [ 15.9175171, 45.230521 ], [ 15.9166385, 45.230592 ], [ 15.9162906, 45.2305884 ], [ 15.9160924, 45.2304956 ], [ 15.9159196, 45.2302479 ], [ 15.9158716, 45.2293517 ], [ 15.91593, 45.2290304 ], [ 15.9162773, 45.2286569 ], [ 15.9167356, 45.2284124 ], [ 15.9169968, 45.2284694 ], [ 15.9172845, 45.2285716 ], [ 15.917517, 45.2287036 ], [ 15.9184974, 45.2291047 ], [ 15.9187311, 45.2290881 ], [ 15.9192628, 45.228859 ], [ 15.9193008, 45.2286238 ], [ 15.9190943, 45.2283484 ], [ 15.9181527, 45.2279064 ], [ 15.9179109, 45.2277461 ], [ 15.9175721, 45.227222 ], [ 15.9173825, 45.2271406 ], [ 15.916685, 45.2265503 ], [ 15.9157896, 45.2262445 ], [ 15.9154798, 45.2260056 ], [ 15.9151277, 45.2253618 ], [ 15.9148214, 45.2252086 ], [ 15.9139032, 45.2249261 ], [ 15.9137431, 45.2247811 ], [ 15.9134329, 45.2247194 ], [ 15.9127381, 45.2249177 ], [ 15.9122681, 45.2250768 ], [ 15.9118707, 45.2259422 ], [ 15.9117868, 45.2260438 ], [ 15.9114125, 45.2261241 ], [ 15.9112356, 45.2260873 ], [ 15.910997, 45.2259524 ], [ 15.9109975, 45.2256552 ], [ 15.9116536, 45.225339 ], [ 15.9117639, 45.2248834 ], [ 15.911552, 45.2246631 ], [ 15.9106216, 45.2243983 ], [ 15.9102432, 45.2243412 ], [ 15.9093265, 45.2244422 ], [ 15.9090662, 45.2244956 ], [ 15.9088518, 45.2246353 ], [ 15.9087817, 45.2248229 ], [ 15.9088726, 45.22531 ], [ 15.9087444, 45.2255482 ], [ 15.9084509, 45.2256296 ], [ 15.9081201, 45.225602 ], [ 15.9077785, 45.2253913 ], [ 15.9076874, 45.2251842 ], [ 15.907476, 45.2249468 ], [ 15.9069261, 45.2249503 ], [ 15.9065939, 45.2252483 ], [ 15.9064892, 45.2257897 ], [ 15.9062786, 45.225798 ], [ 15.906071, 45.2257092 ], [ 15.9053907, 45.2257451 ], [ 15.9050285, 45.2259627 ], [ 15.9050796, 45.226152 ], [ 15.9050838, 45.2268379 ], [ 15.9049197, 45.2271956 ], [ 15.9045142, 45.2275154 ], [ 15.9032506, 45.2275827 ], [ 15.9027994, 45.2275246 ], [ 15.9021712, 45.2277098 ], [ 15.9012458, 45.2278277 ], [ 15.9006047, 45.2279041 ], [ 15.9001636, 45.2277776 ], [ 15.8998124, 45.2276182 ], [ 15.8990603, 45.2273386 ], [ 15.8984579, 45.2271984 ], [ 15.8977731, 45.227114 ], [ 15.8973191, 45.2268731 ], [ 15.8966189, 45.2267542 ], [ 15.8961964, 45.2268281 ], [ 15.8956798, 45.2278949 ], [ 15.8954114, 45.2287767 ], [ 15.8949379, 45.2291984 ], [ 15.8943934, 45.2292932 ], [ 15.8930024, 45.2292901 ], [ 15.8918174, 45.2291584 ], [ 15.8915908, 45.2288865 ], [ 15.8910681, 45.22741 ], [ 15.8911079, 45.2268791 ], [ 15.8907192, 45.226622 ], [ 15.8899275, 45.226599 ], [ 15.8890874, 45.2265637 ], [ 15.8885237, 45.2264811 ], [ 15.8880104, 45.2263364 ], [ 15.8874905, 45.226172 ], [ 15.8873264, 45.2261 ], [ 15.8873851, 45.225624 ], [ 15.8878905, 45.2249183 ], [ 15.8884752, 45.2241597 ], [ 15.889039, 45.2237851 ], [ 15.8905395, 45.2230472 ], [ 15.8920367, 45.2224697 ], [ 15.8930929, 45.2220418 ], [ 15.8936057, 45.2218567 ], [ 15.8941936, 45.2214815 ], [ 15.8942648, 45.2211542 ], [ 15.8943665, 45.2202256 ], [ 15.8943848, 45.2200249 ], [ 15.8946472, 45.2198608 ], [ 15.8949024, 45.219193 ], [ 15.894922, 45.2190325 ], [ 15.8948049, 45.2189141 ], [ 15.8940419, 45.2188511 ], [ 15.8934971, 45.2187791 ], [ 15.8932897, 45.2186105 ], [ 15.8933567, 45.2184149 ], [ 15.8938148, 45.2182992 ], [ 15.8940545, 45.2181926 ], [ 15.8941548, 45.2180252 ], [ 15.8940945, 45.217637 ], [ 15.8938933, 45.2171363 ], [ 15.8939316, 45.2169092 ], [ 15.8939621, 45.2167289 ], [ 15.8937722, 45.2166115 ], [ 15.8929615, 45.2168469 ], [ 15.8926378, 45.2168574 ], [ 15.8925921, 45.2168689 ], [ 15.8923857, 45.216921 ], [ 15.8923485, 45.2169304 ], [ 15.8922716, 45.2169858 ], [ 15.8916748, 45.2174156 ], [ 15.8914446, 45.2175735 ], [ 15.891226, 45.2175711 ], [ 15.8909465, 45.2174321 ], [ 15.8905127, 45.2167959 ], [ 15.8902435, 45.216401 ], [ 15.8898965, 45.2161715 ], [ 15.8895443, 45.2160394 ], [ 15.8892533, 45.2160553 ], [ 15.889055, 45.2164645 ], [ 15.8890479, 45.2167602 ], [ 15.8890333, 45.2173635 ], [ 15.8893051, 45.2177886 ], [ 15.8895897, 45.2180993 ], [ 15.8899316, 45.2184261 ], [ 15.8900169, 45.2185735 ], [ 15.8899146, 45.2186724 ], [ 15.8895989, 45.2186771 ], [ 15.8893286, 45.2185725 ], [ 15.8889573, 45.218618 ], [ 15.8884766, 45.2190602 ], [ 15.8882772, 45.2191604 ], [ 15.8878036, 45.2192992 ], [ 15.8874446, 45.219482 ], [ 15.8867761, 45.2198754 ], [ 15.8860993, 45.2199885 ], [ 15.8857057, 45.2195594 ], [ 15.8855277, 45.219562 ], [ 15.8851062, 45.2198202 ], [ 15.884888, 45.2198349 ], [ 15.8845375, 45.21976 ], [ 15.8840426, 45.2194583 ], [ 15.8837105, 45.2191828 ], [ 15.8837573, 45.2183064 ], [ 15.8835908, 45.2181543 ], [ 15.8833581, 45.2181976 ], [ 15.8827594, 45.218317 ], [ 15.882307, 45.2182649 ], [ 15.8819188, 45.2183101 ], [ 15.8812716, 45.2184749 ], [ 15.880972, 45.2186632 ], [ 15.8808015, 45.2189087 ], [ 15.8808087, 45.2192629 ], [ 15.8810258, 45.2197375 ], [ 15.8813, 45.2199378 ], [ 15.8814206, 45.2202693 ], [ 15.8810638, 45.2206174 ], [ 15.8807726, 45.2206743 ], [ 15.8803442, 45.2206622 ], [ 15.8798593, 45.2205701 ], [ 15.8789786, 45.2203576 ], [ 15.8788819, 45.2202146 ], [ 15.8796109, 45.2197241 ], [ 15.8798633, 45.2190446 ], [ 15.8797182, 45.2188444 ], [ 15.8792332, 45.2188152 ], [ 15.878504, 45.2194198 ], [ 15.8778488, 45.2195961 ], [ 15.8772264, 45.2195154 ], [ 15.8769681, 45.2193322 ], [ 15.8767182, 45.2190518 ], [ 15.8766058, 45.2187661 ], [ 15.8765181, 45.2183144 ], [ 15.8760496, 45.2181539 ], [ 15.8756048, 45.2182275 ], [ 15.8752322, 45.2184556 ], [ 15.8749485, 45.2187752 ], [ 15.875181, 45.2195126 ], [ 15.8752036, 45.2201125 ], [ 15.8750011, 45.2202209 ], [ 15.8744354, 45.2201402 ], [ 15.8741528, 45.2200083 ], [ 15.8737089, 45.2197392 ], [ 15.8733449, 45.2197615 ], [ 15.872949, 45.2196467 ], [ 15.8726905, 45.2196063 ], [ 15.8722472, 45.2197581 ], [ 15.8720594, 45.2198226 ], [ 15.8720185, 45.2199712 ], [ 15.8721476, 45.2200399 ], [ 15.8724465, 45.2201431 ], [ 15.8726077, 45.2203263 ], [ 15.8724453, 45.2205888 ], [ 15.8721538, 45.220737 ], [ 15.8718142, 45.220765 ], [ 15.8714505, 45.2207075 ], [ 15.870651, 45.2203749 ], [ 15.8701496, 45.2203188 ], [ 15.8690991, 45.2202014 ], [ 15.8678872, 45.2199197 ], [ 15.8676286, 45.2199021 ], [ 15.8674047, 45.2199829 ], [ 15.867266, 45.220033 ], [ 15.8670296, 45.2201185 ], [ 15.8665447, 45.2201006 ], [ 15.8657776, 45.219768 ], [ 15.8647676, 45.2195152 ], [ 15.862514, 45.2187863 ], [ 15.8615611, 45.2184135 ], [ 15.860866821029784, 45.218128041934619 ], [ 15.859846809315268, 45.233465953448345 ], [ 15.802564783828585, 45.289051563507016 ], [ 15.78444121508582, 45.291671038903637 ], [ 15.780831420665709, 45.294930275603484 ], [ 15.78061076122785, 45.295604900393656 ], [ 15.780341175327676, 45.295981740655357 ], [ 15.737272277634796, 45.387669944656729 ], [ 15.741611102240062, 45.41039214832454 ], [ 15.741797919689411, 45.410529048495377 ], [ 15.812925610260946, 45.381640869524887 ], [ 15.843950996292453, 45.393324959814414 ], [ 15.866875411233762, 45.417862385178601 ], [ 15.829803124740172, 45.461899681394598 ], [ 15.832675925114527, 45.484178570899978 ], [ 15.876265764910247, 45.506681590334338 ], [ 15.896419888664708, 45.507312025423545 ], [ 15.91249658345585, 45.490550005147469 ], [ 15.90765590134281, 45.442294635236784 ], [ 15.956249855242692, 45.436727559047249 ], [ 15.967793487624119, 45.468117003277762 ], [ 16.00442744513348, 45.470863676070948 ], [ 16.009771652277902, 45.488526323482567 ], [ 16.026585167768445, 45.501828504351863 ], [ 16.057006148945526, 45.475745233667659 ], [ 16.096519103165807, 45.494645524551551 ], [ 16.101382661194997, 45.516819294329466 ], [ 16.097669030977027, 45.525514568649292 ], [ 16.101940507885214, 45.55830641197312 ], [ 16.093148851255336, 45.568243000681541 ], [ 16.089881592270451, 45.609518508272089 ], [ 16.092311248491981, 45.617954803767681 ], [ 16.094592223304261, 45.620983059368918 ], [ 16.105552187821466, 45.61811632928692 ], [ 16.121856945350693, 45.605031086836213 ], [ 16.141486758260047, 45.629523186962494 ], [ 16.158906468356726, 45.629588259863105 ], [ 16.161919811446381, 45.631652565689464 ], [ 16.194111541679408, 45.649280604254159 ], [ 16.204582929722314, 45.643287260720662 ], [ 16.209867047546808, 45.638065478033745 ], [ 16.213263847822926, 45.636917434027303 ], [ 16.247963560132725, 45.611685016609478 ], [ 16.251818455034741, 45.607109146590616 ], [ 16.266083292131007, 45.583167531496123 ], [ 16.26960326568852, 45.581070258095195 ], [ 16.293349303279779, 45.577219133630869 ], [ 16.297938600894753, 45.583869989490019 ], [ 16.306420224254712, 45.611486666734883 ], [ 16.301620016422927, 45.632517369237135 ], [ 16.313246128246657, 45.65473349999187 ], [ 16.321492624685082, 45.659222508677502 ], [ 16.322593470711166, 45.656266077642073 ], [ 16.364091818752225, 45.63076302604297 ], [ 16.370873290658189, 45.633290787750312 ], [ 16.407521682912975, 45.620340286126599 ], [ 16.40988826763461, 45.620050617516135 ], [ 16.415053521296642, 45.6197071909519 ], [ 16.421598163488209, 45.621742437837618 ], [ 16.459037893038943, 45.59229748199408 ], [ 16.489900291079628, 45.614753381981103 ], [ 16.544856508268445, 45.595177844569513 ], [ 16.546720815545878, 45.611541162741183 ], [ 16.564391901427154, 45.629609406429914 ], [ 16.575149056366122, 45.628958569369424 ], [ 16.584104629850906, 45.635675897434162 ], [ 16.583026414510385, 45.64700302449662 ], [ 16.59824079384876, 45.66148897139422 ], [ 16.597630780378708, 45.672725602455124 ], [ 16.599663396296524, 45.673665483972691 ], [ 16.646178287178309, 45.672021632872195 ], [ 16.66616446640624, 45.679688025296443 ], [ 16.679625048875469, 45.669739756269436 ], [ 16.684595990125288, 45.668475140539385 ], [ 16.712181952025539, 45.657176866705342 ], [ 16.716647766895626, 45.652156639027162 ], [ 16.725003078259899, 45.646402183544673 ], [ 16.737110109514816, 45.616653571138414 ], [ 16.76743360767756, 45.609603434257089 ], [ 16.807565288195143, 45.611966472407133 ], [ 16.813257065839849, 45.610809476809543 ], [ 16.821779511118244, 45.601906890201491 ], [ 16.820878416064954, 45.584323648901652 ], [ 16.829996806703271, 45.565678718139146 ], [ 16.85302406203532, 45.55936170892609 ], [ 16.858042760975465, 45.518363039852034 ], [ 16.856939045129195, 45.515919069362276 ], [ 16.886987364653017, 45.491537184564351 ], [ 16.897528890254478, 45.491321535245696 ], [ 16.911562207649766, 45.484680617919814 ], [ 16.929382028799516, 45.491291794495069 ], [ 16.954353024939024, 45.473014913498233 ], [ 16.959694109694528, 45.447802378850326 ], [ 16.975738117819976, 45.42972831562777 ], [ 16.984124974819263, 45.428970629428868 ], [ 17.005391873033179, 45.400597554089885 ], [ 17.057834607487415, 45.42981990687494 ], [ 17.061884195390473, 45.429974645245196 ], [ 17.069013180040031, 45.421378623756773 ], [ 17.069261749586641, 45.420487157009234 ], [ 17.089538674611568, 45.3663829379405 ], [ 17.105069456418086, 45.362567170075337 ], [ 17.10748773960464, 45.360055521385767 ], [ 17.142296720652482, 45.33914844070469 ], [ 17.15809571356731, 45.337252076135421 ], [ 17.176760400424943, 45.306194096820356 ], [ 17.176746513271404, 45.297934064970619 ], [ 17.154959791844956, 45.262631992057784 ], [ 17.102896255693178, 45.235773117113609 ], [ 17.093526195339365, 45.226516309247337 ], [ 17.093549365292578, 45.197311420803409 ], [ 17.091365421986573, 45.18219855489307 ], [ 17.0913264, 45.1822158 ], [ 17.0898912, 45.1829017 ], [ 17.0882648, 45.1835735 ], [ 17.0853138, 45.1846537 ], [ 17.0837998, 45.1851044 ], [ 17.0819006, 45.1859716 ], [ 17.0794412, 45.1869992 ], [ 17.0775559, 45.1878098 ], [ 17.0757896, 45.1886074 ], [ 17.0743114, 45.1891924 ], [ 17.0724408, 45.1899634 ], [ 17.0703842, 45.1909059 ], [ 17.0687622, 45.1920051 ], [ 17.0683515, 45.1931647 ], [ 17.0678787, 45.1943816 ], [ 17.067415, 45.1951032 ], [ 17.06662, 45.1961898 ], [ 17.0656162, 45.1974766 ], [ 17.0649645, 45.1980378 ], [ 17.0643002, 45.1984473 ], [ 17.0635865, 45.1987956 ], [ 17.0616955, 45.1991672 ], [ 17.0598335, 45.1994426 ], [ 17.0581925, 45.1996584 ], [ 17.0567227, 45.1997479 ], [ 17.0555558, 45.1998442 ], [ 17.0544527, 45.1999507 ], [ 17.0536362, 45.2000641 ], [ 17.0526884, 45.2003033 ], [ 17.0519198, 45.2006862 ], [ 17.0505591, 45.2017698 ], [ 17.0491302, 45.2029615 ], [ 17.0482731, 45.2035819 ], [ 17.0474452, 45.2041118 ], [ 17.046339, 45.204916 ], [ 17.0455478, 45.2056142 ], [ 17.0439398, 45.2069548 ], [ 17.043152, 45.2080298 ], [ 17.0427943, 45.2085866 ], [ 17.0424004, 45.2095321 ], [ 17.0421217, 45.2108698 ], [ 17.0419206, 45.2121444 ], [ 17.0415659, 45.2130723 ], [ 17.0409561, 45.2158666 ], [ 17.0406582, 45.2168276 ], [ 17.0396475, 45.2203368 ], [ 17.0391465, 45.2217058 ], [ 17.0390134, 45.2223211 ], [ 17.0391428, 45.222927 ], [ 17.0391532, 45.2235457 ], [ 17.0390561, 45.224031 ], [ 17.0384927, 45.2246358 ], [ 17.0378037, 45.2252986 ], [ 17.0369594, 45.2258288 ], [ 17.0364749, 45.2258697 ], [ 17.0359578, 45.2258829 ], [ 17.0352995, 45.2257013 ], [ 17.0346875, 45.2254684 ], [ 17.0342185, 45.2252221 ], [ 17.0335009, 45.2246475 ], [ 17.0326618, 45.2240072 ], [ 17.0320508, 45.2232678 ], [ 17.0316894, 45.2226204 ], [ 17.0313377, 45.2220292 ], [ 17.0309459, 45.2214328 ], [ 17.0303529, 45.2207607 ], [ 17.0296478, 45.2200677 ], [ 17.0278951, 45.2183998 ], [ 17.027452, 45.2179561 ], [ 17.0267818, 45.217364 ], [ 17.0258865, 45.2169664 ], [ 17.0251072, 45.2164544 ], [ 17.0236533, 45.2157386 ], [ 17.0226119, 45.2152475 ], [ 17.0218686, 45.2148757 ], [ 17.0210174, 45.214348 ], [ 17.0201037, 45.2138663 ], [ 17.0193805, 45.2136349 ], [ 17.0183666, 45.2132614 ], [ 17.0173744, 45.2131053 ], [ 17.0172398, 45.2128438 ], [ 17.016154, 45.2127625 ], [ 17.0145905, 45.2128809 ], [ 17.0133367, 45.2131268 ], [ 17.0118107, 45.2135902 ], [ 17.0105603, 45.2141767 ], [ 17.0095034, 45.2148494 ], [ 17.0085869, 45.215586 ], [ 17.008233, 45.2160318 ], [ 17.0079712, 45.2164846 ], [ 17.0077839, 45.2171008 ], [ 17.0076503, 45.2178863 ], [ 17.0076861, 45.2183137 ], [ 17.007797, 45.2187024 ], [ 17.008064, 45.2193078 ], [ 17.0092282, 45.2210881 ], [ 17.0102263, 45.2223405 ], [ 17.011218, 45.2234816 ], [ 17.0137106, 45.2275124 ], [ 17.0144857, 45.2286317 ], [ 17.0149648, 45.2291731 ], [ 17.0154724, 45.2296213 ], [ 17.016032, 45.2299738 ], [ 17.0166582, 45.2302728 ], [ 17.0187386, 45.2311496 ], [ 17.0196117, 45.2315414 ], [ 17.0206862, 45.2320168 ], [ 17.0215431, 45.2324791 ], [ 17.0219827, 45.2328137 ], [ 17.0223679, 45.2332011 ], [ 17.0226442, 45.2335987 ], [ 17.0228558, 45.2341477 ], [ 17.0229382, 45.2346507 ], [ 17.022917, 45.2351636 ], [ 17.0227469, 45.235523 ], [ 17.0224203, 45.235777 ], [ 17.0221142, 45.2359109 ], [ 17.0212935, 45.2361615 ], [ 17.0173991, 45.2368986 ], [ 17.0158875, 45.2371858 ], [ 17.013632, 45.237737 ], [ 17.0105493, 45.238688 ], [ 17.0101647, 45.2387565 ], [ 17.0097355, 45.2388003 ], [ 17.0089432, 45.2388172 ], [ 17.0081264, 45.2387368 ], [ 17.0075138, 45.2386052 ], [ 17.0072506, 45.2385079 ], [ 17.0069892, 45.2384701 ], [ 17.0067315, 45.2383909 ], [ 17.0061373, 45.2381683 ], [ 17.0054717, 45.2378694 ], [ 17.0048279, 45.2375038 ], [ 17.0041161, 45.236901 ], [ 17.0037481, 45.2364997 ], [ 17.0034308, 45.2360529 ], [ 17.0032474, 45.2355386 ], [ 17.0032419, 45.2351721 ], [ 17.0032787, 45.2349841 ], [ 17.0033398, 45.2346973 ], [ 17.0033851, 45.2345525 ], [ 17.0034308, 45.2344102 ], [ 17.0035236, 45.234159 ], [ 17.0036324, 45.233908 ], [ 17.0038932, 45.2334193 ], [ 17.0041646, 45.2329284 ], [ 17.0051972, 45.2309743 ], [ 17.005579, 45.2302502 ], [ 17.0059787, 45.2295178 ], [ 17.0061206, 45.2291302 ], [ 17.0062245, 45.2287341 ], [ 17.0062885, 45.2281967 ], [ 17.0063145, 45.2278323 ], [ 17.0063352, 45.2274898 ], [ 17.006311, 45.2271644 ], [ 17.0062476, 45.2268476 ], [ 17.0061364, 45.2265247 ], [ 17.0060175, 45.2262522 ], [ 17.0059098, 45.2260967 ], [ 17.0057956, 45.2259383 ], [ 17.0056451, 45.2257482 ], [ 17.0053838, 45.2254362 ], [ 17.0049494, 45.2249291 ], [ 17.0046068, 45.2245769 ], [ 17.0043524, 45.2243307 ], [ 17.0038783, 45.2239053 ], [ 17.0032917, 45.2234178 ], [ 17.0029231, 45.2231399 ], [ 17.0022413, 45.2226975 ], [ 17.0017516, 45.2223879 ], [ 17.0015029, 45.2222442 ], [ 17.0011217, 45.2220702 ], [ 17.0008137, 45.2219508 ], [ 17.0004088, 45.2218069 ], [ 17.0001008, 45.221707 ], [ 16.9995678, 45.2215632 ], [ 16.9991698, 45.2214632 ], [ 16.9989137, 45.2214144 ], [ 16.9985503, 45.2213681 ], [ 16.9982111, 45.2213413 ], [ 16.9978408, 45.2213242 ], [ 16.9974635, 45.2213072 ], [ 16.9970136, 45.2213121 ], [ 16.9965429, 45.2213291 ], [ 16.9961034, 45.2213852 ], [ 16.995567, 45.2214632 ], [ 16.9951205, 45.2215168 ], [ 16.9945425, 45.2215973 ], [ 16.9939715, 45.221685 ], [ 16.9933451, 45.2218069 ], [ 16.9928675, 45.2218874 ], [ 16.9922756, 45.2220288 ], [ 16.9918603, 45.2221555 ], [ 16.9910332, 45.2224285 ], [ 16.9904206, 45.2226041 ], [ 16.9898876, 45.2227796 ], [ 16.9892785, 45.2230063 ], [ 16.9888712, 45.2231772 ], [ 16.9874463, 45.2239884 ], [ 16.9858892, 45.2250902 ], [ 16.9850125, 45.2261422 ], [ 16.9840869, 45.2270899 ], [ 16.9833832, 45.2280741 ], [ 16.9824155, 45.2298768 ], [ 16.9821809, 45.2309438 ], [ 16.9823276, 45.2322284 ], [ 16.982814, 45.2335083 ], [ 16.9837643, 45.2355329 ], [ 16.9847027, 45.2376875 ], [ 16.9850399, 45.238858 ], [ 16.9850838, 45.240101 ], [ 16.9848199, 45.2413543 ], [ 16.9844241, 45.2426179 ], [ 16.9841459, 45.2434237 ], [ 16.9833657, 45.2446742 ], [ 16.9828584, 45.2452556 ], [ 16.9827154, 45.2452998 ], [ 16.982550282078716, 45.245514522493238 ], [ 16.9823336, 45.2457963 ], [ 16.9814301, 45.2465927 ], [ 16.9806038, 45.2472252 ], [ 16.9805223, 45.2472876 ], [ 16.9780936, 45.2489661 ], [ 16.9773204, 45.2494312 ], [ 16.9765963, 45.2498379 ], [ 16.9756896, 45.2502476 ], [ 16.9748377, 45.2506296 ], [ 16.9742763, 45.2508222 ], [ 16.9736882, 45.2509702 ], [ 16.9730542, 45.251146 ], [ 16.9724022, 45.2512762 ], [ 16.9716381, 45.2513732 ], [ 16.9711613, 45.251425 ], [ 16.9706359, 45.2514241 ], [ 16.9697911, 45.2513089 ], [ 16.969031, 45.2511288 ], [ 16.9682192, 45.250857 ], [ 16.9671952, 45.2504053 ], [ 16.9661812, 45.2498305 ], [ 16.9652264, 45.2491089 ], [ 16.9636737, 45.2476719 ], [ 16.9624959, 45.2463756 ], [ 16.9619602, 45.2456447 ], [ 16.9615252, 45.2450363 ], [ 16.9613858, 45.2447517 ], [ 16.9613355, 45.2444882 ], [ 16.961317, 45.244294 ], [ 16.9613204, 45.2441234 ], [ 16.9614036, 45.2437641 ], [ 16.9616316, 45.2430418 ], [ 16.9618873, 45.2425843 ], [ 16.9623757, 45.2422245 ], [ 16.9633635, 45.241666 ], [ 16.9643101, 45.2413758 ], [ 16.9662913, 45.24112 ], [ 16.9682175, 45.240975 ], [ 16.9693525, 45.2407427 ], [ 16.9703374, 45.2404221 ], [ 16.9713287, 45.2401116 ], [ 16.9722144, 45.2397612 ], [ 16.9730704, 45.2393456 ], [ 16.9738498, 45.2388452 ], [ 16.9745583, 45.2382275 ], [ 16.9758847, 45.2368588 ], [ 16.9769082, 45.2350789 ], [ 16.9772522, 45.2339542 ], [ 16.9774659, 45.23311 ], [ 16.9775505, 45.2324061 ], [ 16.9775158, 45.2316726 ], [ 16.977351, 45.2308508 ], [ 16.9771314, 45.2301261 ], [ 16.9767319, 45.2293539 ], [ 16.9760907, 45.2288086 ], [ 16.9750366, 45.2280821 ], [ 16.9732971, 45.2273248 ], [ 16.9724502, 45.2271312 ], [ 16.9715448, 45.2271312 ], [ 16.9708364, 45.2273087 ], [ 16.968631, 45.2280528 ], [ 16.9672689, 45.228731 ], [ 16.9650123, 45.230063 ], [ 16.9622769, 45.2314215 ], [ 16.9615518, 45.231706 ], [ 16.9604173, 45.2319999 ], [ 16.9588701, 45.2321882 ], [ 16.9570738, 45.2323202 ], [ 16.9552343, 45.2321882 ], [ 16.9542715, 45.2318937 ], [ 16.9532512, 45.2314469 ], [ 16.9516274, 45.2305026 ], [ 16.950421, 45.2299024 ], [ 16.9478751, 45.2285529 ], [ 16.9464211, 45.2281014 ], [ 16.9444162, 45.2276899 ], [ 16.9423724, 45.2272705 ], [ 16.9415315, 45.2272064 ], [ 16.9406634, 45.2271955 ], [ 16.9398017, 45.2272399 ], [ 16.9392016, 45.2272639 ], [ 16.9386587, 45.2274222 ], [ 16.938171, 45.22763 ], [ 16.9377825, 45.2278317 ], [ 16.9373763, 45.2281894 ], [ 16.9370519, 45.2286607 ], [ 16.9366687, 45.2295198 ], [ 16.936508, 45.2302081 ], [ 16.9363701, 45.2310219 ], [ 16.9363845, 45.231958 ], [ 16.9364634, 45.2333084 ], [ 16.9363494, 45.2343583 ], [ 16.9359407, 45.2363128 ], [ 16.9355725, 45.2379732 ], [ 16.9353276, 45.239697 ], [ 16.9352632, 45.2402776 ], [ 16.9353657, 45.2413921 ], [ 16.9354657, 45.2423253 ], [ 16.9356354, 45.2429297 ], [ 16.9363204, 45.2442759 ], [ 16.9367227, 45.2449285 ], [ 16.9370842, 45.24538 ], [ 16.9375439, 45.2459282 ], [ 16.9384445, 45.2466323 ], [ 16.9390236, 45.2470103 ], [ 16.9396865, 45.2473896 ], [ 16.9402117, 45.2476653 ], [ 16.9408103, 45.2479504 ], [ 16.9422812, 45.248509 ], [ 16.9468977, 45.2500018 ], [ 16.9491099, 45.2507232 ], [ 16.9503471, 45.2511492 ], [ 16.9512131, 45.2515362 ], [ 16.9520407, 45.2519947 ], [ 16.9524021, 45.2522283 ], [ 16.952757, 45.2524811 ], [ 16.9529284, 45.2526673 ], [ 16.953602, 45.2535232 ], [ 16.953761, 45.2537065 ], [ 16.9540275, 45.254119 ], [ 16.9541188, 45.2543222 ], [ 16.9542681, 45.2549135 ], [ 16.9542847, 45.2552034 ], [ 16.9542837, 45.2557065 ], [ 16.9542503, 45.256037 ], [ 16.9542013, 45.2562515 ], [ 16.9541458, 45.2564899 ], [ 16.954075, 45.2566921 ], [ 16.953873, 45.2571029 ], [ 16.9536344, 45.25748 ], [ 16.9534413, 45.2577206 ], [ 16.9532273, 45.2579655 ], [ 16.9528797, 45.2582834 ], [ 16.9523985, 45.2586344 ], [ 16.9512926, 45.2593696 ], [ 16.9508193, 45.2596483 ], [ 16.9502688, 45.2599559 ], [ 16.9498652, 45.2601451 ], [ 16.947961, 45.260914 ], [ 16.9462293, 45.2615421 ], [ 16.9447482, 45.2620959 ], [ 16.9435729, 45.2626283 ], [ 16.9429135, 45.2629549 ], [ 16.9425087, 45.2632144 ], [ 16.9411612, 45.2641999 ], [ 16.9408184, 45.2644919 ], [ 16.9406353, 45.264706 ], [ 16.9404875, 45.2649245 ], [ 16.9405815, 45.2652522 ], [ 16.940089, 45.2656808 ], [ 16.9396574, 45.2664881 ], [ 16.9395497, 45.2667508 ], [ 16.9394724, 45.2670546 ], [ 16.9393822, 45.2676144 ], [ 16.9393133, 45.2682432 ], [ 16.9393046, 45.2687418 ], [ 16.9393349, 45.2692064 ], [ 16.9393747, 45.2707006 ], [ 16.939392, 45.2711291 ], [ 16.9393861, 45.2715538 ], [ 16.9393522, 45.2720359 ], [ 16.939283, 45.2725071 ], [ 16.9391571, 45.2729767 ], [ 16.9389549, 45.2734207 ], [ 16.9388227, 45.2736153 ], [ 16.9385517, 45.2739459 ], [ 16.9381939, 45.274274 ], [ 16.9377792, 45.2745863 ], [ 16.937263, 45.2749066 ], [ 16.9366904, 45.2751845 ], [ 16.9359062, 45.2755176 ], [ 16.93484, 45.2758355 ], [ 16.9336914, 45.2761086 ], [ 16.932976085691251, 45.276224522943394 ], [ 16.9328812, 45.2762399 ], [ 16.932068, 45.276334 ], [ 16.9311175, 45.2764001 ], [ 16.9302361, 45.2764135 ], [ 16.9277564, 45.2762374 ], [ 16.9260174, 45.2760256 ], [ 16.924876, 45.2758203 ], [ 16.9237665, 45.2755736 ], [ 16.9229933, 45.2753214 ], [ 16.9217103, 45.2746784 ], [ 16.9209294, 45.2741824 ], [ 16.9204885, 45.2738442 ], [ 16.9200385, 45.2734598 ], [ 16.9192114, 45.2726513 ], [ 16.9184756, 45.2715195 ], [ 16.9180619, 45.270515 ], [ 16.9181203, 45.2701405 ], [ 16.9181242, 45.2694156 ], [ 16.9181955, 45.2686058 ], [ 16.9182118, 45.2682594 ], [ 16.9181829, 45.267921 ], [ 16.9181147, 45.2675523 ], [ 16.9180228, 45.2670998 ], [ 16.9178633, 45.2666235 ], [ 16.9175818, 45.26622 ], [ 16.9173362, 45.265965 ], [ 16.9169941, 45.265648 ], [ 16.9166159, 45.2653746 ], [ 16.9163416, 45.2652002 ], [ 16.9160419, 45.2650274 ], [ 16.9156998, 45.2648793 ], [ 16.9152652, 45.2646649 ], [ 16.915147688200783, 45.264587237635268 ], [ 16.9148382, 45.2643827 ], [ 16.9144019, 45.2640013 ], [ 16.9140704, 45.2636474 ], [ 16.9137963, 45.263285 ], [ 16.913475, 45.2626265 ], [ 16.913313, 45.262158 ], [ 16.9131774, 45.2613285 ], [ 16.913292, 45.2603886 ], [ 16.9134272, 45.2598653 ], [ 16.9136691, 45.259143 ], [ 16.9137555, 45.2584912 ], [ 16.9136687, 45.2576097 ], [ 16.9134705, 45.2568072 ], [ 16.9131335, 45.2560773 ], [ 16.9126348, 45.2552904 ], [ 16.9121967, 45.2546239 ], [ 16.9115473, 45.2540917 ], [ 16.9106424, 45.2535389 ], [ 16.9093521, 45.2530022 ], [ 16.9083308, 45.2524127 ], [ 16.9069401, 45.2516025 ], [ 16.9061433, 45.2512193 ], [ 16.9053434, 45.2509036 ], [ 16.9038873, 45.2505095 ], [ 16.9033181, 45.2503678 ], [ 16.9021214, 45.2502027 ], [ 16.9013951, 45.250152 ], [ 16.900358, 45.2501336 ], [ 16.8996873, 45.2501497 ], [ 16.8988596, 45.2502741 ], [ 16.8979893, 45.2504975 ], [ 16.8975084, 45.2506749 ], [ 16.8969751, 45.2509489 ], [ 16.8964811, 45.2512299 ], [ 16.8959119, 45.2516307 ], [ 16.8956501, 45.2519025 ], [ 16.8953557, 45.2522825 ], [ 16.8951496, 45.2526211 ], [ 16.8949762, 45.2530794 ], [ 16.894842, 45.2534939 ], [ 16.894613, 45.2542125 ], [ 16.8945116, 45.2546202 ], [ 16.8941812, 45.2553456 ], [ 16.8938835, 45.2557901 ], [ 16.8936872, 45.2560112 ], [ 16.8934745, 45.2562162 ], [ 16.8933011, 45.2564303 ], [ 16.8931801, 45.2566491 ], [ 16.8931441, 45.2567942 ], [ 16.8930917, 45.2569762 ], [ 16.8929478, 45.2571834 ], [ 16.8927155, 45.2574644 ], [ 16.892493, 45.2576901 ], [ 16.8922346, 45.2578835 ], [ 16.8919205, 45.2580516 ], [ 16.891469, 45.2581967 ], [ 16.8910437, 45.2582658 ], [ 16.8905693, 45.2582796 ], [ 16.8901244, 45.2582359 ], [ 16.8896271, 45.2581898 ], [ 16.888715483559515, 45.258157626016285 ], [ 16.8881254, 45.2581368 ], [ 16.8876543, 45.2581737 ], [ 16.8870196, 45.2582198 ], [ 16.886362, 45.2582451 ], [ 16.8858353, 45.2582198 ], [ 16.8854721, 45.258176 ], [ 16.8849487, 45.2580701 ], [ 16.8844907, 45.2579342 ], [ 16.8839508, 45.2577039 ], [ 16.8834732, 45.257446 ], [ 16.8830806, 45.257218 ], [ 16.882832, 45.2570406 ], [ 16.8825375, 45.2567459 ], [ 16.882406, 45.2565169 ], [ 16.8822546, 45.2562182 ], [ 16.8821587, 45.2557054 ], [ 16.8822945, 45.2552376 ], [ 16.8827573, 45.2548826 ], [ 16.8833317, 45.254674 ], [ 16.883938, 45.2545162 ], [ 16.8846244, 45.2544317 ], [ 16.8853346, 45.2544091 ], [ 16.8858453, 45.2544768 ], [ 16.8864436, 45.2545386 ], [ 16.8870181, 45.2545274 ], [ 16.8877044, 45.2544598 ], [ 16.8885501, 45.2543414 ], [ 16.890505, 45.2537212 ], [ 16.891263, 45.2534 ], [ 16.891458815507761, 45.253280796460082 ], [ 16.891458815507765, 45.253280796460082 ], [ 16.8917816, 45.2530843 ], [ 16.8925474, 45.252436 ], [ 16.8935287, 45.2515342 ], [ 16.894087, 45.2510495 ], [ 16.8944062, 45.2505366 ], [ 16.8946134, 45.2498998 ], [ 16.8945906, 45.2490924 ], [ 16.894192, 45.2485095 ], [ 16.894159898055989, 45.248479073790918 ], [ 16.8936671, 45.248012 ], [ 16.892983, 45.2475323 ], [ 16.892187, 45.2470254 ], [ 16.8915208, 45.2466808 ], [ 16.8909118, 45.2464484 ], [ 16.8898559, 45.2461684 ], [ 16.8884344, 45.2459753 ], [ 16.8872869, 45.2459943 ], [ 16.8861876, 45.2460467 ], [ 16.8834507, 45.2464367 ], [ 16.882591, 45.2465157 ], [ 16.8816912, 45.246578 ], [ 16.8810131, 45.2465376 ], [ 16.8801354, 45.2464646 ], [ 16.8791768, 45.2463133 ], [ 16.8782894, 45.2461165 ], [ 16.8774333, 45.2458857 ], [ 16.8758934, 45.245164 ], [ 16.8749765, 45.244545 ], [ 16.8736261, 45.2436925 ], [ 16.8731743, 45.2432788 ], [ 16.8722611, 45.2423276 ], [ 16.871616, 45.2417631 ], [ 16.8714045, 45.2414436 ], [ 16.8712704, 45.240949 ], [ 16.8713687, 45.2405485 ], [ 16.8715958, 45.2402261 ], [ 16.8718163, 45.2400332 ], [ 16.8724605, 45.2399276 ], [ 16.8728687, 45.24006 ], [ 16.8734714, 45.2404333 ], [ 16.8740422, 45.2408011 ], [ 16.8744838, 45.2410573 ], [ 16.875237, 45.2413449 ], [ 16.8761315, 45.2414968 ], [ 16.8770273, 45.2417329 ], [ 16.8778207, 45.2420542 ], [ 16.8784975, 45.2426072 ], [ 16.8794252, 45.2428262 ], [ 16.8800162, 45.242918 ], [ 16.8804291, 45.2428139 ], [ 16.8808569, 45.242614 ], [ 16.8812918, 45.2423463 ], [ 16.8815412, 45.2419281 ], [ 16.8817493, 45.2414086 ], [ 16.8818246, 45.2410759 ], [ 16.8821006, 45.2408601 ], [ 16.8828154, 45.2406695 ], [ 16.8839348, 45.2403467 ], [ 16.8834509, 45.2393307 ], [ 16.8821706, 45.2371602 ], [ 16.8815851, 45.2362857 ], [ 16.8813041, 45.2355499 ], [ 16.8808466, 45.2347084 ], [ 16.8809573, 45.233452 ], [ 16.8814119, 45.2328802 ], [ 16.8821553, 45.2318674 ], [ 16.8825132, 45.2312231 ], [ 16.8828371, 45.23041 ], [ 16.883186, 45.2291014 ], [ 16.883375, 45.2283457 ], [ 16.8833988, 45.2277373 ], [ 16.8832555, 45.2271527 ], [ 16.8830914, 45.226799 ], [ 16.8829393, 45.2261525 ], [ 16.8822458, 45.2255435 ], [ 16.8816995, 45.2251979 ], [ 16.8812971, 45.2249136 ], [ 16.8810709, 45.2246785 ], [ 16.880352, 45.2245426 ], [ 16.8795389, 45.2245142 ], [ 16.8786561, 45.2246384 ], [ 16.8777756, 45.2249314 ], [ 16.8771193, 45.225313 ], [ 16.8764489, 45.2258299 ], [ 16.8759531, 45.2262949 ], [ 16.8757919, 45.2267521 ], [ 16.8757117, 45.22731 ], [ 16.8757904, 45.2278389 ], [ 16.8757642, 45.2288638 ], [ 16.8757579, 45.2295846 ], [ 16.875973, 45.2301912 ], [ 16.8762531, 45.2308764 ], [ 16.8765068, 45.231967 ], [ 16.8745395, 45.2320476 ], [ 16.8700032, 45.2323185 ], [ 16.8691277, 45.232352 ], [ 16.8679881, 45.2323641 ], [ 16.8672729, 45.2322582 ], [ 16.866888, 45.2322173 ], [ 16.8661532, 45.2321909 ], [ 16.8656864, 45.232107 ], [ 16.865611, 45.2320784 ], [ 16.8655207, 45.232075 ], [ 16.8653081, 45.2318492 ], [ 16.8651298, 45.231635 ], [ 16.8649384, 45.231385 ], [ 16.8648844, 45.2313274 ], [ 16.864801, 45.2312525 ], [ 16.8647552, 45.2312433 ], [ 16.8644525, 45.2313838 ], [ 16.8641401, 45.2311016 ], [ 16.8636674, 45.2306592 ], [ 16.8636314, 45.2305855 ], [ 16.8636297, 45.230559 ], [ 16.8632944, 45.230188 ], [ 16.8630785, 45.2298655 ], [ 16.862928, 45.229604 ], [ 16.8628151, 45.2293609 ], [ 16.8627578, 45.2291397 ], [ 16.8627219, 45.2288989 ], [ 16.862717, 45.2287952 ], [ 16.8627317, 45.2287284 ], [ 16.8627448, 45.2285694 ], [ 16.8629247, 45.228157 ], [ 16.8632061, 45.2278666 ], [ 16.8638015, 45.2275625 ], [ 16.8644724, 45.2272155 ], [ 16.8653399, 45.2268407 ], [ 16.8660293, 45.226435 ], [ 16.8662213, 45.2261906 ], [ 16.8663046, 45.2260733 ], [ 16.8663832, 45.2258941 ], [ 16.8663485, 45.2257865 ], [ 16.8662167, 45.2256855 ], [ 16.8662143, 45.2254118 ], [ 16.866256, 45.2252326 ], [ 16.8664434, 45.2250077 ], [ 16.8664619, 45.224778 ], [ 16.8665637, 45.2245238 ], [ 16.8666863, 45.2243103 ], [ 16.8668251, 45.2241164 ], [ 16.8670217, 45.2239225 ], [ 16.8670456, 45.2238997 ], [ 16.867334, 45.2236895 ], [ 16.8680789, 45.2233425 ], [ 16.868227, 45.2233425 ], [ 16.8684653, 45.2232903 ], [ 16.8687752, 45.2233457 ], [ 16.869807, 45.2237058 ], [ 16.8704339, 45.2238867 ], [ 16.8710331, 45.2240382 ], [ 16.8714541, 45.2241246 ], [ 16.871778, 45.2242109 ], [ 16.87228, 45.2242484 ], [ 16.8738207, 45.2244309 ], [ 16.8738161, 45.224514 ], [ 16.8746952, 45.2244472 ], [ 16.8751208, 45.224382 ], [ 16.8753961, 45.2243136 ], [ 16.8758403, 45.2241621 ], [ 16.8764233, 45.2239828 ], [ 16.8767194, 45.2239372 ], [ 16.8768096, 45.2240415 ], [ 16.8776748, 45.2238818 ], [ 16.878075, 45.2237466 ], [ 16.8784243, 45.2235787 ], [ 16.8788986, 45.2233685 ], [ 16.8793798, 45.2229938 ], [ 16.8794873, 45.2228488 ], [ 16.8796492, 45.2226224 ], [ 16.8797245, 45.2226405 ], [ 16.8798504, 45.2224815 ], [ 16.8798946, 45.2223041 ], [ 16.8799142, 45.2219204 ], [ 16.8798164, 45.2215146 ], [ 16.8797053, 45.2212669 ], [ 16.8796336, 45.2211838 ], [ 16.8796915, 45.221029 ], [ 16.8796776, 45.2208253 ], [ 16.8796475, 45.220708 ], [ 16.8796313, 45.2206151 ], [ 16.8795712, 45.2204293 ], [ 16.8796683, 45.2202794 ], [ 16.8793398, 45.219991 ], [ 16.8793861, 45.2199274 ], [ 16.8792797, 45.2198248 ], [ 16.8790206, 45.2196488 ], [ 16.878854, 45.2195755 ], [ 16.8785001, 45.2194565 ], [ 16.8781577, 45.2193213 ], [ 16.8777852, 45.2192496 ], [ 16.8778361, 45.2191876 ], [ 16.8774961, 45.2190638 ], [ 16.8772694, 45.2190507 ], [ 16.8770797, 45.2190589 ], [ 16.8769154, 45.2190752 ], [ 16.8767211, 45.2191795 ], [ 16.8765083, 45.2192186 ], [ 16.8763718, 45.2192316 ], [ 16.8762538, 45.2191762 ], [ 16.8762306, 45.2192512 ], [ 16.8757564, 45.21939 ], [ 16.8749282, 45.2196325 ], [ 16.8744632, 45.2197971 ], [ 16.8744193, 45.2199063 ], [ 16.8743499, 45.2200285 ], [ 16.8741579, 45.2201328 ], [ 16.873915, 45.2202077 ], [ 16.8736882, 45.2202533 ], [ 16.8734199, 45.2202142 ], [ 16.8731238, 45.220224 ], [ 16.8726657, 45.2202452 ], [ 16.8722239, 45.2202631 ], [ 16.8718722, 45.2202501 ], [ 16.8703292, 45.2204342 ], [ 16.8697555, 45.220488 ], [ 16.8693715, 45.2204554 ], [ 16.8682703, 45.2203283 ], [ 16.8678447, 45.2202599 ], [ 16.867456, 45.2199731 ], [ 16.8670049, 45.2198492 ], [ 16.866371, 45.2195657 ], [ 16.866216, 45.2196243 ], [ 16.8660495, 45.2196374 ], [ 16.8654087, 45.2194158 ], [ 16.8649483, 45.2193017 ], [ 16.8645967, 45.2190687 ], [ 16.8645435, 45.2189351 ], [ 16.8644093, 45.2187607 ], [ 16.8636783, 45.2181936 ], [ 16.8634307, 45.2179231 ], [ 16.8633128, 45.2176607 ], [ 16.8632827, 45.217475 ], [ 16.8632572, 45.2173723 ], [ 16.8632549, 45.217255 ], [ 16.8632457, 45.2171018 ], [ 16.8631994, 45.2169616 ], [ 16.8632827, 45.216727 ], [ 16.8632711, 45.2164239 ], [ 16.8632156, 45.2161224 ], [ 16.863167, 45.2160539 ], [ 16.8629912, 45.2157166 ], [ 16.862901, 45.2153956 ], [ 16.8628084, 45.2151707 ], [ 16.8627807, 45.2148708 ], [ 16.862709, 45.2145775 ], [ 16.8626836, 45.2139498 ], [ 16.8626719, 45.21366 ], [ 16.8624406, 45.2130293 ], [ 16.8623758, 45.2127457 ], [ 16.8622856, 45.2125762 ], [ 16.8619039, 45.2120775 ], [ 16.861705, 45.2118575 ], [ 16.8614829, 45.2117271 ], [ 16.861277, 45.211587 ], [ 16.8610341, 45.2114745 ], [ 16.860893, 45.2114191 ], [ 16.8607148, 45.2113849 ], [ 16.8606477, 45.2114126 ], [ 16.8603701, 45.2114175 ], [ 16.8600139, 45.2112529 ], [ 16.8596044, 45.2109774 ], [ 16.8595373, 45.2108764 ], [ 16.8591787, 45.2106303 ], [ 16.8589682, 45.2103712 ], [ 16.8580957, 45.2091565 ], [ 16.8578699, 45.2088545 ], [ 16.8576147, 45.2086125 ], [ 16.8571011, 45.2081976 ], [ 16.8562603, 45.2075292 ], [ 16.8558513, 45.2069599 ], [ 16.8556314, 45.2062633 ], [ 16.8556638, 45.2062682 ], [ 16.8555458, 45.2059764 ], [ 16.8550125, 45.2052608 ], [ 16.8549397, 45.2051631 ], [ 16.8547338, 45.2050539 ], [ 16.854278686060336, 45.204688611180011 ], [ 16.8542018, 45.2046269 ], [ 16.8537229, 45.2044883 ], [ 16.8532533, 45.2044606 ], [ 16.8529548, 45.2044802 ], [ 16.8520295, 45.2046334 ], [ 16.8515691, 45.2047214 ], [ 16.8512291, 45.2048616 ], [ 16.8510162, 45.2050751 ], [ 16.8506415, 45.2055347 ], [ 16.8504263, 45.2058379 ], [ 16.8503361, 45.2059504 ], [ 16.8502227, 45.2064035 ], [ 16.8500724, 45.2067669 ], [ 16.8500654, 45.2069935 ], [ 16.8500678, 45.2072331 ], [ 16.8501372, 45.2074205 ], [ 16.8501904, 45.2076927 ], [ 16.8502204, 45.2077286 ], [ 16.8503754, 45.2077726 ], [ 16.8505466, 45.2079062 ], [ 16.8507062, 45.2081817 ], [ 16.8507872, 45.2081263 ], [ 16.850935582907344, 45.208235254589169 ], [ 16.8511323, 45.2083797 ], [ 16.8515506, 45.2086869 ], [ 16.8517658, 45.208889 ], [ 16.8524413, 45.2093845 ], [ 16.8527143, 45.2095475 ], [ 16.8529178, 45.2095638 ], [ 16.8531075, 45.2096664 ], [ 16.8534661, 45.2099272 ], [ 16.8538154, 45.21017 ], [ 16.8541208, 45.2104064 ], [ 16.8544053, 45.2105547 ], [ 16.8546506, 45.2107845 ], [ 16.8549143, 45.211055 ], [ 16.8550276, 45.2111919 ], [ 16.8551641, 45.2113842 ], [ 16.8552613, 45.2115619 ], [ 16.8553076, 45.2117509 ], [ 16.8552775, 45.2120101 ], [ 16.8553029, 45.2121893 ], [ 16.8553353, 45.2124713 ], [ 16.8553307, 45.2127369 ], [ 16.8552937, 45.2128754 ], [ 16.855222, 45.2130319 ], [ 16.8550623, 45.2131932 ], [ 16.8549744, 45.2133399 ], [ 16.8549212, 45.2135094 ], [ 16.854942, 45.2136479 ], [ 16.8549976, 45.2138272 ], [ 16.8550785, 45.2140227 ], [ 16.8551317, 45.2141091 ], [ 16.8549791, 45.2141352 ], [ 16.8544007, 45.2142509 ], [ 16.854443, 45.2143 ], [ 16.8547223, 45.2146241 ], [ 16.8540329, 45.2148245 ], [ 16.8536651, 45.2149517 ], [ 16.8530266, 45.2152466 ], [ 16.8525731, 45.2154259 ], [ 16.8527119, 45.2155579 ], [ 16.8524968, 45.2157616 ], [ 16.8522886, 45.2160011 ], [ 16.8521452, 45.216156 ], [ 16.8519323, 45.2165536 ], [ 16.8518051, 45.2166237 ], [ 16.8514303, 45.2168942 ], [ 16.8515761, 45.217018 ], [ 16.8513679, 45.2170604 ], [ 16.8512059, 45.2171337 ], [ 16.8509121, 45.2172983 ], [ 16.850653, 45.2174271 ], [ 16.8502251, 45.21759 ], [ 16.8500831, 45.2176399 ], [ 16.8482726, 45.2182761 ], [ 16.8479209, 45.2184015 ], [ 16.8475971, 45.2185629 ], [ 16.8475313, 45.2185878 ], [ 16.847412, 45.2186329 ], [ 16.8472292, 45.2187226 ], [ 16.8470696, 45.2187763 ], [ 16.8464265, 45.2189654 ], [ 16.8460008, 45.2191006 ], [ 16.8455844, 45.2192261 ], [ 16.8452582, 45.2193385 ], [ 16.8448534, 45.219477 ], [ 16.8445272, 45.2196058 ], [ 16.8443058, 45.2196956 ], [ 16.844238, 45.2197231 ], [ 16.8439975, 45.2198258 ], [ 16.8437453, 45.2199333 ], [ 16.8434723, 45.2200588 ], [ 16.8433104, 45.2201468 ], [ 16.8432364, 45.2202022 ], [ 16.8431878, 45.2202673 ], [ 16.8431646, 45.2203342 ], [ 16.8431461, 45.2204368 ], [ 16.8431392, 45.2206291 ], [ 16.8430698, 45.221144 ], [ 16.8421691, 45.2210865 ], [ 16.841417, 45.2210731 ], [ 16.8400407, 45.220987 ], [ 16.839065994464846, 45.220827506665323 ], [ 16.839065994464843, 45.220827506665323 ], [ 16.8386895, 45.2207659 ], [ 16.8377288, 45.2204964 ], [ 16.8365088, 45.2200007 ], [ 16.835121, 45.2192355 ], [ 16.8344196, 45.2185564 ], [ 16.8339621, 45.2174571 ], [ 16.8338706, 45.2165948 ], [ 16.8339773, 45.215711 ], [ 16.8347398, 45.2149134 ], [ 16.8352737, 45.2142831 ], [ 16.8362496, 45.2134549 ], [ 16.8370416, 45.2126929 ], [ 16.8378766, 45.2121079 ], [ 16.8384654, 45.2118154 ], [ 16.8390232, 45.2116523 ], [ 16.8392782, 45.2112221 ], [ 16.8400957, 45.210358 ], [ 16.841164, 45.2088547 ], [ 16.8417113, 45.2082737 ], [ 16.84209, 45.2077691 ], [ 16.8429611, 45.2074474 ], [ 16.8435626, 45.207128 ], [ 16.8438032, 45.2067238 ], [ 16.8441456, 45.2062283 ], [ 16.8442196, 45.2058306 ], [ 16.8444602, 45.2052373 ], [ 16.8446083, 45.204481 ], [ 16.8445412, 45.2040051 ], [ 16.84462, 45.2035629 ], [ 16.844652, 45.2027792 ], [ 16.8447163, 45.2023232 ], [ 16.8443837, 45.2020182 ], [ 16.8441428, 45.2015639 ], [ 16.8439217, 45.2006641 ], [ 16.8436762, 45.1995194 ], [ 16.8439659, 45.1977296 ], [ 16.8440117, 45.195929 ], [ 16.8439049, 45.1950125 ], [ 16.8436609, 45.1941715 ], [ 16.8429137, 45.1932442 ], [ 16.8419529, 45.1923707 ], [ 16.840184, 45.1910983 ], [ 16.8383078, 45.1898802 ], [ 16.8347245, 45.1883054 ], [ 16.8308511, 45.1870329 ], [ 16.8266512, 45.1859792 ], [ 16.8229124, 45.1854049 ], [ 16.8191661, 45.184759 ], [ 16.8154231, 45.1844675 ], [ 16.8123082, 45.1847261 ], [ 16.8094033, 45.1852326 ], [ 16.8047383, 45.1861493 ], [ 16.804565111024189, 45.186182298521274 ], [ 16.8002672, 45.1870012 ], [ 16.7966909, 45.1878661 ], [ 16.7932012, 45.188723 ], [ 16.7891958, 45.1898275 ], [ 16.7853272, 45.190522 ], [ 16.780551, 45.1914737 ], [ 16.7785054, 45.1918813 ], [ 16.7749768, 45.192762 ], [ 16.774100129355936, 45.193102462790783 ], [ 16.7733103, 45.1934092 ], [ 16.7718608, 45.1941154 ], [ 16.7707712, 45.1948196 ], [ 16.7704365, 45.1949493 ], [ 16.7691691, 45.1957816 ], [ 16.7677407, 45.1966876 ], [ 16.7662785, 45.1975752 ], [ 16.7645635, 45.1983842 ], [ 16.763504, 45.1989123 ], [ 16.7624116, 45.1994086 ], [ 16.7600848, 45.2003566 ], [ 16.7569155, 45.2017161 ], [ 16.7562168, 45.2020225 ], [ 16.7551712, 45.2024365 ], [ 16.7548242, 45.2025898 ], [ 16.7546391, 45.2026126 ], [ 16.7543106, 45.202681 ], [ 16.7532788, 45.2029125 ], [ 16.7528809, 45.2029484 ], [ 16.7513865, 45.2032613 ], [ 16.7503602, 45.2034638 ], [ 16.7493526, 45.2033854 ], [ 16.7485085, 45.2034638 ], [ 16.7482795, 45.2034361 ], [ 16.7474419, 45.2035652 ], [ 16.7454659, 45.2039064 ], [ 16.7441049, 45.2041323 ], [ 16.7424102, 45.2043536 ], [ 16.7413175, 45.2045795 ], [ 16.7400777, 45.2048329 ], [ 16.7390771, 45.2049946 ], [ 16.7381998, 45.2052872 ], [ 16.738102, 45.2053335 ], [ 16.736872, 45.2059155 ], [ 16.7356566, 45.2064055 ], [ 16.7344112, 45.2069696 ], [ 16.7332062, 45.207322 ], [ 16.7324232, 45.207469 ], [ 16.7316824, 45.2074094 ], [ 16.7309351, 45.2072754 ], [ 16.7299327, 45.2069371 ], [ 16.7277739, 45.2060126 ], [ 16.7257154, 45.2055191 ], [ 16.725615, 45.2053266 ], [ 16.7246445, 45.2050234 ], [ 16.7236396, 45.2048295 ], [ 16.7225178, 45.204745 ], [ 16.7211513, 45.2048082 ], [ 16.7181936, 45.2047783 ], [ 16.7153, 45.2046005 ], [ 16.714246545298462, 45.2042822085631 ], [ 16.7127353, 45.2038256 ], [ 16.7101522, 45.2028093 ], [ 16.7046015, 45.1989696 ], [ 16.7023834, 45.1977225 ], [ 16.7014784, 45.1973687 ], [ 16.7002015, 45.1968696 ], [ 16.6973485, 45.1965442 ], [ 16.6943473, 45.1969124 ], [ 16.6882292, 45.1987439 ], [ 16.6838929, 45.2003581 ], [ 16.682726, 45.2007925 ], [ 16.6802102, 45.2015389 ], [ 16.6765938, 45.2018883 ], [ 16.6738534, 45.201523 ], [ 16.6711293, 45.2014995 ], [ 16.6685299, 45.2019677 ], [ 16.6658904, 45.2032441 ], [ 16.6647669, 45.2039361 ], [ 16.6617239, 45.2058105 ], [ 16.6586691, 45.207176 ], [ 16.6568047, 45.2075889 ], [ 16.6542279, 45.2077376 ], [ 16.6523123, 45.2075254 ], [ 16.6505153, 45.2073666 ], [ 16.648359, 45.2077794 ], [ 16.6450121, 45.2094149 ], [ 16.6422349, 45.2110115 ], [ 16.64183885063051, 45.21119915705426 ], [ 16.640216, 45.2119681 ], [ 16.6382393, 45.2131906 ], [ 16.6368234, 45.2138213 ], [ 16.6342749, 45.2142712 ], [ 16.6324074, 45.214256 ], [ 16.6304386, 45.2136369 ], [ 16.6295988, 45.2137292 ], [ 16.6293985, 45.2137564 ], [ 16.629177, 45.2138005 ], [ 16.6290288, 45.2138463 ], [ 16.628763, 45.2139401 ], [ 16.6283612, 45.2140546 ], [ 16.627818, 45.2142999 ], [ 16.6272456, 45.2146833 ], [ 16.6267753, 45.2150515 ], [ 16.6265805, 45.2152124 ], [ 16.6262136, 45.2155825 ], [ 16.625952, 45.2158555 ], [ 16.625522, 45.2163552 ], [ 16.6252774, 45.2166903 ], [ 16.6250839, 45.2170065 ], [ 16.6249254, 45.2175725 ], [ 16.6248447, 45.2177637 ], [ 16.6245814, 45.218129 ], [ 16.6242132, 45.2185909 ], [ 16.623845, 45.2190017 ], [ 16.6234822, 45.2193841 ], [ 16.6231597, 45.2196529 ], [ 16.6228023, 45.2200126 ], [ 16.6223723, 45.2205464 ], [ 16.6218617, 45.2211408 ], [ 16.6211952, 45.2216822 ], [ 16.6207706, 45.2220797 ], [ 16.6204696, 45.2223901 ], [ 16.6196849, 45.2229921 ], [ 16.6190399, 45.223488 ], [ 16.6185078, 45.2237719 ], [ 16.6179488, 45.2241126 ], [ 16.6167933, 45.2245518 ], [ 16.6157505, 45.2249114 ], [ 16.6141112, 45.2253922 ], [ 16.6130524, 45.2257556 ], [ 16.612101, 45.2261001 ], [ 16.6105585, 45.2267171 ], [ 16.6092255, 45.2273114 ], [ 16.6079409, 45.228008 ], [ 16.6070648, 45.2285531 ], [ 16.6050977, 45.2293934 ], [ 16.6028349, 45.2302602 ], [ 16.6014965, 45.2306085 ], [ 16.6005721, 45.2307712 ], [ 16.5996261, 45.2310211 ], [ 16.5984544, 45.2313239 ], [ 16.5978685, 45.231392 ], [ 16.5968634, 45.2313542 ], [ 16.5961163, 45.2312633 ], [ 16.5955036, 45.2310968 ], [ 16.59495, 45.2309264 ], [ 16.5939664, 45.230423 ], [ 16.5929129, 45.2296659 ], [ 16.5915854, 45.2286288 ], [ 16.5900643, 45.2274288 ], [ 16.588487874712023, 45.226505997218538 ], [ 16.5880579, 45.2262543 ], [ 16.5863947, 45.2255745 ], [ 16.5835501, 45.2248225 ], [ 16.5802875, 45.2240407 ], [ 16.5780872, 45.2236489 ], [ 16.5762755, 45.2235169 ], [ 16.5729866, 45.2233896 ], [ 16.569819506026832, 45.222621401559124 ], [ 16.5682578, 45.2222426 ], [ 16.5647265, 45.2221348 ], [ 16.5633682, 45.2217089 ], [ 16.5616029, 45.221233 ], [ 16.5609928, 45.2210685 ], [ 16.5592269, 45.2200086 ], [ 16.5565345, 45.2191939 ], [ 16.5544198, 45.2192683 ], [ 16.5503429, 45.2194516 ], [ 16.5468748, 45.219851 ], [ 16.5438691, 45.2207647 ], [ 16.5425682, 45.2216319 ], [ 16.5414599, 45.2221442 ], [ 16.5408055, 45.2226687 ], [ 16.5403141, 45.2234803 ], [ 16.539677951636421, 45.224133983569963 ], [ 16.5396103, 45.2242035 ], [ 16.5397193313892, 45.224257697921772 ], [ 16.5405367, 45.224664 ], [ 16.540136752770923, 45.22550567579021 ], [ 16.5399681, 45.2258606 ], [ 16.53924, 45.2261796 ], [ 16.5379285, 45.2265203 ], [ 16.5365633, 45.2267701 ], [ 16.535883920070443, 45.226888082376888 ], [ 16.53588392007044, 45.226888082376888 ], [ 16.5353863, 45.2269745 ], [ 16.5342307, 45.2270086 ], [ 16.5333169, 45.2269897 ], [ 16.5316776, 45.2268534 ], [ 16.5299577, 45.226649 ], [ 16.5279475, 45.2261266 ], [ 16.525416, 45.2252597 ], [ 16.5225243, 45.2243398 ], [ 16.52155782169919, 45.22404834912124 ], [ 16.5196519, 45.2234736 ], [ 16.5185899, 45.222534 ], [ 16.516741, 45.221633 ], [ 16.5163325, 45.2214815 ], [ 16.5158004, 45.2213528 ], [ 16.5150641, 45.2211294 ], [ 16.5138494, 45.2209326 ], [ 16.513027, 45.2205956 ], [ 16.5123552, 45.22027 ], [ 16.512081, 45.220077 ], [ 16.5115919, 45.2193955 ], [ 16.5110007, 45.2189487 ], [ 16.5102805, 45.2185588 ], [ 16.509571, 45.2183733 ], [ 16.5086573, 45.2182105 ], [ 16.508367, 45.2181272 ], [ 16.5079854, 45.2179644 ], [ 16.5074587, 45.2175857 ], [ 16.5072061, 45.2174494 ], [ 16.5064644, 45.2169345 ], [ 16.505986, 45.2164915 ], [ 16.5056743, 45.2162227 ], [ 16.5051368, 45.2158593 ], [ 16.5037017, 45.215049 ], [ 16.5032825, 45.2148597 ], [ 16.5025622, 45.2144735 ], [ 16.5017453, 45.2139131 ], [ 16.501498, 45.2136935 ], [ 16.5013851, 45.2135648 ], [ 16.5012454, 45.2134587 ], [ 16.501154, 45.2133603 ], [ 16.5009982, 45.2130612 ], [ 16.5003962, 45.2125916 ], [ 16.499676, 45.2121146 ], [ 16.4993105, 45.2120085 ], [ 16.4971796, 45.2117865 ], [ 16.4962683, 45.2117984 ], [ 16.4959028, 45.2121922 ], [ 16.4947539, 45.2112979 ], [ 16.4938684, 45.2105455 ], [ 16.493012, 45.2098062 ], [ 16.4921455, 45.2089761 ], [ 16.4914842, 45.2082264 ], [ 16.4912105, 45.2077926 ], [ 16.4910281, 45.2073963 ], [ 16.4907468, 45.2068983 ], [ 16.4905416, 45.2061967 ], [ 16.4902832, 45.2053184 ], [ 16.4901007, 45.2037546 ], [ 16.4900247, 45.2023567 ], [ 16.4900551, 45.2018372 ], [ 16.4898651, 45.2008624 ], [ 16.4897295, 45.2003481 ], [ 16.4894698, 45.1993628 ], [ 16.4891962, 45.1987897 ], [ 16.4889226, 45.1983772 ], [ 16.4881929, 45.1975899 ], [ 16.4879344, 45.1972096 ], [ 16.4865206, 45.195292 ], [ 16.4861862, 45.194601 ], [ 16.4860189, 45.1940332 ], [ 16.4858289, 45.1929726 ], [ 16.4856541, 45.1923833 ], [ 16.4851904, 45.191687 ], [ 16.4847039, 45.1910495 ], [ 16.4842479, 45.1904924 ], [ 16.4840578, 45.1903424 ], [ 16.4832977, 45.1900531 ], [ 16.4832132, 45.1898218 ], [ 16.482302, 45.189467 ], [ 16.4819067, 45.1892335 ], [ 16.4814658, 45.1888531 ], [ 16.4803333, 45.1880014 ], [ 16.4798012, 45.1876156 ], [ 16.4789043, 45.1871121 ], [ 16.4774828, 45.185596 ], [ 16.477310081099738, 45.185459337810272 ], [ 16.4751265, 45.1837316 ], [ 16.4746932, 45.1832762 ], [ 16.4743284, 45.1826225 ], [ 16.4739939, 45.1818564 ], [ 16.4736823, 45.1808813 ], [ 16.4735759, 45.1801526 ], [ 16.4738115, 45.1787595 ], [ 16.4744196, 45.1770503 ], [ 16.4749897, 45.1753892 ], [ 16.4754381, 45.1731601 ], [ 16.475429, 45.1729345 ], [ 16.4753188, 45.1724871 ], [ 16.4752558, 45.1723023 ], [ 16.475244, 45.1722277 ], [ 16.4752369, 45.1721473 ], [ 16.4752702, 45.1718933 ], [ 16.4753145, 45.1715286 ], [ 16.4752822, 45.171268 ], [ 16.4752394, 45.170986 ], [ 16.4751829, 45.1707475 ], [ 16.4751109, 45.1704953 ], [ 16.4757727, 45.1705336 ], [ 16.4760489, 45.1704556 ], [ 16.4764091, 45.1705242 ], [ 16.4764888, 45.1705207 ], [ 16.4768976, 45.1706144 ], [ 16.4770374, 45.1705194 ], [ 16.4770852, 45.1704786 ], [ 16.4774214, 45.1701133 ], [ 16.4777049, 45.1695084 ], [ 16.4778429, 45.1689457 ], [ 16.4778808, 45.1686717 ], [ 16.477927, 45.1684205 ], [ 16.4780294, 45.1681992 ], [ 16.4782914, 45.167785 ], [ 16.4784591, 45.1674957 ], [ 16.478674, 45.167276 ], [ 16.4787622, 45.1672217 ], [ 16.478857, 45.1671989 ], [ 16.4790467, 45.1670684 ], [ 16.4791297, 45.16699 ], [ 16.4793174, 45.1665351 ], [ 16.4794192, 45.1661925 ], [ 16.4795494, 45.1660014 ], [ 16.4795765, 45.1658402 ], [ 16.4795778, 45.1657495 ], [ 16.4795487, 45.165638 ], [ 16.4795209, 45.1655515 ], [ 16.4794515, 45.1654243 ], [ 16.479248, 45.1652645 ], [ 16.4791878, 45.165209 ], [ 16.4791601, 45.1651438 ], [ 16.4790567, 45.1649848 ], [ 16.4788987, 45.1648518 ], [ 16.478792, 45.1648384 ], [ 16.4785493, 45.1648714 ], [ 16.4783487, 45.1648679 ], [ 16.4782046, 45.164811 ], [ 16.4781491, 45.1647556 ], [ 16.4780473, 45.1646349 ], [ 16.47802, 45.1645486 ], [ 16.4780103, 45.1643837 ], [ 16.4781146, 45.1637989 ], [ 16.4780959, 45.1636171 ], [ 16.4781476, 45.1634485 ], [ 16.478198, 45.1632747 ], [ 16.4782624, 45.1629289 ], [ 16.4783226, 45.1627149 ], [ 16.4784167, 45.1624594 ], [ 16.4784637, 45.16172 ], [ 16.4784961, 45.1617005 ], [ 16.4785401, 45.1616662 ], [ 16.478591, 45.1616156 ], [ 16.4786673, 45.1615488 ], [ 16.4787043, 45.1614802 ], [ 16.4787144, 45.1613255 ], [ 16.4786141, 45.160849 ], [ 16.478621, 45.1608066 ], [ 16.4786025, 45.1607315 ], [ 16.4785308, 45.160632 ], [ 16.4784707, 45.1605896 ], [ 16.4782116, 45.1604428 ], [ 16.4781746, 45.1602079 ], [ 16.4780213, 45.1601296 ], [ 16.4778553, 45.1599746 ], [ 16.4773487, 45.1597822 ], [ 16.4771753, 45.159711 ], [ 16.4769462, 45.1595913 ], [ 16.4765628, 45.1593994 ], [ 16.4763729, 45.1593657 ], [ 16.4761663, 45.1593095 ], [ 16.475826, 45.1592726 ], [ 16.4754614, 45.1590436 ], [ 16.4753058, 45.1589289 ], [ 16.4752464, 45.1588038 ], [ 16.4750981, 45.1586566 ], [ 16.4743161, 45.1590396 ], [ 16.4734248, 45.1592591 ], [ 16.4716643, 45.1568605 ], [ 16.4715706, 45.1565878 ], [ 16.4707949, 45.1558009 ], [ 16.4716422, 45.155527 ], [ 16.4718854, 45.1554229 ], [ 16.4719757, 45.1552761 ], [ 16.4720451, 45.155188 ], [ 16.4720751, 45.1551651 ], [ 16.4720451, 45.1551505 ], [ 16.4719988, 45.1550558 ], [ 16.4719757, 45.1549808 ], [ 16.4719155, 45.154878 ], [ 16.4718669, 45.1547247 ], [ 16.4716945, 45.154383 ], [ 16.4712018, 45.153479 ], [ 16.4713326, 45.1534375 ], [ 16.4710017, 45.1529611 ], [ 16.4707505, 45.1526354 ], [ 16.4704789, 45.152227 ], [ 16.4701967, 45.1518387 ], [ 16.4696283, 45.1510503 ], [ 16.4694795, 45.15108 ], [ 16.4694841, 45.1507796 ], [ 16.4695093, 45.15061 ], [ 16.4693617, 45.1504475 ], [ 16.4692943, 45.1504081 ], [ 16.4692644, 45.1504013 ], [ 16.4691323, 45.1503596 ], [ 16.4689834, 45.1503178 ], [ 16.468689, 45.1502806 ], [ 16.467541, 45.1505384 ], [ 16.4668572, 45.1487918 ], [ 16.4658482, 45.1466615 ], [ 16.4655773, 45.1462077 ], [ 16.4646055, 45.1442572 ], [ 16.4643321, 45.1436755 ], [ 16.463973, 45.1431756 ], [ 16.4633167, 45.1424562 ], [ 16.4627231, 45.1420035 ], [ 16.462, 45.1414529 ], [ 16.461078, 45.1409044 ], [ 16.4602425, 45.1404395 ], [ 16.4593422, 45.1400781 ], [ 16.4585303, 45.1398067 ], [ 16.4568185, 45.1391762 ], [ 16.4558655, 45.1388384 ], [ 16.4554047, 45.138491 ], [ 16.4544049, 45.1382608 ], [ 16.4530928, 45.1377574 ], [ 16.4514358, 45.1371122 ], [ 16.4502133, 45.1365549 ], [ 16.4497932, 45.1363563 ], [ 16.4498645, 45.135793 ], [ 16.4498911, 45.1356544 ], [ 16.4499263, 45.135516 ], [ 16.4499347, 45.1354025 ], [ 16.4499244, 45.1353336 ], [ 16.4498933, 45.1352705 ], [ 16.4497815, 45.1351594 ], [ 16.4496654, 45.1350681 ], [ 16.4492812, 45.1348531 ], [ 16.4491586, 45.1347683 ], [ 16.448719, 45.1343795 ], [ 16.4484301, 45.1342279 ], [ 16.4482326, 45.1341598 ], [ 16.4478471, 45.1341054 ], [ 16.4476787, 45.1340624 ], [ 16.4474466, 45.1339681 ], [ 16.4472749, 45.1339113 ], [ 16.4471657, 45.1338838 ], [ 16.447071, 45.133895 ], [ 16.4467136, 45.1339788 ], [ 16.4464742, 45.1340071 ], [ 16.4462429, 45.134014 ], [ 16.4459763, 45.1340086 ], [ 16.4454717, 45.1339316 ], [ 16.445045, 45.1337865 ], [ 16.4446852, 45.1336438 ], [ 16.4442073, 45.1333441 ], [ 16.4435565, 45.1328953 ], [ 16.4430878, 45.1325289 ], [ 16.442579, 45.1321057 ], [ 16.4422872, 45.131828 ], [ 16.4417924, 45.1311918 ], [ 16.4413541, 45.1306523 ], [ 16.4411001, 45.1301984 ], [ 16.4410455, 45.1298558 ], [ 16.4405922, 45.1292619 ], [ 16.4392829, 45.1294618 ], [ 16.4402332, 45.1290636 ], [ 16.4398776, 45.1289001 ], [ 16.4395425, 45.1287172 ], [ 16.4391987, 45.1284787 ], [ 16.438977, 45.1283087 ], [ 16.4387975, 45.1281319 ], [ 16.4385706, 45.1278165 ], [ 16.4382421, 45.1274844 ], [ 16.4376868, 45.1270257 ], [ 16.4372737, 45.1267629 ], [ 16.4357996, 45.1261273 ], [ 16.4337332, 45.1253842 ], [ 16.4312895, 45.1246189 ], [ 16.4311598, 45.1245598 ], [ 16.4307891, 45.1244956 ], [ 16.4286529, 45.1240234 ], [ 16.4271726, 45.1237454 ], [ 16.4252831, 45.1233918 ], [ 16.4230279, 45.122804 ], [ 16.4224319, 45.1226941 ], [ 16.4206372, 45.1226224 ], [ 16.418985537434388, 45.122450491801345 ], [ 16.4184495, 45.1223947 ], [ 16.4131052, 45.1215191 ], [ 16.4119107, 45.1212637 ], [ 16.409691, 45.120636 ], [ 16.4072517, 45.1196615 ], [ 16.4059797, 45.1189374 ], [ 16.4027666, 45.1176434 ], [ 16.4021457, 45.1174686 ], [ 16.4019285, 45.1173423 ], [ 16.4016009, 45.1172213 ], [ 16.4009805, 45.1168768 ], [ 16.4003628, 45.1164928 ], [ 16.3997904, 45.1160521 ], [ 16.398919, 45.1154766 ], [ 16.3975818, 45.1146405 ], [ 16.3971247, 45.1144013 ], [ 16.3966866, 45.1142023 ], [ 16.3962713, 45.1140356 ], [ 16.3958021, 45.113799 ], [ 16.3951056, 45.1133931 ], [ 16.3946993, 45.1130311 ], [ 16.3944428, 45.1127054 ], [ 16.394354, 45.1123442 ], [ 16.394237, 45.1122828 ], [ 16.3938408, 45.1107234 ], [ 16.3933303, 45.1092581 ], [ 16.3931932, 45.1087446 ], [ 16.3927741, 45.1071636 ], [ 16.3925646, 45.1061984 ], [ 16.3925265, 45.1059322 ], [ 16.392477, 45.1055369 ], [ 16.3925303, 45.1052654 ], [ 16.3929837, 45.1042786 ], [ 16.3934408, 45.1038591 ], [ 16.3939665, 45.1033106 ], [ 16.3944656, 45.1028857 ], [ 16.3961304, 45.1020387 ], [ 16.3968847, 45.1018074 ], [ 16.3988656, 45.1009792 ], [ 16.3992695, 45.1007157 ], [ 16.3999247, 45.1002989 ], [ 16.4004809, 45.0998928 ], [ 16.4014028, 45.0992851 ], [ 16.4019895, 45.0989301 ], [ 16.4024352, 45.0986989 ], [ 16.4028733, 45.0984972 ], [ 16.4023247, 45.0979002 ], [ 16.4021876, 45.097677 ], [ 16.402039, 45.0975533 ], [ 16.4018181, 45.0974511 ], [ 16.4015361, 45.0973409 ], [ 16.4011819, 45.0972521 ], [ 16.4003933, 45.097123 ], [ 16.3999057, 45.0970155 ], [ 16.3995933, 45.0969348 ], [ 16.3994218, 45.0968622 ], [ 16.3992771, 45.0967304 ], [ 16.3991552, 45.0965475 ], [ 16.3991018, 45.0963754 ], [ 16.3990218, 45.0960957 ], [ 16.3989494, 45.095894 ], [ 16.3987399, 45.0955444 ], [ 16.3986028, 45.0954127 ], [ 16.3983628, 45.0953078 ], [ 16.398138, 45.0952406 ], [ 16.3977685, 45.095211 ], [ 16.3974447, 45.0951653 ], [ 16.3972809, 45.0951034 ], [ 16.3970713, 45.0950066 ], [ 16.3970332, 45.094942 ], [ 16.3968313, 45.0948533 ], [ 16.3964999, 45.0947726 ], [ 16.3960504, 45.0945171 ], [ 16.39579, 45.0943876 ], [ 16.3958256, 45.0943208 ], [ 16.395517, 45.0941971 ], [ 16.3951742, 45.0939739 ], [ 16.3950827, 45.0938502 ], [ 16.3950103, 45.0936754 ], [ 16.3950599, 45.0933984 ], [ 16.395098, 45.0933257 ], [ 16.3952161, 45.0930541 ], [ 16.3955084, 45.0928686 ], [ 16.3952846, 45.0927502 ], [ 16.3954675, 45.0922957 ], [ 16.3958446, 45.0917632 ], [ 16.395978, 45.0910908 ], [ 16.3959704, 45.0907062 ], [ 16.3957172, 45.0899043 ], [ 16.3956687, 45.0897635 ], [ 16.3956778, 45.089669 ], [ 16.3953482, 45.0895775 ], [ 16.3950238, 45.0894884 ], [ 16.3946395, 45.0893408 ], [ 16.394359, 45.0891936 ], [ 16.3939362, 45.0888841 ], [ 16.3936034, 45.088464 ], [ 16.3925469, 45.0872313 ], [ 16.3922193, 45.0867687 ], [ 16.392044, 45.0864352 ], [ 16.391784649705016, 45.086138652820999 ], [ 16.391784649705013, 45.086138652820999 ], [ 16.391784649705009, 45.086138652820999 ], [ 16.3916403, 45.0859736 ], [ 16.3913584, 45.085624 ], [ 16.3909368, 45.0851931 ], [ 16.3905812, 45.084789 ], [ 16.3901187, 45.084479 ], [ 16.3897785, 45.0842808 ], [ 16.3889414, 45.083986 ], [ 16.3882686, 45.0836855 ], [ 16.3877943, 45.083423 ], [ 16.387584931527478, 45.083263895717685 ], [ 16.3872628, 45.0830191 ], [ 16.3869381, 45.0826139 ], [ 16.3865558, 45.0820387 ], [ 16.386444, 45.0815773 ], [ 16.386386459550089, 45.081340756937188 ], [ 16.386386459550089, 45.08134075693718 ], [ 16.3863385, 45.0811436 ], [ 16.3861611, 45.0807657 ], [ 16.3859669, 45.0800214 ], [ 16.3858801, 45.0799542 ], [ 16.3858268, 45.079506 ], [ 16.3859189, 45.0789422 ], [ 16.3861535, 45.0783828 ], [ 16.3861316, 45.0777091 ], [ 16.3860478, 45.0772356 ], [ 16.3858711, 45.0765913 ], [ 16.3859792, 45.0761057 ], [ 16.3860217, 45.075743 ], [ 16.3862139, 45.0754327 ], [ 16.3865735, 45.0750673 ], [ 16.3868935, 45.0746692 ], [ 16.3871525, 45.0743732 ], [ 16.387355, 45.0740368 ], [ 16.3874439, 45.0738086 ], [ 16.3875436, 45.0734186 ], [ 16.3876567, 45.07269 ], [ 16.3876783, 45.0724141 ], [ 16.3876406, 45.0720698 ], [ 16.3875732, 45.0717921 ], [ 16.387557, 45.0717597 ], [ 16.3874655, 45.0715866 ], [ 16.3872096, 45.0711833 ], [ 16.3868243, 45.0705973 ], [ 16.386757, 45.0704737 ], [ 16.3866897, 45.0701465 ], [ 16.38659, 45.0696328 ], [ 16.3865792, 45.0693303 ], [ 16.3866169, 45.0689745 ], [ 16.3866897, 45.0687786 ], [ 16.3868728, 45.0683467 ], [ 16.3870021, 45.0679015 ], [ 16.3870695, 45.0675153 ], [ 16.3870668, 45.0671995 ], [ 16.386994, 45.0667923 ], [ 16.3869321, 45.0665241 ], [ 16.3868594, 45.0663072 ], [ 16.3868082, 45.0661911 ], [ 16.3866789, 45.0660199 ], [ 16.386361, 45.0656622 ], [ 16.3859866, 45.0652779 ], [ 16.3856445, 45.0649487 ], [ 16.3852135, 45.0646081 ], [ 16.3847528, 45.0642923 ], [ 16.3843325, 45.0641171 ], [ 16.3841916, 45.0640373 ], [ 16.3839783, 45.063855 ], [ 16.3837465, 45.0632719 ], [ 16.3837565, 45.0629186 ], [ 16.383662, 45.0622158 ], [ 16.3837723, 45.0619355 ], [ 16.3839098, 45.0616744 ], [ 16.384194, 45.0615236 ], [ 16.3834646, 45.0602712 ], [ 16.3833398, 45.059489 ], [ 16.3829371, 45.0591292 ], [ 16.3827134, 45.0583853 ], [ 16.3828102, 45.0572933 ], [ 16.38324549592831, 45.054873773744411 ], [ 16.3834349, 45.053821 ], [ 16.3826664, 45.0534232 ], [ 16.3834737, 45.0520691 ], [ 16.3833452, 45.0516604 ], [ 16.3826869, 45.0511839 ], [ 16.3820182, 45.0509252 ], [ 16.3813053, 45.0507481 ], [ 16.3801174, 45.050837 ], [ 16.3786501, 45.0514217 ], [ 16.3778364, 45.0517495 ], [ 16.3772065, 45.0519493 ], [ 16.3763251, 45.0519112 ], [ 16.375685, 45.0518307 ], [ 16.3752321, 45.0516982 ], [ 16.3751178, 45.0516699 ], [ 16.3745711, 45.0514248 ], [ 16.3739295, 45.0508348 ], [ 16.3731815, 45.0501574 ], [ 16.3727502, 45.0495358 ], [ 16.3724306, 45.0483542 ], [ 16.3724732, 45.0476699 ], [ 16.3724915, 45.0469032 ], [ 16.3722148, 45.0458547 ], [ 16.3714913, 45.0449547 ], [ 16.371156, 45.0444265 ], [ 16.3711582, 45.0438626 ], [ 16.3709724, 45.0430059 ], [ 16.3703284, 45.0423429 ], [ 16.3696691, 45.0420533 ], [ 16.3688963, 45.0416478 ], [ 16.3682995, 45.0412158 ], [ 16.3672259, 45.0403492 ], [ 16.3662324, 45.0397257 ], [ 16.3646455, 45.0391538 ], [ 16.3634226, 45.0393188 ], [ 16.3628449, 45.0393938 ], [ 16.3621553, 45.0390683 ], [ 16.3605258, 45.0382211 ], [ 16.3599668, 45.0373066 ], [ 16.3593599, 45.0363103 ], [ 16.3589585, 45.03526 ], [ 16.3590138, 45.0344695 ], [ 16.3590827, 45.0334846 ], [ 16.3591081, 45.0332716 ], [ 16.3590167, 45.0331262 ], [ 16.3588795, 45.0329916 ], [ 16.3587462, 45.0329041 ], [ 16.3585119, 45.0327991 ], [ 16.3581214, 45.032647 ], [ 16.3575157, 45.0324141 ], [ 16.3569119, 45.0321974 ], [ 16.3565176, 45.0320116 ], [ 16.3560985, 45.0317841 ], [ 16.3557538, 45.0315553 ], [ 16.3556261, 45.0314059 ], [ 16.3555176, 45.0312201 ], [ 16.3554871, 45.0310397 ], [ 16.355489, 45.0308068 ], [ 16.3555252, 45.0304891 ], [ 16.3556738, 45.0298887 ], [ 16.3557404, 45.0296747 ], [ 16.3558223, 45.0294916 ], [ 16.3558852, 45.0293516 ], [ 16.3559462, 45.0292493 ], [ 16.3560452, 45.0291403 ], [ 16.3561671, 45.0290393 ], [ 16.3562643, 45.0289787 ], [ 16.3563747, 45.0289141 ], [ 16.3565566, 45.0288302 ], [ 16.3570456, 45.0287777 ], [ 16.3572073, 45.0285121 ], [ 16.357261, 45.0281413 ], [ 16.3574056, 45.027977 ], [ 16.3575368, 45.027824 ], [ 16.3576598, 45.0276656 ], [ 16.3578563, 45.0274428 ], [ 16.3580161, 45.0269606 ], [ 16.3580413, 45.0264269 ], [ 16.3581453, 45.0261936 ], [ 16.3581472, 45.0260765 ], [ 16.3581834, 45.0258746 ], [ 16.3581815, 45.0256592 ], [ 16.3582462, 45.025468 ], [ 16.3586881, 45.0253172 ], [ 16.3587815, 45.0251516 ], [ 16.3587834, 45.0250654 ], [ 16.3582596, 45.0246225 ], [ 16.3581777, 45.0244744 ], [ 16.3582024, 45.0243923 ], [ 16.3584272, 45.024123 ], [ 16.3587339, 45.0235804 ], [ 16.3588729, 45.0234431 ], [ 16.3587091, 45.0232573 ], [ 16.3585758, 45.0230365 ], [ 16.3582481, 45.0227376 ], [ 16.3582215, 45.022568 ], [ 16.3580691, 45.0222193 ], [ 16.3580196, 45.0219877 ], [ 16.3578443, 45.0218194 ], [ 16.3577777, 45.0216228 ], [ 16.357671, 45.0215084 ], [ 16.3576081, 45.0213482 ], [ 16.3576253, 45.0212068 ], [ 16.3577072, 45.0211206 ], [ 16.3577357, 45.0209335 ], [ 16.3576367, 45.0206804 ], [ 16.3575281, 45.0205228 ], [ 16.3574881, 45.0203263 ], [ 16.3574824, 45.020228 ], [ 16.3576672, 45.0200651 ], [ 16.3576919, 45.0199816 ], [ 16.357551, 45.0198267 ], [ 16.3575205, 45.0195992 ], [ 16.3576081, 45.019412 ], [ 16.3576367, 45.0192572 ], [ 16.3576043, 45.0191549 ], [ 16.3574957, 45.0190701 ], [ 16.3573053, 45.0189785 ], [ 16.3569567, 45.018895 ], [ 16.3568081, 45.0187738 ], [ 16.3566653, 45.0185449 ], [ 16.3566748, 45.0184776 ], [ 16.3567205, 45.0183268 ], [ 16.3568043, 45.0182124 ], [ 16.356951, 45.0180454 ], [ 16.3568481, 45.0179431 ], [ 16.3566595, 45.0178407 ], [ 16.3562957, 45.0177465 ], [ 16.3560481, 45.0177249 ], [ 16.3558786, 45.017593 ], [ 16.3559891, 45.0174785 ], [ 16.3562062, 45.0174408 ], [ 16.3564519, 45.0172833 ], [ 16.3564614, 45.0172227 ], [ 16.3562843, 45.0171581 ], [ 16.3561795, 45.0170396 ], [ 16.3561072, 45.0168726 ], [ 16.3561262, 45.0164996 ], [ 16.3562367, 45.016225 ], [ 16.3567776, 45.0159287 ], [ 16.3568862, 45.0158331 ], [ 16.3568824, 45.0156715 ], [ 16.3567434, 45.0154534 ], [ 16.3567967, 45.0153888 ], [ 16.3570329, 45.0152757 ], [ 16.3570938, 45.0152151 ], [ 16.3575453, 45.0144772 ], [ 16.3575167, 45.0140651 ], [ 16.3573376, 45.0128761 ], [ 16.3575472, 45.012491 ], [ 16.3575072, 45.0123779 ], [ 16.3575415, 45.0122297 ], [ 16.357711, 45.0121705 ], [ 16.3579148, 45.0121812 ], [ 16.3583297, 45.0122189 ], [ 16.3585384, 45.0117664 ], [ 16.3585323, 45.0115094 ], [ 16.3585103, 45.0110156 ], [ 16.3584924, 45.0108714 ], [ 16.3583587, 45.010588 ], [ 16.358131, 45.0102326 ], [ 16.3577735, 45.0096856 ], [ 16.3572379, 45.0092734 ], [ 16.3569112, 45.0089862 ], [ 16.3565712, 45.0087324 ], [ 16.3559783, 45.0086423 ], [ 16.3549872, 45.0076516 ], [ 16.3548368, 45.0074446 ], [ 16.3543715, 45.0068281 ], [ 16.3539173, 45.0060107 ], [ 16.3539555, 45.0053885 ], [ 16.35449, 45.0047027 ], [ 16.3547621, 45.0043556 ], [ 16.3548301, 45.003928 ], [ 16.3546804, 45.0034362 ], [ 16.3543154, 45.0030477 ], [ 16.3533378, 45.0026099 ], [ 16.3519671, 45.0025177 ], [ 16.3504011, 45.0022806 ], [ 16.3492109, 45.0017885 ], [ 16.3487379, 45.0015495 ], [ 16.3485224, 45.0013373 ], [ 16.3484498, 45.0012303 ], [ 16.3482854, 45.0011738 ], [ 16.3480035, 45.001114 ], [ 16.3476746, 45.001016 ], [ 16.3471648, 45.0009529 ], [ 16.3467701, 45.0009313 ], [ 16.3463614, 45.0009479 ], [ 16.3461194, 45.0009645 ], [ 16.3458962, 45.0010044 ], [ 16.3454922, 45.0011472 ], [ 16.3451328, 45.0013 ], [ 16.3447827, 45.0013997 ], [ 16.3445619, 45.0014994 ], [ 16.3441132, 45.0016422 ], [ 16.343742, 45.001702 ], [ 16.3434108, 45.0017353 ], [ 16.3430843, 45.0017336 ], [ 16.3428446, 45.0016854 ], [ 16.3425392, 45.0015592 ], [ 16.3423654, 45.0014529 ], [ 16.3420483, 45.0011854 ], [ 16.3418556, 45.0010459 ], [ 16.3411156, 45.0006655 ], [ 16.3407515, 45.0004961 ], [ 16.3404156, 45.0004246 ], [ 16.3399481, 45.0003632 ], [ 16.3394454, 45.0003366 ], [ 16.3384892, 45.0003217 ], [ 16.337862, 45.000305 ], [ 16.3374485, 45.000315 ], [ 16.3369834, 45.0003067 ], [ 16.3366334, 45.0002901 ], [ 16.3357336, 45.0006157 ], [ 16.334942, 45.0007785 ], [ 16.3347963, 45.0007967 ], [ 16.334303, 45.0007918 ], [ 16.3341738, 45.0007834 ], [ 16.3334714, 45.000722 ], [ 16.3332529, 45.0006954 ], [ 16.3331824, 45.0006755 ], [ 16.3331119, 45.0006356 ], [ 16.3329851, 45.0004894 ], [ 16.3328418, 45.0003831 ], [ 16.3325599, 45.0002801 ], [ 16.3322592, 45.0002187 ], [ 16.3319561, 45.0001904 ], [ 16.3316695, 45.0001938 ], [ 16.330852, 45.000305 ], [ 16.3305936, 45.0003648 ], [ 16.3304174, 45.0004163 ], [ 16.3302342, 45.0005027 ], [ 16.3299499, 45.0006788 ], [ 16.3295341, 45.0009379 ], [ 16.3295271, 45.0009795 ], [ 16.329513, 45.001031 ], [ 16.3294589, 45.0010908 ], [ 16.3293579, 45.0011522 ], [ 16.329264, 45.0011888 ], [ 16.3291442, 45.001305 ], [ 16.3287894, 45.0017934 ], [ 16.3287002, 45.0018847 ], [ 16.3285287, 45.002011 ], [ 16.3282891, 45.0021107 ], [ 16.3279672, 45.0021754 ], [ 16.3275444, 45.0022186 ], [ 16.3271403, 45.002192 ], [ 16.3267503, 45.0021804 ], [ 16.3266624, 45.0022497 ], [ 16.3254136, 45.0022518 ], [ 16.3246666, 45.0022901 ], [ 16.3237833, 45.0023033 ], [ 16.323741, 45.0023498 ], [ 16.3236588, 45.0023831 ], [ 16.3235648, 45.0023964 ], [ 16.3234309, 45.0023864 ], [ 16.3232782, 45.0023582 ], [ 16.3230926, 45.002315 ], [ 16.322301, 45.0023299 ], [ 16.3211123, 45.0022319 ], [ 16.3207622, 45.0021605 ], [ 16.3200457, 45.0018997 ], [ 16.319893, 45.0018399 ], [ 16.3196581, 45.0017103 ], [ 16.3195454, 45.0016688 ], [ 16.319247, 45.001599 ], [ 16.318904, 45.0015093 ], [ 16.3186527, 45.001408 ], [ 16.3183755, 45.0012519 ], [ 16.318204, 45.0010808 ], [ 16.317861, 45.0008183 ], [ 16.3175532, 45.0006423 ], [ 16.3168931, 45.0002835 ], [ 16.3167005, 45.0002054 ], [ 16.3166253, 45.0001904 ], [ 16.3163998, 45.0001639 ], [ 16.3161602, 45.0001157 ], [ 16.3158313, 44.9999894 ], [ 16.3157162, 44.9999429 ], [ 16.3152158, 44.9998615 ], [ 16.3149715, 44.9998134 ], [ 16.3148023, 44.9997619 ], [ 16.3145604, 44.9996572 ], [ 16.3143536, 44.9995326 ], [ 16.3139449, 44.9992751 ], [ 16.3135549, 44.9989678 ], [ 16.3129371, 44.9984363 ], [ 16.3125683, 44.9982054 ], [ 16.3122065, 44.9980907 ], [ 16.3118447, 44.9980409 ], [ 16.3115158, 44.9980243 ], [ 16.3109802, 44.9980608 ], [ 16.3106443, 44.9981007 ], [ 16.3104141, 44.9981821 ], [ 16.310212, 44.9983083 ], [ 16.3100711, 44.9984512 ], [ 16.3099607, 44.998599 ], [ 16.3097304, 44.9990509 ], [ 16.3095026, 44.9994894 ], [ 16.3093405, 44.9997187 ], [ 16.309021, 45.0000442 ], [ 16.3088471, 45.0001805 ], [ 16.3081142, 45.0005559 ], [ 16.308032, 45.0005741 ], [ 16.3075269, 45.0006506 ], [ 16.3075247, 45.0004714 ], [ 16.3070665, 45.0007037 ], [ 16.3065661, 45.000722 ], [ 16.3061315, 45.0007004 ], [ 16.3057955, 45.0006589 ], [ 16.3053656, 45.0005791 ], [ 16.3046451, 45.0003695 ], [ 16.3042568, 45.0001813 ], [ 16.3038628, 44.9999574 ], [ 16.3033782, 44.9996517 ], [ 16.3029225, 44.9993981 ], [ 16.3027191, 44.9992585 ], [ 16.3021038, 44.9988953 ], [ 16.3015167, 44.9986457 ], [ 16.3006073, 44.9983832 ], [ 16.2997974, 44.9982652 ], [ 16.299539066579335, 44.998251709209619 ], [ 16.299539066579332, 44.998251709209619 ], [ 16.298524, 44.9981987 ], [ 16.2978027, 44.9982034 ], [ 16.2970306, 44.9982531 ], [ 16.2961192, 44.9985103 ], [ 16.2948445, 44.9988982 ], [ 16.2944101, 44.9990794 ], [ 16.2941894, 44.9991671 ], [ 16.294063, 44.9991881 ], [ 16.2938212, 44.9991897 ], [ 16.2934907, 44.9992275 ], [ 16.2931579, 44.9992538 ], [ 16.2930053, 44.9992515 ], [ 16.2926461, 44.9991511 ], [ 16.2923977, 44.9990492 ], [ 16.2921485, 44.9988731 ], [ 16.2918864, 44.9986025 ], [ 16.2916886, 44.9981884 ], [ 16.2914835, 44.9978957 ], [ 16.2912536, 44.9972948 ], [ 16.2908944, 44.9965361 ], [ 16.2908804, 44.9964565 ], [ 16.2908637, 44.9963858 ], [ 16.2908398, 44.9963301 ], [ 16.2908039, 44.9962847 ], [ 16.2906848, 44.9961855 ], [ 16.2905522, 44.9960868 ], [ 16.2904254, 44.9960097 ], [ 16.2902898, 44.9959476 ], [ 16.2901652, 44.9959053 ], [ 16.289813, 44.9957808 ], [ 16.2895969, 44.9957113 ], [ 16.2894833, 44.9956968 ], [ 16.2891893, 44.9956786 ], [ 16.2889294, 44.9956685 ], [ 16.2887518, 44.9956636 ], [ 16.2886222, 44.9960114 ], [ 16.28778, 44.9981397 ], [ 16.2871657, 44.9992796 ], [ 16.2871366, 44.9994119 ], [ 16.2871174, 44.9994996 ], [ 16.2870005, 45.0002065 ], [ 16.286221, 45.0013231 ], [ 16.2857446, 45.0019241 ], [ 16.2855537, 45.0021757 ], [ 16.2854607, 45.0024355 ], [ 16.2854143, 45.0031892 ], [ 16.2855119, 45.0040018 ], [ 16.2856556, 45.0045387 ], [ 16.2856705, 45.0048439 ], [ 16.285543, 45.0051304 ], [ 16.2850951, 45.0058226 ], [ 16.2853256, 45.0069168 ], [ 16.2850092, 45.0073169 ], [ 16.2841402, 45.0075369 ], [ 16.2843139, 45.0083037 ], [ 16.2803796, 45.0087464 ], [ 16.2775432, 45.0072805 ], [ 16.2767059, 45.0064067 ], [ 16.2759485, 45.0063316 ], [ 16.2749119, 45.0059839 ], [ 16.2742741, 45.0059839 ], [ 16.2737425, 45.0062282 ], [ 16.2727325, 45.0086335 ], [ 16.2733478, 45.0099287 ], [ 16.2730438, 45.0108651 ], [ 16.2727059, 45.0116869 ], [ 16.2729939, 45.0140902 ], [ 16.2726604, 45.0148184 ], [ 16.2725023, 45.0149172 ], [ 16.2705, 45.016168 ], [ 16.2691179, 45.0168538 ], [ 16.2668466, 45.0171785 ], [ 16.2644136, 45.0173517 ], [ 16.2625394, 45.0168618 ], [ 16.2620456, 45.0168864 ], [ 16.2595365, 45.0145428 ], [ 16.259284, 45.0140731 ], [ 16.2594036, 45.0131243 ], [ 16.2591378, 45.0124009 ], [ 16.2588455, 45.0117996 ], [ 16.2581279, 45.0112265 ], [ 16.2575697, 45.0110856 ], [ 16.2571711, 45.0111044 ], [ 16.2566129, 45.0114896 ], [ 16.2555764, 45.0125606 ], [ 16.2534151, 45.0141309 ], [ 16.2531844, 45.0142986 ], [ 16.2527458, 45.0143362 ], [ 16.251696, 45.0140168 ], [ 16.2510526, 45.0136927 ], [ 16.2500349, 45.014261 ], [ 16.2472043, 45.0148435 ], [ 16.2445465, 45.014881 ], [ 16.2427126, 45.0142347 ], [ 16.2404677, 45.0144258 ], [ 16.2403081, 45.0144394 ], [ 16.2379254, 45.0145723 ], [ 16.236352, 45.0146601 ], [ 16.2342398, 45.0151265 ], [ 16.2321401, 45.0165613 ], [ 16.2298177, 45.017198 ], [ 16.2297729, 45.018363 ], [ 16.2297168, 45.0194805 ], [ 16.2301317, 45.0206376 ], [ 16.230492, 45.0211806 ], [ 16.2306026, 45.0217075 ], [ 16.2295038, 45.0225951 ], [ 16.2296047, 45.0231657 ], [ 16.2299379, 45.0236675 ], [ 16.2292226, 45.0245512 ], [ 16.2288175, 45.0246337 ], [ 16.228156, 45.0246417 ], [ 16.2272815, 45.0247447 ], [ 16.2259136, 45.0246417 ], [ 16.2255044, 45.0247335 ], [ 16.2251792, 45.025094 ], [ 16.2246691, 45.0254388 ], [ 16.2245086, 45.0253115 ], [ 16.2239207, 45.0248454 ], [ 16.2235815, 45.0247572 ], [ 16.2231106, 45.0249111 ], [ 16.2224155, 45.0252043 ], [ 16.2216531, 45.0254183 ], [ 16.2207898, 45.0256322 ], [ 16.2202404, 45.0258779 ], [ 16.2189628, 45.0266858 ], [ 16.2184613, 45.0268829 ], [ 16.2174814, 45.0272679 ], [ 16.2168993, 45.0275578 ], [ 16.2155763, 45.0282631 ], [ 16.214664795220333, 45.028931324100789 ], [ 16.2143766, 45.0291426 ], [ 16.2137203, 45.0294228 ], [ 16.2128976, 45.0292293 ], [ 16.2121464, 45.0290312 ], [ 16.2114176, 45.0292848 ], [ 16.2108132, 45.0296165 ], [ 16.2105119, 45.0301936 ], [ 16.2104513, 45.0305931 ], [ 16.210431, 45.0307269 ] ] ] } }
]
}
