{
"type": "FeatureCollection",
"name": "zupanija_graph_20",
"crs": { "type": "name", "properties": { "name": "urn:ogc:def:crs:EPSG::3765" } },
"features": [
{ "type": "Feature", "properties": { "BM": 2276, "longitude": 16.229597554300504, "latitude": 43.852912391331799, "population": 144 }, "geometry": { "type": "Polygon", "coordinates": [ [ [ 16.20587324332022, 43.871949407530238 ], [ 16.223009673592593, 43.869761874876467 ], [ 16.259916571947805, 43.850744063075766 ], [ 16.246529172285577, 43.832032922990045 ], [ 16.203530165298904, 43.8514418487729 ], [ 16.20587324332022, 43.871949407530238 ] ] ] } },
{ "type": "Feature", "properties": { "BM": 2282, "longitude": 16.270590859177929, "latitude": 43.761021064831269, "population": 47 }, "geometry": { "type": "Polygon", "coordinates": [ [ [ 16.243048330355041, 43.786557027789343 ], [ 16.27943977792421, 43.789061402594349 ], [ 16.286578870974452, 43.789526838699622 ], [ 16.306251878241007, 43.755044399811553 ], [ 16.282057206012585, 43.728135939043341 ], [ 16.251420342562426, 43.736661876495994 ], [ 16.238369130890462, 43.765996217069379 ], [ 16.241364511948493, 43.785045256792849 ], [ 16.243048330355041, 43.786557027789343 ] ] ] } },
{ "type": "Feature", "properties": { "BM": 2289, "longitude": 16.228626027699164, "latitude": 43.895175894901406, "population": 58 }, "geometry": { "type": "Polygon", "coordinates": [ [ [ 16.19440093995939, 43.907816213328402 ], [ 16.224488307903783, 43.917015409328506 ], [ 16.267275477366507, 43.906257829620714 ], [ 16.270337587543892, 43.896708512587736 ], [ 16.223009673592593, 43.869761874876467 ], [ 16.20587324332022, 43.871949407530238 ], [ 16.19440093995939, 43.907816213328402 ] ] ] } },
{ "type": "Feature", "properties": { "BM": 2297, "longitude": 16.267137448100161, "latitude": 43.709769387927615, "population": 40 }, "geometry": { "type": "Polygon", "coordinates": [ [ [ 16.251420342562426, 43.736661876495994 ], [ 16.282057206012585, 43.728135939043341 ], [ 16.297887746628472, 43.702139020404353 ], [ 16.279919520596042, 43.684313401037286 ], [ 16.241313174515522, 43.697475231719061 ], [ 16.23880762913684, 43.705848103160776 ], [ 16.251420342562426, 43.736661876495994 ] ] ] } },
{ "type": "Feature", "properties": { "BM": 2208, "longitude": 16.21160991249689, "latitude": 43.688895082347436, "population": 32 }, "geometry": { "type": "Polygon", "coordinates": [ [ [ 16.192937520555279, 43.710280378091248 ], [ 16.23880762913684, 43.705848103160776 ], [ 16.241313174515522, 43.697475231719061 ], [ 16.235488148143997, 43.681047558933379 ], [ 16.198133560775648, 43.65879261314187 ], [ 16.185579756966909, 43.691423091005831 ], [ 16.192937520555279, 43.710280378091248 ] ] ] } },
{ "type": "Feature", "properties": { "BM": 2219, "longitude": 16.206519324650831, "latitude": 43.772314902856998, "population": 101 }, "geometry": { "type": "Polygon", "coordinates": [ [ [ 16.16203294774354, 43.764612214255678 ], [ 16.206362721542163, 43.797642889482717 ], [ 16.241364511948493, 43.785045256792849 ], [ 16.238369130890462, 43.765996217069379 ], [ 16.207448699414183, 43.748200148329886 ], [ 16.16203294774354, 43.764612214255678 ] ] ] } },
{ "type": "Feature", "properties": { "BM": 2229, "longitude": 16.224094547515254, "latitude": 43.73166046576118, "population": 100 }, "geometry": { "type": "Polygon", "coordinates": [ [ [ 16.191943392551185, 43.713584534431689 ], [ 16.207448699414183, 43.748200148329886 ], [ 16.238369130890462, 43.765996217069379 ], [ 16.251420342562426, 43.736661876495994 ], [ 16.23880762913684, 43.705848103160776 ], [ 16.192937520555279, 43.710280378091248 ], [ 16.191943392551185, 43.713584534431689 ] ] ] } },
{ "type": "Feature", "properties": { "BM": 2195, "longitude": 16.17882279000877, "latitude": 43.741296936118182, "population": 43 }, "geometry": { "type": "Polygon", "coordinates": [ [ [ 16.16203294774354, 43.764612214255678 ], [ 16.207448699414183, 43.748200148329886 ], [ 16.191943392551185, 43.713584534431689 ], [ 16.149249593809014, 43.741674922508928 ], [ 16.16120468396127, 43.764464122007027 ], [ 16.16203294774354, 43.764612214255678 ] ] ] } },
{ "type": "Feature", "properties": { "BM": 2207, "longitude": 16.217861785022361, "latitude": 43.819306529082596, "population": 165 }, "geometry": { "type": "Polygon", "coordinates": [ [ [ 16.183314736940524, 43.831390259735443 ], [ 16.203530165298904, 43.8514418487729 ], [ 16.246529172285577, 43.832032922990045 ], [ 16.243048330355041, 43.786557027789343 ], [ 16.241364511948493, 43.785045256792849 ], [ 16.206362721542163, 43.797642889482717 ], [ 16.182636538780176, 43.825782487816092 ], [ 16.183314736940524, 43.831390259735443 ] ] ] } },
{ "type": "Feature", "properties": { "BM": 2160, "longitude": 16.184713693961271, "latitude": 43.873455514633342, "population": 212 }, "geometry": { "type": "Polygon", "coordinates": [ [ [ 16.179196562111361, 43.912816336605623 ], [ 16.19440093995939, 43.907816213328402 ], [ 16.20587324332022, 43.871949407530238 ], [ 16.203530165298904, 43.8514418487729 ], [ 16.183314736940524, 43.831390259735443 ], [ 16.170298556390446, 43.845122031164294 ], [ 16.167628518680608, 43.865932302873027 ], [ 16.16535929501601, 43.898221673287175 ], [ 16.179196562111361, 43.912816336605623 ] ] ] } },
{ "type": "Feature", "properties": { "BM": 2175, "longitude": 16.172555285891267, "latitude": 43.796721424990885, "population": 147 }, "geometry": { "type": "Polygon", "coordinates": [ [ [ 16.141111529216477, 43.802838344775161 ], [ 16.182636538780176, 43.825782487816092 ], [ 16.206362721542163, 43.797642889482717 ], [ 16.16203294774354, 43.764612214255678 ], [ 16.16120468396127, 43.764464122007027 ], [ 16.141111529216477, 43.802838344775161 ] ] ] } },
{ "type": "Feature", "properties": { "BM": 2173, "longitude": 16.157070339068696, "latitude": 43.854292031221362, "population": 142 }, "geometry": { "type": "Polygon", "coordinates": [ [ [ 16.133283942135037, 43.851821759626752 ], [ 16.167628518680608, 43.865932302873027 ], [ 16.170298556390446, 43.845122031164294 ], [ 16.133283942135037, 43.851821759626752 ] ] ] } },
{ "type": "Feature", "properties": { "BM": 2114, "longitude": 16.140215816008482, "latitude": 43.829537907195814, "population": 115 }, "geometry": { "type": "Polygon", "coordinates": [ [ [ 16.113184394601436, 43.854818248216993 ], [ 16.133283942135037, 43.851821759626752 ], [ 16.170298556390446, 43.845122031164294 ], [ 16.183314736940524, 43.831390259735443 ], [ 16.182636538780176, 43.825782487816092 ], [ 16.141111529216477, 43.802838344775161 ], [ 16.103692979456053, 43.815454637067511 ], [ 16.113184394601436, 43.854818248216993 ] ] ] } },
{ "type": "Feature", "properties": { "BM": 2131, "longitude": 16.141978290608748, "latitude": 43.871520374142804, "population": 768 }, "geometry": { "type": "Polygon", "coordinates": [ [ [ 16.11201080547319, 43.870912257240285 ], [ 16.16535929501601, 43.898221673287175 ], [ 16.167628518680608, 43.865932302873027 ], [ 16.133283942135037, 43.851821759626752 ], [ 16.113184394601436, 43.854818248216993 ], [ 16.11201080547319, 43.870912257240285 ] ] ] } },
{ "type": "Feature", "properties": { "BM": 2110, "longitude": 16.160269087297788, "latitude": 43.713325113997335, "population": 103 }, "geometry": { "type": "Polygon", "coordinates": [ [ [ 16.149249593809014, 43.741674922508928 ], [ 16.191943392551185, 43.713584534431689 ], [ 16.192937520555279, 43.710280378091248 ], [ 16.185579756966909, 43.691423091005831 ], [ 16.152210402786707, 43.689702081906411 ], [ 16.128840429810047, 43.722601294223331 ], [ 16.130960456874632, 43.731398729039846 ], [ 16.149249593809014, 43.741674922508928 ] ] ] } },
{ "type": "Feature", "properties": { "BM": 2109, "longitude": 16.130910583964486, "latitude": 43.690334336852438, "population": 483 }, "geometry": { "type": "Polygon", "coordinates": [ [ [ 16.128840429810047, 43.722601294223331 ], [ 16.152210402786707, 43.689702081906411 ], [ 16.136736445160157, 43.653101171155697 ], [ 16.135581188173006, 43.652341749424686 ], [ 16.107194674384235, 43.702921609358945 ], [ 16.128840429810047, 43.722601294223331 ] ] ] } },
{ "type": "Feature", "properties": { "BM": 2067, "longitude": 16.130670494023647, "latitude": 43.774710141865185, "population": 67 }, "geometry": { "type": "Polygon", "coordinates": [ [ [ 16.123531432695675, 43.737722532626449 ], [ 16.098874260907106, 43.81213513603722 ], [ 16.103692979456053, 43.815454637067511 ], [ 16.141111529216477, 43.802838344775161 ], [ 16.16120468396127, 43.764464122007027 ], [ 16.149249593809014, 43.741674922508928 ], [ 16.130960456874632, 43.731398729039846 ], [ 16.123531432695675, 43.737722532626449 ] ] ] } },
{ "type": "Feature", "properties": { "BM": 2468, "longitude": 16.326946241337602, "latitude": 43.833019335959129, "population": 240 }, "geometry": { "type": "Polygon", "coordinates": [ [ [ 16.29020804152476, 43.866311495809995 ], [ 16.346991601827725, 43.863978811251016 ], [ 16.378448204758151, 43.818903763141478 ], [ 16.370549799542815, 43.813168176143243 ], [ 16.294448521930427, 43.796526128401197 ], [ 16.29020804152476, 43.866311495809995 ] ] ] } },
{ "type": "Feature", "properties": { "BM": 2446, "longitude": 16.326074861417702, "latitude": 43.782261193308635, "population": 261 }, "geometry": { "type": "Polygon", "coordinates": [ [ [ 16.294448521930427, 43.796526128401197 ], [ 16.370549799542815, 43.813168176143243 ], [ 16.33265275327674, 43.74873652902631 ], [ 16.306251878241007, 43.755044399811553 ], [ 16.286578870974452, 43.789526838699622 ], [ 16.294448521930427, 43.796526128401197 ] ] ] } },
{ "type": "Feature", "properties": { "BM": 2423, "longitude": 16.315563517991347, "latitude": 43.724451982124336, "population": 18 }, "geometry": { "type": "Polygon", "coordinates": [ [ [ 16.306251878241007, 43.755044399811553 ], [ 16.33265275327674, 43.74873652902631 ], [ 16.343650474841343, 43.718547108924412 ], [ 16.342003620645347, 43.698600321194917 ], [ 16.340365666007479, 43.696997799062828 ], [ 16.297887746628472, 43.702139020404353 ], [ 16.282057206012585, 43.728135939043341 ], [ 16.306251878241007, 43.755044399811553 ] ] ] } },
{ "type": "Feature", "properties": { "BM": 2369, "longitude": 16.284401828776769, "latitude": 43.829518196103301, "population": 234 }, "geometry": { "type": "Polygon", "coordinates": [ [ [ 16.282308681345175, 43.869659422990679 ], [ 16.29020804152476, 43.866311495809995 ], [ 16.294448521930427, 43.796526128401197 ], [ 16.286578870974452, 43.789526838699622 ], [ 16.27943977792421, 43.789061402594349 ], [ 16.274028135376433, 43.862636083787997 ], [ 16.282308681345175, 43.869659422990679 ] ] ] } },
{ "type": "Feature", "properties": { "BM": 2342, "longitude": 16.313897147120088, "latitude": 43.906094970599398, "population": 42 }, "geometry": { "type": "Polygon", "coordinates": [ [ [ 16.267275477366507, 43.906257829620714 ], [ 16.300336142411791, 43.957448151662796 ], [ 16.310487129928337, 43.957131750467468 ], [ 16.348828665313853, 43.933720670175717 ], [ 16.355609853600082, 43.915201997894826 ], [ 16.355992574805342, 43.904832651111199 ], [ 16.346991601827725, 43.863978811251016 ], [ 16.29020804152476, 43.866311495809995 ], [ 16.282308681345175, 43.869659422990679 ], [ 16.270337587543892, 43.896708512587736 ], [ 16.267275477366507, 43.906257829620714 ] ] ] } },
{ "type": "Feature", "properties": { "BM": 2344, "longitude": 16.262177737507891, "latitude": 43.817861163876245, "population": 377 }, "geometry": { "type": "Polygon", "coordinates": [ [ [ 16.246529172285577, 43.832032922990045 ], [ 16.259916571947805, 43.850744063075766 ], [ 16.274028135376433, 43.862636083787997 ], [ 16.27943977792421, 43.789061402594349 ], [ 16.243048330355041, 43.786557027789343 ], [ 16.246529172285577, 43.832032922990045 ] ] ] } },
{ "type": "Feature", "properties": { "BM": 2310, "longitude": 16.25712362712931, "latitude": 43.872391733109644, "population": 124 }, "geometry": { "type": "Polygon", "coordinates": [ [ [ 16.223009673592593, 43.869761874876467 ], [ 16.270337587543892, 43.896708512587736 ], [ 16.282308681345175, 43.869659422990679 ], [ 16.274028135376433, 43.862636083787997 ], [ 16.259916571947805, 43.850744063075766 ], [ 16.223009673592593, 43.869761874876467 ] ] ] } },
{ "type": "Feature", "properties": { "BM": 1738, "longitude": 16.03414225698322, "latitude": 43.624124646556751, "population": 67 }, "geometry": { "type": "Polygon", "coordinates": [ [ [ 16.009603448744524, 43.648723465591566 ], [ 16.066571374795966, 43.633767512021251 ], [ 16.067030795364353, 43.611888011253285 ], [ 16.015081989507316, 43.602751248080892 ], [ 16.007209169829441, 43.605585133785766 ], [ 16.009603448744524, 43.648723465591566 ] ] ] } },
{ "type": "Feature", "properties": { "BM": 1697, "longitude": 15.993389216966385, "latitude": 43.545427203222673, "population": 359 }, "geometry": { "type": "Polygon", "coordinates": [ [ [ 15.980405769547229, 43.528956275972405 ], [ 15.977934496400895, 43.558526893473811 ], [ 15.996547173810223, 43.572135595752286 ], [ 16.011574167746623, 43.543136297565582 ], [ 16.009572253454323, 43.533979954880571 ], [ 15.992009902292631, 43.521922529828451 ], [ 15.980893777040226, 43.526901140040195 ], [ 15.980405769547229, 43.528956275972405 ] ] ] } },
{ "type": "Feature", "properties": { "BM": 1703, "longitude": 16.022431675476753, "latitude": 43.570017484334194, "population": 79 }, "geometry": { "type": "Polygon", "coordinates": [ [ [ 16.004470698639071, 43.60337175917136 ], [ 16.007209169829441, 43.605585133785766 ], [ 16.015081989507316, 43.602751248080892 ], [ 16.055390749615384, 43.561144067955183 ], [ 16.05627051030012, 43.554655411521026 ], [ 16.047287416537284, 43.548676851155619 ], [ 16.011574167746623, 43.543136297565582 ], [ 15.996547173810223, 43.572135595752286 ], [ 16.004470698639071, 43.60337175917136 ] ] ] } },
{ "type": "Feature", "properties": { "BM": 1681, "longitude": 16.000638870464222, "latitude": 43.81456156757389, "population": 125 }, "geometry": { "type": "Polygon", "coordinates": [ [ [ 15.985978758704073, 43.845514135221315 ], [ 16.017673271278646, 43.828466787849145 ], [ 16.034336655241656, 43.798834937475327 ], [ 15.990942920363775, 43.787390822099368 ], [ 15.972267355523931, 43.82373074349676 ], [ 15.985978758704073, 43.845514135221315 ] ] ] } },
{ "type": "Feature", "properties": { "BM": 1686, "longitude": 16.027856220531607, "latitude": 43.897751468235441, "population": 227 }, "geometry": { "type": "Polygon", "coordinates": [ [ [ 15.98634634637073, 43.868774001935009 ], [ 15.994824020714093, 43.928078416630093 ], [ 16.009704872141729, 43.938995135621212 ], [ 16.049244411177668, 43.925696874714859 ], [ 16.078124814644248, 43.910789350694742 ], [ 16.080034921624943, 43.904812983729983 ], [ 16.048857684412969, 43.862702910483236 ], [ 15.987475913874748, 43.864952792511133 ], [ 15.98634634637073, 43.868774001935009 ] ] ] } },
{ "type": "Feature", "properties": { "BM": 1691, "longitude": 15.966952728601081, "latitude": 43.547154728726461, "population": 1082 }, "geometry": { "type": "Polygon", "coordinates": [ [ [ 15.977934496400895, 43.558526893473811 ], [ 15.980405769547229, 43.528956275972405 ], [ 15.942517919855113, 43.553981016733204 ], [ 15.977934496400895, 43.558526893473811 ] ] ] } },
{ "type": "Feature", "properties": { "BM": 1695, "longitude": 16.013924873486268, "latitude": 43.722586274452219, "population": 367 }, "geometry": { "type": "Polygon", "coordinates": [ [ [ 15.98023613638386, 43.750712407752026 ], [ 15.992227514622829, 43.759871540995348 ], [ 16.048220500663156, 43.744870405945484 ], [ 16.048233537783759, 43.697865466703298 ], [ 16.020879741442645, 43.680581924465521 ], [ 15.976063891196292, 43.713416694907231 ], [ 15.98023613638386, 43.750712407752026 ] ] ] } },
{ "type": "Feature", "properties": { "BM": 1636, "longitude": 15.978631721605662, "latitude": 43.630013951608539, "population": 826 }, "geometry": { "type": "Polygon", "coordinates": [ [ [ 15.939471394227535, 43.636469585602057 ], [ 15.968439678798626, 43.658250286495829 ], [ 16.008945694382952, 43.653686539430659 ], [ 16.009603448744524, 43.648723465591566 ], [ 16.007209169829441, 43.605585133785766 ], [ 16.004470698639071, 43.60337175917136 ], [ 15.956507974947804, 43.604690533265128 ], [ 15.939471394227535, 43.636469585602057 ] ] ] } },
{ "type": "Feature", "properties": { "BM": 1637, "longitude": 15.971080412772388, "latitude": 43.580782074414415, "population": 666 }, "geometry": { "type": "Polygon", "coordinates": [ [ [ 15.956507974947804, 43.604690533265128 ], [ 16.004470698639071, 43.60337175917136 ], [ 15.996547173810223, 43.572135595752286 ], [ 15.977934496400895, 43.558526893473811 ], [ 15.942517919855113, 43.553981016733204 ], [ 15.937734216979734, 43.553721506960514 ], [ 15.953602755830158, 43.601777551153589 ], [ 15.956507974947804, 43.604690533265128 ] ] ] } },
{ "type": "Feature", "properties": { "BM": 1647, "longitude": 15.985596360899114, "latitude": 43.681267275270265, "population": 227 }, "geometry": { "type": "Polygon", "coordinates": [ [ [ 15.96576346278311, 43.661968591561234 ], [ 15.954257319109818, 43.70470265657346 ], [ 15.976063891196292, 43.713416694907231 ], [ 16.020879741442645, 43.680581924465521 ], [ 16.008945694382952, 43.653686539430659 ], [ 15.968439678798626, 43.658250286495829 ], [ 15.96576346278311, 43.661968591561234 ] ] ] } },
{ "type": "Feature", "properties": { "BM": 1602, "longitude": 15.908888757293662, "latitude": 43.512973387870275, "population": 275 }, "geometry": { "type": "Polygon", "coordinates": [ [ [ 15.937734216979734, 43.553721506960514 ], [ 15.942517919855113, 43.553981016733204 ], [ 15.980405769547229, 43.528956275972405 ], [ 15.980893777040226, 43.526901140040195 ], [ 15.804142586577273, 43.455989632469404 ], [ 15.937734216979734, 43.553721506960514 ] ] ] } },
{ "type": "Feature", "properties": { "BM": 1619, "longitude": 15.964982103564882, "latitude": 43.783884990095132, "population": 328 }, "geometry": { "type": "Polygon", "coordinates": [ [ [ 15.926599978208083, 43.780911772575834 ], [ 15.963999679703122, 43.820845378975484 ], [ 15.972267355523931, 43.82373074349676 ], [ 15.990942920363775, 43.787390822099368 ], [ 15.992227514622829, 43.759871540995348 ], [ 15.98023613638386, 43.750712407752026 ], [ 15.959369847303043, 43.755892478742602 ], [ 15.926599978208083, 43.780911772575834 ] ] ] } },
{ "type": "Feature", "properties": { "BM": 1570, "longitude": 15.928283562564156, "latitude": 43.700909199750086, "population": 732 }, "geometry": { "type": "Polygon", "coordinates": [ [ [ 15.901555220117247, 43.698496405288793 ], [ 15.939729691873621, 43.715014726869732 ], [ 15.949904878923256, 43.70481996898333 ], [ 15.935400647891695, 43.689189731385603 ], [ 15.8995287696257, 43.69608034210961 ], [ 15.901555220117247, 43.698496405288793 ] ] ] } },
{ "type": "Feature", "properties": { "BM": 1571, "longitude": 15.942600591227398, "latitude": 43.655388926476625, "population": 584 }, "geometry": { "type": "Polygon", "coordinates": [ [ [ 15.933995156172895, 43.675563984221689 ], [ 15.96576346278311, 43.661968591561234 ], [ 15.968439678798626, 43.658250286495829 ], [ 15.939471394227535, 43.636469585602057 ], [ 15.922035432782264, 43.642459461791837 ], [ 15.933995156172895, 43.675563984221689 ] ] ] } },
{ "type": "Feature", "properties": { "BM": 1569, "longitude": 15.899154023883312, "latitude": 43.681634757721966, "population": 706 }, "geometry": { "type": "Polygon", "coordinates": [ [ [ 15.896203292773004, 43.694741781336297 ], [ 15.923286276559804, 43.676928521419754 ], [ 15.880171018615805, 43.672085743925486 ], [ 15.892109307125438, 43.693211421859708 ], [ 15.896203292773004, 43.694741781336297 ] ] ] } },
{ "type": "Feature", "properties": { "BM": 1576, "longitude": 15.943304597447408, "latitude": 43.85273251230511, "population": 571 }, "geometry": { "type": "Polygon", "coordinates": [ [ [ 15.903573393717584, 43.877402140787694 ], [ 15.98634634637073, 43.868774001935009 ], [ 15.987475913874748, 43.864952792511133 ], [ 15.985978758704073, 43.845514135221315 ], [ 15.972267355523931, 43.82373074349676 ], [ 15.963999679703122, 43.820845378975484 ], [ 15.888825222934663, 43.852966387421212 ], [ 15.903573393717584, 43.877402140787694 ] ] ] } },
{ "type": "Feature", "properties": { "BM": 1582, "longitude": 15.959135613786277, "latitude": 43.729575979852889, "population": 685 }, "geometry": { "type": "Polygon", "coordinates": [ [ [ 15.932475313663192, 43.725655272398186 ], [ 15.959369847303043, 43.755892478742602 ], [ 15.98023613638386, 43.750712407752026 ], [ 15.976063891196292, 43.713416694907231 ], [ 15.954257319109818, 43.70470265657346 ], [ 15.949904878923256, 43.70481996898333 ], [ 15.939729691873621, 43.715014726869732 ], [ 15.932475313663192, 43.725655272398186 ] ] ] } },
{ "type": "Feature", "properties": { "BM": 1583, "longitude": 15.949482953516128, "latitude": 43.683025083022713, "population": 157 }, "geometry": { "type": "Polygon", "coordinates": [ [ [ 15.933773680508322, 43.677141166089456 ], [ 15.935400647891695, 43.689189731385603 ], [ 15.949904878923256, 43.70481996898333 ], [ 15.954257319109818, 43.70470265657346 ], [ 15.96576346278311, 43.661968591561234 ], [ 15.933995156172895, 43.675563984221689 ], [ 15.933773680508322, 43.677141166089456 ] ] ] } },
{ "type": "Feature", "properties": { "BM": 1592, "longitude": 15.948632822674938, "latitude": 43.904373199487161, "population": 461 }, "geometry": { "type": "Polygon", "coordinates": [ [ [ 15.904502307228372, 43.917942914651562 ], [ 15.928746104242684, 43.943321372904343 ], [ 15.994824020714093, 43.928078416630093 ], [ 15.98634634637073, 43.868774001935009 ], [ 15.903573393717584, 43.877402140787694 ], [ 15.904502307228372, 43.917942914651562 ] ] ] } },
{ "type": "Feature", "properties": { "BM": 1537, "longitude": 15.919661372285198, "latitude": 43.686568714365876, "population": 847 }, "geometry": { "type": "Polygon", "coordinates": [ [ [ 15.8995287696257, 43.69608034210961 ], [ 15.935400647891695, 43.689189731385603 ], [ 15.933773680508322, 43.677141166089456 ], [ 15.923286276559804, 43.676928521419754 ], [ 15.896203292773004, 43.694741781336297 ], [ 15.8995287696257, 43.69608034210961 ] ] ] } },
{ "type": "Feature", "properties": { "BM": 1558, "longitude": 15.921708604925872, "latitude": 43.713536490978498, "population": 1302 }, "geometry": { "type": "Polygon", "coordinates": [ [ [ 15.930011722410647, 43.726934134123518 ], [ 15.932475313663192, 43.725655272398186 ], [ 15.939729691873621, 43.715014726869732 ], [ 15.901555220117247, 43.698496405288793 ], [ 15.909787000904725, 43.713266471717851 ], [ 15.930011722410647, 43.726934134123518 ] ] ] } },
{ "type": "Feature", "properties": { "BM": 1557, "longitude": 15.916831578263501, "latitude": 43.725665900249268, "population": 459 }, "geometry": { "type": "Polygon", "coordinates": [ [ [ 15.909787000904725, 43.713266471717851 ], [ 15.905132958381188, 43.724268230154919 ], [ 15.92071157556437, 43.737870320731531 ], [ 15.930011722410647, 43.726934134123518 ], [ 15.909787000904725, 43.713266471717851 ] ] ] } },
{ "type": "Feature", "properties": { "BM": 2032, "longitude": 16.128982817663811, "latitude": 43.962876519568319, "population": 48 }, "geometry": { "type": "Polygon", "coordinates": [ [ [ 16.098873712494175, 43.940966970663908 ], [ 16.11841662845541, 43.997326666477967 ], [ 16.153913238669549, 43.98797385296939 ], [ 16.154013165297435, 43.987832084803799 ], [ 16.1543507847651, 43.941946187328 ], [ 16.098767234942589, 43.93192745361678 ], [ 16.098873712494175, 43.940966970663908 ] ] ] } },
{ "type": "Feature", "properties": { "BM": 1992, "longitude": 16.076514968589077, "latitude": 43.940379327720514, "population": 402 }, "geometry": { "type": "Polygon", "coordinates": [ [ [ 16.049244411177668, 43.925696874714859 ], [ 16.079377526680418, 43.980409568313156 ], [ 16.098873712494175, 43.940966970663908 ], [ 16.098767234942589, 43.93192745361678 ], [ 16.078124814644248, 43.910789350694742 ], [ 16.049244411177668, 43.925696874714859 ] ] ] } },
{ "type": "Feature", "properties": { "BM": 2006, "longitude": 16.0888312788036, "latitude": 43.770814835995964, "population": 354 }, "geometry": { "type": "Polygon", "coordinates": [ [ [ 16.088302824414576, 43.808913452627394 ], [ 16.098874260907106, 43.81213513603722 ], [ 16.123531432695675, 43.737722532626449 ], [ 16.054033415202976, 43.75252897768987 ], [ 16.062543997842315, 43.783355246569805 ], [ 16.088302824414576, 43.808913452627394 ] ] ] } },
{ "type": "Feature", "properties": { "BM": 2007, "longitude": 16.096744193583746, "latitude": 43.983607704436423, "population": 134 }, "geometry": { "type": "Polygon", "coordinates": [ [ [ 16.077924526698421, 44.005386967211585 ], [ 16.099578593854879, 44.011835519140931 ], [ 16.11841662845541, 43.997326666477967 ], [ 16.098873712494175, 43.940966970663908 ], [ 16.079377526680418, 43.980409568313156 ], [ 16.077924526698421, 44.005386967211585 ] ] ] } },
{ "type": "Feature", "properties": { "BM": 2010, "longitude": 16.102163535962532, "latitude": 43.672065093547033, "population": 48 }, "geometry": { "type": "Polygon", "coordinates": [ [ [ 16.067082223966036, 43.689298467815668 ], [ 16.107194674384235, 43.702921609358945 ], [ 16.135581188173006, 43.652341749424686 ], [ 16.134072283932273, 43.650371858489571 ], [ 16.114000201617149, 43.641320434785563 ], [ 16.082499443109565, 43.660655195969994 ], [ 16.067082223966036, 43.689298467815668 ] ] ] } },
{ "type": "Feature", "properties": { "BM": 2008, "longitude": 16.127585276656305, "latitude": 43.909616869119589, "population": 73 }, "geometry": { "type": "Polygon", "coordinates": [ [ [ 16.078124814644248, 43.910789350694742 ], [ 16.098767234942589, 43.93192745361678 ], [ 16.1543507847651, 43.941946187328 ], [ 16.178044165014533, 43.915089549638559 ], [ 16.179196562111361, 43.912816336605623 ], [ 16.16535929501601, 43.898221673287175 ], [ 16.11201080547319, 43.870912257240285 ], [ 16.080034921624943, 43.904812983729983 ], [ 16.078124814644248, 43.910789350694742 ] ] ] } },
{ "type": "Feature", "properties": { "BM": 1950, "longitude": 16.08718378534164, "latitude": 43.632560623748674, "population": 209 }, "geometry": { "type": "Polygon", "coordinates": [ [ [ 16.067030795364353, 43.611888011253285 ], [ 16.066571374795966, 43.633767512021251 ], [ 16.082499443109565, 43.660655195969994 ], [ 16.114000201617149, 43.641320434785563 ], [ 16.111015115847067, 43.629352239013734 ], [ 16.083990196868534, 43.608342412487971 ], [ 16.080945558711708, 43.60731526113409 ], [ 16.073700095926764, 43.60775142439163 ], [ 16.067030795364353, 43.611888011253285 ] ] ] } },
{ "type": "Feature", "properties": { "BM": 1904, "longitude": 16.082279504583735, "latitude": 43.721771591799836, "population": 104 }, "geometry": { "type": "Polygon", "coordinates": [ [ [ 16.048220500663156, 43.744870405945484 ], [ 16.054033415202976, 43.75252897768987 ], [ 16.123531432695675, 43.737722532626449 ], [ 16.130960456874632, 43.731398729039846 ], [ 16.128840429810047, 43.722601294223331 ], [ 16.107194674384235, 43.702921609358945 ], [ 16.067082223966036, 43.689298467815668 ], [ 16.048233537783759, 43.697865466703298 ], [ 16.048220500663156, 43.744870405945484 ] ] ] } },
{ "type": "Feature", "properties": { "BM": 1905, "longitude": 16.083328342256561, "latitude": 43.854797774156403, "population": 192 }, "geometry": { "type": "Polygon", "coordinates": [ [ [ 16.048857684412969, 43.862702910483236 ], [ 16.080034921624943, 43.904812983729983 ], [ 16.11201080547319, 43.870912257240285 ], [ 16.113184394601436, 43.854818248216993 ], [ 16.103692979456053, 43.815454637067511 ], [ 16.098874260907106, 43.81213513603722 ], [ 16.088302824414576, 43.808913452627394 ], [ 16.056206672593582, 43.837093991563457 ], [ 16.048857684412969, 43.862702910483236 ] ] ] } },
{ "type": "Feature", "properties": { "BM": 1858, "longitude": 16.04713383948657, "latitude": 43.664384330472473, "population": 27 }, "geometry": { "type": "Polygon", "coordinates": [ [ [ 16.008945694382952, 43.653686539430659 ], [ 16.020879741442645, 43.680581924465521 ], [ 16.048233537783759, 43.697865466703298 ], [ 16.067082223966036, 43.689298467815668 ], [ 16.082499443109565, 43.660655195969994 ], [ 16.066571374795966, 43.633767512021251 ], [ 16.009603448744524, 43.648723465591566 ], [ 16.008945694382952, 43.653686539430659 ] ] ] } },
{ "type": "Feature", "properties": { "BM": 1864, "longitude": 16.043920833524901, "latitude": 43.970429784123482, "population": 225 }, "geometry": { "type": "Polygon", "coordinates": [ [ [ 16.014746161112605, 43.982990173193336 ], [ 16.037464178782344, 44.00973245893227 ], [ 16.077924526698421, 44.005386967211585 ], [ 16.079377526680418, 43.980409568313156 ], [ 16.049244411177668, 43.925696874714859 ], [ 16.009704872141729, 43.938995135621212 ], [ 16.014746161112605, 43.982990173193336 ] ] ] } },
{ "type": "Feature", "properties": { "BM": 1874, "longitude": 16.053049634116743, "latitude": 43.812199520604175, "population": 61 }, "geometry": { "type": "Polygon", "coordinates": [ [ [ 16.034336655241656, 43.798834937475327 ], [ 16.017673271278646, 43.828466787849145 ], [ 16.056206672593582, 43.837093991563457 ], [ 16.088302824414576, 43.808913452627394 ], [ 16.062543997842315, 43.783355246569805 ], [ 16.034336655241656, 43.798834937475327 ] ] ] } },
{ "type": "Feature", "properties": { "BM": 1876, "longitude": 16.028194985552769, "latitude": 43.53370256735942, "population": 105 }, "geometry": { "type": "Polygon", "coordinates": [ [ [ 16.011574167746623, 43.543136297565582 ], [ 16.047287416537284, 43.548676851155619 ], [ 16.03568282966604, 43.517304495749997 ], [ 16.024584872935591, 43.516714304945808 ], [ 16.009572253454323, 43.533979954880571 ], [ 16.011574167746623, 43.543136297565582 ] ] ] } },
{ "type": "Feature", "properties": { "BM": 1818, "longitude": 16.026945600707457, "latitude": 43.772727088603936, "population": 269 }, "geometry": { "type": "Polygon", "coordinates": [ [ [ 15.990942920363775, 43.787390822099368 ], [ 16.034336655241656, 43.798834937475327 ], [ 16.062543997842315, 43.783355246569805 ], [ 16.054033415202976, 43.75252897768987 ], [ 16.048220500663156, 43.744870405945484 ], [ 15.992227514622829, 43.759871540995348 ], [ 15.990942920363775, 43.787390822099368 ] ] ] } },
{ "type": "Feature", "properties": { "BM": 1819, "longitude": 16.020749103441851, "latitude": 43.848565013760741, "population": 118 }, "geometry": { "type": "Polygon", "coordinates": [ [ [ 15.987475913874748, 43.864952792511133 ], [ 16.048857684412969, 43.862702910483236 ], [ 16.056206672593582, 43.837093991563457 ], [ 16.017673271278646, 43.828466787849145 ], [ 15.985978758704073, 43.845514135221315 ], [ 15.987475913874748, 43.864952792511133 ] ] ] } },
{ "type": "Feature", "properties": { "BM": 1259, "longitude": 15.757660842197717, "latitude": 43.850119036949749, "population": 72 }, "geometry": { "type": "Polygon", "coordinates": [ [ [ 15.743126118702445, 43.872167539407499 ], [ 15.74689411063836, 43.876161015229712 ], [ 15.758891961853912, 43.874696644207823 ], [ 15.779405401119776, 43.861844285447695 ], [ 15.757686280530095, 43.810506538567566 ], [ 15.739446446487516, 43.854253507238951 ], [ 15.743126118702445, 43.872167539407499 ] ] ] } },
{ "type": "Feature", "properties": { "BM": 1227, "longitude": 15.717827976099414, "latitude": 43.860114213667408, "population": 82 }, "geometry": { "type": "Polygon", "coordinates": [ [ [ 15.698819250008654, 43.867236774187113 ], [ 15.723721786795464, 43.874775431060144 ], [ 15.743126118702445, 43.872167539407499 ], [ 15.739446446487516, 43.854253507238951 ], [ 15.692752125078757, 43.842642250770645 ], [ 15.698819250008654, 43.867236774187113 ] ] ] } },
{ "type": "Feature", "properties": { "BM": 1228, "longitude": 15.720763712904693, "latitude": 43.759987958462972, "population": 214 }, "geometry": { "type": "Polygon", "coordinates": [ [ [ 15.685926367640358, 43.765469756976294 ], [ 15.756175655449034, 43.80077699578824 ], [ 15.756202902452426, 43.799074691482005 ], [ 15.742107350078122, 43.751023967778998 ], [ 15.729149837361366, 43.721953780752607 ], [ 15.681139944607969, 43.74971606579475 ], [ 15.685926367640358, 43.765469756976294 ] ] ] } },
{ "type": "Feature", "properties": { "BM": 1199, "longitude": 15.882970900550323, "latitude": 43.614326952340498, "population": 355 }, "geometry": { "type": "Polygon", "coordinates": [ [ [ 15.851556821379374, 43.631886453870223 ], [ 15.922035432782264, 43.642459461791837 ], [ 15.939471394227535, 43.636469585602057 ], [ 15.956507974947804, 43.604690533265128 ], [ 15.953602755830158, 43.601777551153589 ], [ 15.793179582504063, 43.5895294800236 ], [ 15.804897044466907, 43.603020341731316 ], [ 15.851556821379374, 43.631886453870223 ] ] ] } },
{ "type": "Feature", "properties": { "BM": 1202, "longitude": 15.824814724054074, "latitude": 43.522118378126017, "population": 896 }, "geometry": { "type": "Polygon", "coordinates": [ [ [ 15.697718472455465, 43.389354941574339 ], [ 15.791078702036735, 43.587530832370916 ], [ 15.793179582504063, 43.5895294800236 ], [ 15.953602755830158, 43.601777551153589 ], [ 15.937734216979734, 43.553721506960514 ], [ 15.804142586577273, 43.455989632469404 ], [ 15.697718472455465, 43.389354941574339 ] ] ] } },
{ "type": "Feature", "properties": { "BM": 1200, "longitude": 15.849699330539329, "latitude": 43.670165185315547, "population": 606 }, "geometry": { "type": "Polygon", "coordinates": [ [ [ 15.804897044466907, 43.603020341731316 ], [ 15.822355946047747, 43.674317035599501 ], [ 15.865244738288625, 43.731155598329771 ], [ 15.868607617183914, 43.729455393692881 ], [ 15.882677003169352, 43.718783735819628 ], [ 15.883964702324622, 43.717586898689518 ], [ 15.892109307125438, 43.693211421859708 ], [ 15.880171018615805, 43.672085743925486 ], [ 15.851556821379374, 43.631886453870223 ], [ 15.804897044466907, 43.603020341731316 ] ] ] } },
{ "type": "Feature", "properties": { "BM": 1201, "longitude": 15.800984048479174, "latitude": 43.337204215183554, "population": 237 }, "geometry": { "type": "Polygon", "coordinates": [ [ [ 15.804142586577273, 43.455989632469404 ], [ 15.980893777040226, 43.526901140040195 ], [ 15.992009902292631, 43.521922529828451 ], [ 15.996111216671643, 43.455500521227492 ], [ 15.988996981430494, 43.410613238609692 ], [ 15.881436321561997, 43.241161058080557 ], [ 15.544140876819407, 43.158980928459123 ], [ 15.697718472455465, 43.389354941574339 ], [ 15.804142586577273, 43.455989632469404 ] ] ] } },
{ "type": "Feature", "properties": { "BM": 1130, "longitude": 15.670301926712805, "latitude": 43.832614738891053, "population": 445 }, "geometry": { "type": "Polygon", "coordinates": [ [ [ 15.636771132050262, 43.846387460151 ], [ 15.637016833322434, 43.8532497596036 ], [ 15.692569423487171, 43.842383568964173 ], [ 15.693963209118813, 43.837892406335357 ], [ 15.688444703610674, 43.803302647441271 ], [ 15.663644862037291, 43.821618478182366 ], [ 15.636771132050262, 43.846387460151 ] ] ] } },
{ "type": "Feature", "properties": { "BM": 1129, "longitude": 15.658800189278232, "latitude": 43.812153949604763, "population": 558 }, "geometry": { "type": "Polygon", "coordinates": [ [ [ 15.663644862037291, 43.821618478182366 ], [ 15.685600963559875, 43.773786143600894 ], [ 15.685184516132928, 43.768974675542765 ], [ 15.63547960547564, 43.831687354873779 ], [ 15.636771132050262, 43.846387460151 ], [ 15.663644862037291, 43.821618478182366 ] ] ] } },
{ "type": "Feature", "properties": { "BM": 1138, "longitude": 15.728870335916207, "latitude": 43.834120334878463, "population": 48 }, "geometry": { "type": "Polygon", "coordinates": [ [ [ 15.692752125078757, 43.842642250770645 ], [ 15.739446446487516, 43.854253507238951 ], [ 15.757686280530095, 43.810506538567566 ], [ 15.757874110144394, 43.807602934110683 ], [ 15.693963209118813, 43.837892406335357 ], [ 15.692569423487171, 43.842383568964173 ], [ 15.692752125078757, 43.842642250770645 ] ] ] } },
{ "type": "Feature", "properties": { "BM": 1136, "longitude": 15.679230176402612, "latitude": 43.79956908974151, "population": 550 }, "geometry": { "type": "Polygon", "coordinates": [ [ [ 15.685600963559875, 43.773786143600894 ], [ 15.663644862037291, 43.821618478182366 ], [ 15.688444703610674, 43.803302647441271 ], [ 15.685600963559875, 43.773786143600894 ] ] ] } },
{ "type": "Feature", "properties": { "BM": 1083, "longitude": 15.713606113772686, "latitude": 43.80250362971443, "population": 136 }, "geometry": { "type": "Polygon", "coordinates": [ [ [ 15.685734486966998, 43.766115057251376 ], [ 15.685184516132928, 43.768974675542765 ], [ 15.685600963559875, 43.773786143600894 ], [ 15.688444703610674, 43.803302647441271 ], [ 15.693963209118813, 43.837892406335357 ], [ 15.757874110144394, 43.807602934110683 ], [ 15.759242507679419, 43.804170036184146 ], [ 15.756175655449034, 43.80077699578824 ], [ 15.685926367640358, 43.765469756976294 ], [ 15.685734486966998, 43.766115057251376 ] ] ] } },
{ "type": "Feature", "properties": { "BM": 1084, "longitude": 15.655180810665803, "latitude": 43.797184513232281, "population": 367 }, "geometry": { "type": "Polygon", "coordinates": [ [ [ 15.63547960547564, 43.831687354873779 ], [ 15.685184516132928, 43.768974675542765 ], [ 15.685734486966998, 43.766115057251376 ], [ 15.643907037156723, 43.792442246120174 ], [ 15.634109360853104, 43.829404908326559 ], [ 15.63547960547564, 43.831687354873779 ] ] ] } },
{ "type": "Feature", "properties": { "BM": 1043, "longitude": 15.605369143717921, "latitude": 43.731922457743217, "population": 734 }, "geometry": { "type": "Polygon", "coordinates": [ [ [ 15.612319625566046, 43.79854937768998 ], [ 15.619235301223414, 43.805575150506883 ], [ 15.643907037156723, 43.792442246120174 ], [ 15.685734486966998, 43.766115057251376 ], [ 15.685926367640358, 43.765469756976294 ], [ 15.681139944607969, 43.74971606579475 ], [ 15.504307834277251, 43.629356045636868 ], [ 15.612319625566046, 43.79854937768998 ] ] ] } },
{ "type": "Feature", "properties": { "BM": 1055, "longitude": 15.632417233077748, "latitude": 43.809140768317874, "population": 811 }, "geometry": { "type": "Polygon", "coordinates": [ [ [ 15.634109360853104, 43.829404908326559 ], [ 15.643907037156723, 43.792442246120174 ], [ 15.619235301223414, 43.805575150506883 ], [ 15.634109360853104, 43.829404908326559 ] ] ] } },
{ "type": "Feature", "properties": { "BM": 1504, "longitude": 15.89422518218432, "latitude": 43.735642551826047, "population": 708 }, "geometry": { "type": "Polygon", "coordinates": [ [ [ 15.894828266531514, 43.73861169913674 ], [ 15.894424344482241, 43.732577929254823 ], [ 15.893641993581026, 43.733885300773622 ], [ 15.893849678913483, 43.73743827590782 ], [ 15.894828266531514, 43.73861169913674 ] ] ] } },
{ "type": "Feature", "properties": { "BM": 1508, "longitude": 15.893160748365139, "latitude": 43.735661366503869, "population": 662 }, "geometry": { "type": "Polygon", "coordinates": [ [ [ 15.893849678913483, 43.73743827590782 ], [ 15.893641993581026, 43.733885300773622 ], [ 15.891990572600905, 43.735660522830194 ], [ 15.893849678913483, 43.73743827590782 ] ] ] } },
{ "type": "Feature", "properties": { "BM": 1514, "longitude": 15.903415802778838, "latitude": 43.741068090152865, "population": 453 }, "geometry": { "type": "Polygon", "coordinates": [ [ [ 15.903794701288918, 43.747370771243588 ], [ 15.912066778024382, 43.750834926695312 ], [ 15.902522222285176, 43.734326247822302 ], [ 15.900700512239373, 43.732987138429088 ], [ 15.898472925659114, 43.732359699228176 ], [ 15.895780282431124, 43.733262832854791 ], [ 15.903794701288918, 43.747370771243588 ] ] ] } },
{ "type": "Feature", "properties": { "BM": 1515, "longitude": 15.89361613865653, "latitude": 43.727961960733225, "population": 663 }, "geometry": { "type": "Polygon", "coordinates": [ [ [ 15.894443426207383, 43.732515543942476 ], [ 15.895780282431124, 43.733262832854791 ], [ 15.898472925659114, 43.732359699228176 ], [ 15.890247728324224, 43.721446985219039 ], [ 15.88842148808677, 43.72063644904518 ], [ 15.894443426207383, 43.732515543942476 ] ] ] } },
{ "type": "Feature", "properties": { "BM": 1518, "longitude": 15.910714999541408, "latitude": 43.73742361736673, "population": 765 }, "geometry": { "type": "Polygon", "coordinates": [ [ [ 15.912066778024382, 43.750834926695312 ], [ 15.913872024266627, 43.752000123328131 ], [ 15.92071157556437, 43.737870320731531 ], [ 15.905132958381188, 43.724268230154919 ], [ 15.902304348363018, 43.724802487634285 ], [ 15.902522222285176, 43.734326247822302 ], [ 15.912066778024382, 43.750834926695312 ] ] ] } },
{ "type": "Feature", "properties": { "BM": 1522, "longitude": 15.896942772788389, "latitude": 43.710787327683335, "population": 473 }, "geometry": { "type": "Polygon", "coordinates": [ [ [ 15.890247728324224, 43.721446985219039 ], [ 15.896191280605027, 43.723588104188785 ], [ 15.902304348363018, 43.724802487634285 ], [ 15.905132958381188, 43.724268230154919 ], [ 15.909787000904725, 43.713266471717851 ], [ 15.901555220117247, 43.698496405288793 ], [ 15.8995287696257, 43.69608034210961 ], [ 15.896203292773004, 43.694741781336297 ], [ 15.892109307125438, 43.693211421859708 ], [ 15.883964702324622, 43.717586898689518 ], [ 15.88842148808677, 43.72063644904518 ], [ 15.890247728324224, 43.721446985219039 ] ] ] } },
{ "type": "Feature", "properties": { "BM": 1523, "longitude": 15.900253453443346, "latitude": 43.728010286661906, "population": 545 }, "geometry": { "type": "Polygon", "coordinates": [ [ [ 15.902522222285176, 43.734326247822302 ], [ 15.902304348363018, 43.724802487634285 ], [ 15.896191280605027, 43.723588104188785 ], [ 15.900700512239373, 43.732987138429088 ], [ 15.902522222285176, 43.734326247822302 ] ] ] } },
{ "type": "Feature", "properties": { "BM": 1530, "longitude": 15.89593599794936, "latitude": 43.726864038523821, "population": 217 }, "geometry": { "type": "Polygon", "coordinates": [ [ [ 15.890247728324224, 43.721446985219039 ], [ 15.898472925659114, 43.732359699228176 ], [ 15.900700512239373, 43.732987138429088 ], [ 15.896191280605027, 43.723588104188785 ], [ 15.890247728324224, 43.721446985219039 ] ] ] } },
{ "type": "Feature", "properties": { "BM": 1474, "longitude": 15.892238557898061, "latitude": 43.742864512692371, "population": 653 }, "geometry": { "type": "Polygon", "coordinates": [ [ [ 15.890334194380682, 43.746494275542588 ], [ 15.900230593977563, 43.746246718197106 ], [ 15.897633309163698, 43.743466738084074 ], [ 15.889398632660878, 43.7381252259473 ], [ 15.885590534504999, 43.738292904687924 ], [ 15.890334194380682, 43.746494275542588 ] ] ] } },
{ "type": "Feature", "properties": { "BM": 1473, "longitude": 15.871527282040187, "latitude": 43.744629177637329, "population": 901 }, "geometry": { "type": "Polygon", "coordinates": [ [ [ 15.885590534504999, 43.738292904687924 ], [ 15.868607617183914, 43.729455393692881 ], [ 15.865244738288625, 43.731155598329771 ], [ 15.85504711635028, 43.760348343753158 ], [ 15.85613091074085, 43.760584278159961 ], [ 15.890334194380682, 43.746494275542588 ], [ 15.885590534504999, 43.738292904687924 ] ] ] } },
{ "type": "Feature", "properties": { "BM": 1479, "longitude": 15.894137383125173, "latitude": 43.762431697443986, "population": 1134 }, "geometry": { "type": "Polygon", "coordinates": [ [ [ 15.85613091074085, 43.760584278159961 ], [ 15.911967357606581, 43.782258356877307 ], [ 15.917859123725801, 43.779218061249836 ], [ 15.913872024266627, 43.752000123328131 ], [ 15.912066778024382, 43.750834926695312 ], [ 15.903794701288918, 43.747370771243588 ], [ 15.900230593977563, 43.746246718197106 ], [ 15.890334194380682, 43.746494275542588 ], [ 15.85613091074085, 43.760584278159961 ] ] ] } },
{ "type": "Feature", "properties": { "BM": 1499, "longitude": 15.881163783877236, "latitude": 43.729566060203958, "population": 594 }, "geometry": { "type": "Polygon", "coordinates": [ [ [ 15.882677003169352, 43.718783735819628 ], [ 15.868607617183914, 43.729455393692881 ], [ 15.885590534504999, 43.738292904687924 ], [ 15.889398632660878, 43.7381252259473 ], [ 15.890979472558225, 43.735360598120579 ], [ 15.882677003169352, 43.718783735819628 ] ] ] } },
{ "type": "Feature", "properties": { "BM": 1502, "longitude": 15.89307540083178, "latitude": 43.738882121085737, "population": 844 }, "geometry": { "type": "Polygon", "coordinates": [ [ [ 15.894828266531514, 43.73861169913674 ], [ 15.893849678913483, 43.73743827590782 ], [ 15.891990572600905, 43.735660522830194 ], [ 15.890979472558225, 43.735360598120579 ], [ 15.889398632660878, 43.7381252259473 ], [ 15.897633309163698, 43.743466738084074 ], [ 15.894828266531514, 43.73861169913674 ] ] ] } },
{ "type": "Feature", "properties": { "BM": 1503, "longitude": 15.898174380805651, "latitude": 43.740484111178816, "population": 1073 }, "geometry": { "type": "Polygon", "coordinates": [ [ [ 15.897633309163698, 43.743466738084074 ], [ 15.900230593977563, 43.746246718197106 ], [ 15.903794701288918, 43.747370771243588 ], [ 15.895780282431124, 43.733262832854791 ], [ 15.894443426207383, 43.732515543942476 ], [ 15.894424344482241, 43.732577929254823 ], [ 15.894828266531514, 43.73861169913674 ], [ 15.897633309163698, 43.743466738084074 ] ] ] } },
{ "type": "Feature", "properties": { "BM": 1500, "longitude": 15.888884952222478, "latitude": 43.726617591952589, "population": 430 }, "geometry": { "type": "Polygon", "coordinates": [ [ [ 15.890979472558225, 43.735360598120579 ], [ 15.891990572600905, 43.735660522830194 ], [ 15.893641993581026, 43.733885300773622 ], [ 15.894424344482241, 43.732577929254823 ], [ 15.894443426207383, 43.732515543942476 ], [ 15.88842148808677, 43.72063644904518 ], [ 15.883964702324622, 43.717586898689518 ], [ 15.882677003169352, 43.718783735819628 ], [ 15.890979472558225, 43.735360598120579 ] ] ] } },
{ "type": "Feature", "properties": { "BM": 1501, "longitude": 15.932688768005162, "latitude": 43.754515981191517, "population": 304 }, "geometry": { "type": "Polygon", "coordinates": [ [ [ 15.917859123725801, 43.779218061249836 ], [ 15.926599978208083, 43.780911772575834 ], [ 15.959369847303043, 43.755892478742602 ], [ 15.932475313663192, 43.725655272398186 ], [ 15.930011722410647, 43.726934134123518 ], [ 15.92071157556437, 43.737870320731531 ], [ 15.913872024266627, 43.752000123328131 ], [ 15.917859123725801, 43.779218061249836 ] ] ] } },
{ "type": "Feature", "properties": { "BM": 1443, "longitude": 15.877748359948518, "latitude": 43.788266534111855, "population": 1251 }, "geometry": { "type": "Polygon", "coordinates": [ [ [ 15.840948735075205, 43.767965730195556 ], [ 15.885721846731309, 43.826260418497036 ], [ 15.911967357606581, 43.782258356877307 ], [ 15.85613091074085, 43.760584278159961 ], [ 15.85504711635028, 43.760348343753158 ], [ 15.840948735075205, 43.767965730195556 ] ] ] } },
{ "type": "Feature", "properties": { "BM": 1463, "longitude": 15.918448333925262, "latitude": 43.816869673999413, "population": 284 }, "geometry": { "type": "Polygon", "coordinates": [ [ [ 15.882354056508209, 43.84821547166149 ], [ 15.888825222934663, 43.852966387421212 ], [ 15.963999679703122, 43.820845378975484 ], [ 15.926599978208083, 43.780911772575834 ], [ 15.917859123725801, 43.779218061249836 ], [ 15.911967357606581, 43.782258356877307 ], [ 15.885721846731309, 43.826260418497036 ], [ 15.882354056508209, 43.84821547166149 ] ] ] } },
{ "type": "Feature", "properties": { "BM": 1461, "longitude": 15.89633527816394, "latitude": 43.655331397740277, "population": 235 }, "geometry": { "type": "Polygon", "coordinates": [ [ [ 15.880171018615805, 43.672085743925486 ], [ 15.923286276559804, 43.676928521419754 ], [ 15.933773680508322, 43.677141166089456 ], [ 15.933995156172895, 43.675563984221689 ], [ 15.922035432782264, 43.642459461791837 ], [ 15.851556821379374, 43.631886453870223 ], [ 15.880171018615805, 43.672085743925486 ] ] ] } },
{ "type": "Feature", "properties": { "BM": 1384, "longitude": 15.839221637433456, "latitude": 43.727152782122765, "population": 227 }, "geometry": { "type": "Polygon", "coordinates": [ [ [ 15.819621038366039, 43.729336184327686 ], [ 15.838001657319282, 43.768349886685336 ], [ 15.840948735075205, 43.767965730195556 ], [ 15.85504711635028, 43.760348343753158 ], [ 15.865244738288625, 43.731155598329771 ], [ 15.822355946047747, 43.674317035599501 ], [ 15.819621038366039, 43.729336184327686 ] ] ] } },
{ "type": "Feature", "properties": { "BM": 1395, "longitude": 15.865780361521033, "latitude": 43.887503524465991, "population": 164 }, "geometry": { "type": "Polygon", "coordinates": [ [ [ 15.82234399197743, 43.888781805412414 ], [ 15.845202826363238, 43.921358214108622 ], [ 15.866967194742179, 43.926956604554626 ], [ 15.904502307228372, 43.917942914651562 ], [ 15.903573393717584, 43.877402140787694 ], [ 15.888825222934663, 43.852966387421212 ], [ 15.882354056508209, 43.84821547166149 ], [ 15.835668246361935, 43.8549530229282 ], [ 15.825357058448486, 43.870065070934231 ], [ 15.82234399197743, 43.888781805412414 ] ] ] } },
{ "type": "Feature", "properties": { "BM": 1355, "longitude": 15.794342931950558, "latitude": 43.670137910957742, "population": 183 }, "geometry": { "type": "Polygon", "coordinates": [ [ [ 15.757510161386474, 43.687357929485543 ], [ 15.798047897290857, 43.736214000565894 ], [ 15.819621038366039, 43.729336184327686 ], [ 15.822355946047747, 43.674317035599501 ], [ 15.804897044466907, 43.603020341731316 ], [ 15.793179582504063, 43.5895294800236 ], [ 15.791078702036735, 43.587530832370916 ], [ 15.757510161386474, 43.687357929485543 ] ] ] } },
{ "type": "Feature", "properties": { "BM": 1368, "longitude": 15.845495416063748, "latitude": 43.815518887452868, "population": 531 }, "geometry": { "type": "Polygon", "coordinates": [ [ [ 15.804526207190492, 43.796926176359904 ], [ 15.835668246361935, 43.8549530229282 ], [ 15.882354056508209, 43.84821547166149 ], [ 15.885721846731309, 43.826260418497036 ], [ 15.840948735075205, 43.767965730195556 ], [ 15.838001657319282, 43.768349886685336 ], [ 15.806760033067071, 43.793170730133909 ], [ 15.804526207190492, 43.796926176359904 ] ] ] } },
{ "type": "Feature", "properties": { "BM": 1319, "longitude": 15.765337312269533, "latitude": 43.901510033562197, "population": 389 }, "geometry": { "type": "Polygon", "coordinates": [ [ [ 15.742529338222754, 43.904405872470207 ], [ 15.778251226979272, 43.92889978585611 ], [ 15.779125914641837, 43.928487822261054 ], [ 15.792840741909144, 43.910166813712372 ], [ 15.758891961853912, 43.874696644207823 ], [ 15.74689411063836, 43.876161015229712 ], [ 15.742529338222754, 43.904405872470207 ] ] ] } },
{ "type": "Feature", "properties": { "BM": 1327, "longitude": 15.794201895101754, "latitude": 43.882334034872557, "population": 136 }, "geometry": { "type": "Polygon", "coordinates": [ [ [ 15.758891961853912, 43.874696644207823 ], [ 15.792840741909144, 43.910166813712372 ], [ 15.82234399197743, 43.888781805412414 ], [ 15.825357058448486, 43.870065070934231 ], [ 15.779405401119776, 43.861844285447695 ], [ 15.758891961853912, 43.874696644207823 ] ] ] } },
{ "type": "Feature", "properties": { "BM": 1334, "longitude": 15.770328779121321, "latitude": 43.748727795176784, "population": 1067 }, "geometry": { "type": "Polygon", "coordinates": [ [ [ 15.787679876144416, 43.750406758930062 ], [ 15.761315251771146, 43.732294452696564 ], [ 15.760131534900554, 43.762103696798548 ], [ 15.788312647095383, 43.752306175391126 ], [ 15.787679876144416, 43.750406758930062 ] ] ] } },
{ "type": "Feature", "properties": { "BM": 1335, "longitude": 15.812096531549713, "latitude": 43.759164783158674, "population": 951 }, "geometry": { "type": "Polygon", "coordinates": [ [ [ 15.788312647095383, 43.752306175391126 ], [ 15.806760033067071, 43.793170730133909 ], [ 15.838001657319282, 43.768349886685336 ], [ 15.819621038366039, 43.729336184327686 ], [ 15.798047897290857, 43.736214000565894 ], [ 15.787679876144416, 43.750406758930062 ], [ 15.788312647095383, 43.752306175391126 ] ] ] } },
{ "type": "Feature", "properties": { "BM": 1286, "longitude": 15.747850010049497, "latitude": 43.73506168380117, "population": 659 }, "geometry": { "type": "Polygon", "coordinates": [ [ [ 15.742107350078122, 43.751023967778998 ], [ 15.759542407283982, 43.765488444085555 ], [ 15.760131534900554, 43.762103696798548 ], [ 15.761315251771146, 43.732294452696564 ], [ 15.747657194713666, 43.708155204498254 ], [ 15.729149837361366, 43.721953780752607 ], [ 15.742107350078122, 43.751023967778998 ] ] ] } },
{ "type": "Feature", "properties": { "BM": 1287, "longitude": 15.778889751638232, "latitude": 43.78068266496377, "population": 1168 }, "geometry": { "type": "Polygon", "coordinates": [ [ [ 15.756175655449034, 43.80077699578824 ], [ 15.759242507679419, 43.804170036184146 ], [ 15.804526207190492, 43.796926176359904 ], [ 15.806760033067071, 43.793170730133909 ], [ 15.788312647095383, 43.752306175391126 ], [ 15.760131534900554, 43.762103696798548 ], [ 15.759542407283982, 43.765488444085555 ], [ 15.756202902452426, 43.799074691482005 ], [ 15.756175655449034, 43.80077699578824 ] ] ] } },
{ "type": "Feature", "properties": { "BM": 1288, "longitude": 15.796316247266361, "latitude": 43.833695549177698, "population": 203 }, "geometry": { "type": "Polygon", "coordinates": [ [ [ 15.757686280530095, 43.810506538567566 ], [ 15.779405401119776, 43.861844285447695 ], [ 15.825357058448486, 43.870065070934231 ], [ 15.835668246361935, 43.8549530229282 ], [ 15.804526207190492, 43.796926176359904 ], [ 15.759242507679419, 43.804170036184146 ], [ 15.757874110144394, 43.807602934110683 ], [ 15.757686280530095, 43.810506538567566 ] ] ] } },
{ "type": "Feature", "properties": { "BM": 1297, "longitude": 15.752617553271511, "latitude": 43.771862367782191, "population": 599 }, "geometry": { "type": "Polygon", "coordinates": [ [ [ 15.759542407283982, 43.765488444085555 ], [ 15.742107350078122, 43.751023967778998 ], [ 15.756202902452426, 43.799074691482005 ], [ 15.759542407283982, 43.765488444085555 ] ] ] } },
{ "type": "Feature", "properties": { "BM": 1301, "longitude": 15.771145840745696, "latitude": 43.721170082235787, "population": 286 }, "geometry": { "type": "Polygon", "coordinates": [ [ [ 15.761315251771146, 43.732294452696564 ], [ 15.787679876144416, 43.750406758930062 ], [ 15.798047897290857, 43.736214000565894 ], [ 15.757510161386474, 43.687357929485543 ], [ 15.747657194713666, 43.708155204498254 ], [ 15.761315251771146, 43.732294452696564 ] ] ] } },
{ "type": "Feature", "properties": { "BM": 957, "longitude": 15.609549180938037, "latitude": 43.842497876763744, "population": 671 }, "geometry": { "type": "Polygon", "coordinates": [ [ [ 15.590099723113672, 43.873195288899282 ], [ 15.618745524590965, 43.869773049770714 ], [ 15.635785758694499, 43.855107589576214 ], [ 15.637016833322434, 43.8532497596036 ], [ 15.636771132050262, 43.846387460151 ], [ 15.63547960547564, 43.831687354873779 ], [ 15.634109360853104, 43.829404908326559 ], [ 15.619235301223414, 43.805575150506883 ], [ 15.612319625566046, 43.79854937768998 ], [ 15.575886839433647, 43.859104620815131 ], [ 15.590099723113672, 43.873195288899282 ] ] ] } },
{ "type": "Feature", "properties": { "BM": 919, "longitude": 15.551768370717664, "latitude": 43.881965852496208, "population": 905 }, "geometry": { "type": "Polygon", "coordinates": [ [ [ 15.541952375662564, 43.923243829470486 ], [ 15.575559039084393, 43.908165978428329 ], [ 15.590099723113672, 43.873195288899282 ], [ 15.575886839433647, 43.859104620815131 ], [ 15.548758693385652, 43.837872571795465 ], [ 15.511743085599017, 43.882556262989354 ], [ 15.541952375662564, 43.923243829470486 ] ] ] } },
{ "type": "Feature", "properties": { "BM": 814, "longitude": 15.43129192885204, "latitude": 43.318013499022925, "population": 253 }, "geometry": { "type": "Polygon", "coordinates": [ [ [ 15.504307834277251, 43.629356045636868 ], [ 15.681139944607969, 43.74971606579475 ], [ 15.729149837361366, 43.721953780752607 ], [ 15.747657194713666, 43.708155204498254 ], [ 15.757510161386474, 43.687357929485543 ], [ 15.791078702036735, 43.587530832370916 ], [ 15.697718472455465, 43.389354941574339 ], [ 15.544140876819407, 43.158980928459123 ], [ 14.985270924108256, 42.825237978096816 ], [ 15.175192637157467, 43.245415674679492 ], [ 15.439169202465202, 43.572527732856337 ], [ 15.504307834277251, 43.629356045636868 ] ] ] } },
{ "type": "Feature", "properties": { "BM": 813, "longitude": 15.534742202964864, "latitude": 43.732503629326139, "population": 564 }, "geometry": { "type": "Polygon", "coordinates": [ [ [ 15.439169202465202, 43.572527732856337 ], [ 15.548758693385652, 43.837872571795465 ], [ 15.575886839433647, 43.859104620815131 ], [ 15.612319625566046, 43.79854937768998 ], [ 15.504307834277251, 43.629356045636868 ], [ 15.439169202465202, 43.572527732856337 ] ] ] } }
]
}
