{
"type": "FeatureCollection",
"name": "zupanija_graph_9",
"crs": { "type": "name", "properties": { "name": "urn:ogc:def:crs:EPSG::3765" } },
"features": [
{ "type": "Feature", "properties": { "BM": 3316, "longitude": 16.641927634686585, "latitude": 46.357868046843819, "population": 428 }, "geometry": { "type": "Polygon", "coordinates": [ [ [ 16.632088952765741, 46.368263964979668 ], [ 16.646518763361307, 46.364786039787433 ], [ 16.657225221183371, 46.355857275327111 ], [ 16.656197405112405, 46.352907106228891 ], [ 16.63190615656924, 46.348827873653825 ], [ 16.632088952765741, 46.368263964979668 ] ] ] } },
{ "type": "Feature", "properties": { "BM": 3323, "longitude": 16.673027485479317, "latitude": 46.353963866655441, "population": 190 }, "geometry": { "type": "Polygon", "coordinates": [ [ [ 16.657225221183371, 46.355857275327111 ], [ 16.667286669102783, 46.367625820380667 ], [ 16.689437655369446, 46.365936143027731 ], [ 16.686275710214254, 46.345061135810326 ], [ 16.662374389349726, 46.33827733258947 ], [ 16.656197405112405, 46.352907106228891 ], [ 16.657225221183371, 46.355857275327111 ] ] ] } },
{ "type": "Feature", "properties": { "BM": 3324, "longitude": 16.65720370858666, "latitude": 46.366887673141548, "population": 639 }, "geometry": { "type": "Polygon", "coordinates": [ [ [ 16.646518763361307, 46.364786039787433 ], [ 16.65829557907411, 46.378710899428476 ], [ 16.667286669102783, 46.367625820380667 ], [ 16.657225221183371, 46.355857275327111 ], [ 16.646518763361307, 46.364786039787433 ] ] ] } },
{ "type": "Feature", "properties": { "BM": 3267, "longitude": 16.622558852967412, "latitude": 46.341378381837252, "population": 626 }, "geometry": { "type": "Polygon", "coordinates": [ [ [ 16.618305426346161, 46.334200330335186 ], [ 16.611646781118736, 46.341483887475789 ], [ 16.612778297981251, 46.349434127673319 ], [ 16.630999671734834, 46.347275229559152 ], [ 16.633186450409188, 46.333511875021941 ], [ 16.618305426346161, 46.334200330335186 ] ] ] } },
{ "type": "Feature", "properties": { "BM": 3273, "longitude": 16.646438193582082, "latitude": 46.336258272293506, "population": 641 }, "geometry": { "type": "Polygon", "coordinates": [ [ [ 16.630999671734834, 46.347275229559152 ], [ 16.63190615656924, 46.348827873653825 ], [ 16.656197405112405, 46.352907106228891 ], [ 16.662374389349726, 46.33827733258947 ], [ 16.653733111904241, 46.319620632159321 ], [ 16.638783777266095, 46.318224098767601 ], [ 16.633186450409188, 46.333511875021941 ], [ 16.630999671734834, 46.347275229559152 ] ] ] } },
{ "type": "Feature", "properties": { "BM": 3244, "longitude": 16.615054391774663, "latitude": 46.378808263632017, "population": 240 }, "geometry": { "type": "Polygon", "coordinates": [ [ [ 16.601638178529051, 46.382396972941308 ], [ 16.615592231497072, 46.392839993626858 ], [ 16.63149543874249, 46.38755069562766 ], [ 16.629550087284979, 46.3759181952978 ], [ 16.602237821622801, 46.361610609213251 ], [ 16.601638178529051, 46.382396972941308 ] ] ] } },
{ "type": "Feature", "properties": { "BM": 3256, "longitude": 16.613134530757872, "latitude": 46.336286843483954, "population": 488 }, "geometry": { "type": "Polygon", "coordinates": [ [ [ 16.611646781118736, 46.341483887475789 ], [ 16.618305426346161, 46.334200330335186 ], [ 16.609451384808711, 46.33317631264088 ], [ 16.611646781118736, 46.341483887475789 ] ] ] } },
{ "type": "Feature", "properties": { "BM": 3211, "longitude": 16.59612225167065, "latitude": 46.394567738623813, "population": 539 }, "geometry": { "type": "Polygon", "coordinates": [ [ [ 16.577138885750696, 46.389015102551056 ], [ 16.581391587192886, 46.402795192293596 ], [ 16.606197824974608, 46.405888824563768 ], [ 16.615592231497072, 46.392839993626858 ], [ 16.601638178529051, 46.382396972941308 ], [ 16.577138885750696, 46.389015102551056 ] ] ] } },
{ "type": "Feature", "properties": { "BM": 3222, "longitude": 16.714354882568195, "latitude": 46.448147299233703, "population": 822 }, "geometry": { "type": "Polygon", "coordinates": [ [ [ 16.775817460097002, 46.525343199999988 ], [ 16.756990825026119, 46.428531432503334 ], [ 16.752767731091172, 46.422926455285058 ], [ 16.689437655369446, 46.365936143027731 ], [ 16.667286669102783, 46.367625820380667 ], [ 16.65829557907411, 46.378710899428476 ], [ 16.647302833725035, 46.397994874411495 ], [ 16.714330496729929, 46.525343199999988 ], [ 16.775817460097002, 46.525343199999988 ] ] ] } },
{ "type": "Feature", "properties": { "BM": 3223, "longitude": 16.619553540171982, "latitude": 46.359722983007053, "population": 562 }, "geometry": { "type": "Polygon", "coordinates": [ [ [ 16.632088952765741, 46.368263964979668 ], [ 16.63190615656924, 46.348827873653825 ], [ 16.630999671734834, 46.347275229559152 ], [ 16.612778297981251, 46.349434127673319 ], [ 16.599532635510855, 46.35716494202962 ], [ 16.602237821622801, 46.361610609213251 ], [ 16.629550087284979, 46.3759181952978 ], [ 16.632088952765741, 46.368263964979668 ] ] ] } },
{ "type": "Feature", "properties": { "BM": 3226, "longitude": 16.618755711345457, "latitude": 46.319836038540039, "population": 1028 }, "geometry": { "type": "Polygon", "coordinates": [ [ [ 16.609451384808711, 46.33317631264088 ], [ 16.618305426346161, 46.334200330335186 ], [ 16.633186450409188, 46.333511875021941 ], [ 16.638783777266095, 46.318224098767601 ], [ 16.62496283330653, 46.303699348514073 ], [ 16.620867479177402, 46.304681813860583 ], [ 16.603461535049718, 46.309005518324085 ], [ 16.59940956203269, 46.312870569726783 ], [ 16.598934378267412, 46.321192794325341 ], [ 16.609451384808711, 46.33317631264088 ] ] ] } },
{ "type": "Feature", "properties": { "BM": 3227, "longitude": 16.655119258838369, "latitude": 46.448092655536058, "population": 390 }, "geometry": { "type": "Polygon", "coordinates": [ [ [ 16.714330496729929, 46.525343199999988 ], [ 16.647302833725035, 46.397994874411495 ], [ 16.63149543874249, 46.38755069562766 ], [ 16.615592231497072, 46.392839993626858 ], [ 16.606197824974608, 46.405888824563768 ], [ 16.610388489102508, 46.421125240924646 ], [ 16.700252860174711, 46.525343199999988 ], [ 16.714330496729929, 46.525343199999988 ] ] ] } },
{ "type": "Feature", "properties": { "BM": 3224, "longitude": 16.643019731741628, "latitude": 46.380049267496318, "population": 569 }, "geometry": { "type": "Polygon", "coordinates": [ [ [ 16.629550087284979, 46.3759181952978 ], [ 16.63149543874249, 46.38755069562766 ], [ 16.647302833725035, 46.397994874411495 ], [ 16.65829557907411, 46.378710899428476 ], [ 16.646518763361307, 46.364786039787433 ], [ 16.632088952765741, 46.368263964979668 ], [ 16.629550087284979, 46.3759181952978 ] ] ] } },
{ "type": "Feature", "properties": { "BM": 3225, "longitude": 16.600409409842044, "latitude": 46.342059479849659, "population": 647 }, "geometry": { "type": "Polygon", "coordinates": [ [ [ 16.598934378267412, 46.321192794325341 ], [ 16.586387671220912, 46.352446582115114 ], [ 16.599532635510855, 46.35716494202962 ], [ 16.612778297981251, 46.349434127673319 ], [ 16.611646781118736, 46.341483887475789 ], [ 16.609451384808711, 46.33317631264088 ], [ 16.598934378267412, 46.321192794325341 ] ] ] } },
{ "type": "Feature", "properties": { "BM": 3191, "longitude": 16.637148353579164, "latitude": 46.468122671407272, "population": 794 }, "geometry": { "type": "Polygon", "coordinates": [ [ [ 16.700252860174711, 46.525343199999988 ], [ 16.610388489102508, 46.421125240924646 ], [ 16.578743348748759, 46.426569739002566 ], [ 16.683771768332011, 46.525343199999988 ], [ 16.700252860174711, 46.525343199999988 ] ] ] } },
{ "type": "Feature", "properties": { "BM": 3141, "longitude": 16.570354729116364, "latitude": 46.4030595456382, "population": 204 }, "geometry": { "type": "Polygon", "coordinates": [ [ [ 16.574328763946657, 46.420508024811419 ], [ 16.581391587192886, 46.402795192293596 ], [ 16.577138885750696, 46.389015102551056 ], [ 16.569726170519086, 46.380753163428246 ], [ 16.557244967894544, 46.414530629052372 ], [ 16.574328763946657, 46.420508024811419 ] ] ] } },
{ "type": "Feature", "properties": { "BM": 3148, "longitude": 16.578634658972916, "latitude": 46.33183011509891, "population": 250 }, "geometry": { "type": "Polygon", "coordinates": [ [ [ 16.564422031145792, 46.35818350567645 ], [ 16.586387671220912, 46.352446582115114 ], [ 16.598934378267412, 46.321192794325341 ], [ 16.59940956203269, 46.312870569726783 ], [ 16.562791873978444, 46.311794039567289 ], [ 16.564422031145792, 46.35818350567645 ] ] ] } },
{ "type": "Feature", "properties": { "BM": 3149, "longitude": 16.583405996901995, "latitude": 46.36995608976639, "population": 212 }, "geometry": { "type": "Polygon", "coordinates": [ [ [ 16.563565534512886, 46.359084876971238 ], [ 16.563448029292218, 46.373371820187913 ], [ 16.569726170519086, 46.380753163428246 ], [ 16.577138885750696, 46.389015102551056 ], [ 16.601638178529051, 46.382396972941308 ], [ 16.602237821622801, 46.361610609213251 ], [ 16.599532635510855, 46.35716494202962 ], [ 16.586387671220912, 46.352446582115114 ], [ 16.564422031145792, 46.35818350567645 ], [ 16.563565534512886, 46.359084876971238 ] ] ] } },
{ "type": "Feature", "properties": { "BM": 3114, "longitude": 16.894508848296741, "latitude": 46.450808531668343, "population": 822 }, "geometry": { "type": "Polygon", "coordinates": [ [ [ 17.101961941633494, 46.525343199999988 ], [ 17.071536617772988, 46.479867719700366 ], [ 16.836842185251015, 46.326034747830676 ], [ 16.807550597965097, 46.336983305294368 ], [ 16.768844284479229, 46.387632715174604 ], [ 16.758221716206084, 46.423630174776434 ], [ 16.756990825026119, 46.428531432503334 ], [ 16.775817460097002, 46.525343199999988 ], [ 17.101961941633494, 46.525343199999988 ] ] ] } },
{ "type": "Feature", "properties": { "BM": 3115, "longitude": 16.612289065658675, "latitude": 46.486322177163146, "population": 628 }, "geometry": { "type": "Polygon", "coordinates": [ [ [ 16.683771768332011, 46.525343199999988 ], [ 16.578743348748759, 46.426569739002566 ], [ 16.575389989993965, 46.425225055489967 ], [ 16.561351989882979, 46.447238345232122 ], [ 16.587627104931329, 46.499079326574346 ], [ 16.602877788419384, 46.525343199999988 ], [ 16.683771768332011, 46.525343199999988 ] ] ] } },
{ "type": "Feature", "properties": { "BM": 3130, "longitude": 16.591534355306372, "latitude": 46.414862560234056, "population": 459 }, "geometry": { "type": "Polygon", "coordinates": [ [ [ 16.575389989993965, 46.425225055489967 ], [ 16.578743348748759, 46.426569739002566 ], [ 16.610388489102508, 46.421125240924646 ], [ 16.606197824974608, 46.405888824563768 ], [ 16.581391587192886, 46.402795192293596 ], [ 16.574328763946657, 46.420508024811419 ], [ 16.575389989993965, 46.425225055489967 ] ] ] } },
{ "type": "Feature", "properties": { "BM": 3082, "longitude": 16.53914606119638, "latitude": 46.386091638356788, "population": 583 }, "geometry": { "type": "Polygon", "coordinates": [ [ [ 16.540473631931803, 46.398620674676351 ], [ 16.558543618911891, 46.378103480060794 ], [ 16.5309032150608, 46.376938356737611 ], [ 16.522739104956372, 46.391333822456183 ], [ 16.540473631931803, 46.398620674676351 ] ] ] } },
{ "type": "Feature", "properties": { "BM": 3092, "longitude": 16.546308461184207, "latitude": 46.331209948263201, "population": 498 }, "geometry": { "type": "Polygon", "coordinates": [ [ [ 16.538456074084362, 46.308064039464966 ], [ 16.525514639604168, 46.31222568869034 ], [ 16.52954291139207, 46.34987820602197 ], [ 16.563565534512886, 46.359084876971238 ], [ 16.564422031145792, 46.35818350567645 ], [ 16.562791873978444, 46.311794039567289 ], [ 16.55834419397387, 46.307082413250342 ], [ 16.546269228180485, 46.306670701053015 ], [ 16.538456074084362, 46.308064039464966 ] ] ] } },
{ "type": "Feature", "properties": { "BM": 3097, "longitude": 16.555076187501253, "latitude": 46.395584002977863, "population": 532 }, "geometry": { "type": "Polygon", "coordinates": [ [ [ 16.540473631931803, 46.398620674676351 ], [ 16.541729901332715, 46.410026228502872 ], [ 16.557244967894544, 46.414530629052372 ], [ 16.569726170519086, 46.380753163428246 ], [ 16.563448029292218, 46.373371820187913 ], [ 16.558543618911891, 46.378103480060794 ], [ 16.540473631931803, 46.398620674676351 ] ] ] } },
{ "type": "Feature", "properties": { "BM": 3534, "longitude": 16.811371150434891, "latitude": 46.316895822859536, "population": 798 }, "geometry": { "type": "Polygon", "coordinates": [ [ [ 16.786833582369699, 46.31142733769466 ], [ 16.807550597965097, 46.336983305294368 ], [ 16.836842185251015, 46.326034747830676 ], [ 16.832863902099028, 46.314391785082549 ], [ 16.803235070267529, 46.295116182888385 ], [ 16.786833582369699, 46.31142733769466 ] ] ] } },
{ "type": "Feature", "properties": { "BM": 3510, "longitude": 16.781547709473408, "latitude": 46.342064988223569, "population": 487 }, "geometry": { "type": "Polygon", "coordinates": [ [ [ 16.768844284479229, 46.387632715174604 ], [ 16.807550597965097, 46.336983305294368 ], [ 16.786833582369699, 46.31142733769466 ], [ 16.765189531018954, 46.314536121814605 ], [ 16.768844284479229, 46.387632715174604 ] ] ] } },
{ "type": "Feature", "properties": { "BM": 3458, "longitude": 16.778956831249285, "latitude": 46.29651044909896, "population": 204 }, "geometry": { "type": "Polygon", "coordinates": [ [ [ 16.765189531018954, 46.314536121814605 ], [ 16.786833582369699, 46.31142733769466 ], [ 16.803235070267529, 46.295116182888385 ], [ 16.802050584201801, 46.285383954634888 ], [ 16.796914105571162, 46.280561763276197 ], [ 16.762020955182869, 46.283243300719768 ], [ 16.75613513451038, 46.305772381462809 ], [ 16.765189531018954, 46.314536121814605 ] ] ] } },
{ "type": "Feature", "properties": { "BM": 3363, "longitude": 16.755354034322647, "latitude": 46.352436323685708, "population": 684 }, "geometry": { "type": "Polygon", "coordinates": [ [ [ 16.768844284479229, 46.387632715174604 ], [ 16.765189531018954, 46.314536121814605 ], [ 16.75613513451038, 46.305772381462809 ], [ 16.735860600553135, 46.30778365695376 ], [ 16.758221716206084, 46.423630174776434 ], [ 16.768844284479229, 46.387632715174604 ] ] ] } },
{ "type": "Feature", "properties": { "BM": 3364, "longitude": 16.714335183759342, "latitude": 46.369140112118743, "population": 236 }, "geometry": { "type": "Polygon", "coordinates": [ [ [ 16.73593136767375, 46.37913355740681 ], [ 16.698338916368932, 46.322317905638599 ], [ 16.686275710214254, 46.345061135810326 ], [ 16.689437655369446, 46.365936143027731 ], [ 16.752767731091172, 46.422926455285058 ], [ 16.73593136767375, 46.37913355740681 ] ] ] } },
{ "type": "Feature", "properties": { "BM": 3365, "longitude": 16.739805836081388, "latitude": 46.360672225143666, "population": 542 }, "geometry": { "type": "Polygon", "coordinates": [ [ [ 16.752767731091172, 46.422926455285058 ], [ 16.756990825026119, 46.428531432503334 ], [ 16.758221716206084, 46.423630174776434 ], [ 16.735860600553135, 46.30778365695376 ], [ 16.733575001649221, 46.307676598888605 ], [ 16.728850240240718, 46.307572909458415 ], [ 16.722665318010833, 46.311352577345374 ], [ 16.73593136767375, 46.37913355740681 ], [ 16.752767731091172, 46.422926455285058 ] ] ] } },
{ "type": "Feature", "properties": { "BM": 3385, "longitude": 16.718008978254328, "latitude": 46.335902565620813, "population": 570 }, "geometry": { "type": "Polygon", "coordinates": [ [ [ 16.699417797411073, 46.315818017837877 ], [ 16.698338916368932, 46.322317905638599 ], [ 16.73593136767375, 46.37913355740681 ], [ 16.722665318010833, 46.311352577345374 ], [ 16.700402911697754, 46.315215419704991 ], [ 16.699417797411073, 46.315818017837877 ] ] ] } },
{ "type": "Feature", "properties": { "BM": 3343, "longitude": 16.677033638781332, "latitude": 46.325331721021271, "population": 324 }, "geometry": { "type": "Polygon", "coordinates": [ [ [ 16.662374389349726, 46.33827733258947 ], [ 16.686275710214254, 46.345061135810326 ], [ 16.698338916368932, 46.322317905638599 ], [ 16.699417797411073, 46.315818017837877 ], [ 16.673051545521204, 46.307127371450498 ], [ 16.653733111904241, 46.319620632159321 ], [ 16.662374389349726, 46.33827733258947 ] ] ] } },
{ "type": "Feature", "properties": { "BM": 2792, "longitude": 16.429670190834411, "latitude": 46.438585036926547, "population": 192 }, "geometry": { "type": "Polygon", "coordinates": [ [ [ 16.422369054666564, 46.448681022715164 ], [ 16.440685934770752, 46.442402416482871 ], [ 16.441265018835637, 46.433931655166539 ], [ 16.422195072352821, 46.428900465513095 ], [ 16.419993182579493, 46.442385428921476 ], [ 16.422369054666564, 46.448681022715164 ] ] ] } },
{ "type": "Feature", "properties": { "BM": 2793, "longitude": 16.435367893674989, "latitude": 46.422814820154883, "population": 1060 }, "geometry": { "type": "Polygon", "coordinates": [ [ [ 16.422195072352821, 46.428900465513095 ], [ 16.441265018835637, 46.433931655166539 ], [ 16.45228169732388, 46.423762654526975 ], [ 16.433960702809355, 46.409016304588619 ], [ 16.426337399311855, 46.416158332699929 ], [ 16.419259263085458, 46.424929326257988 ], [ 16.422195072352821, 46.428900465513095 ] ] ] } },
{ "type": "Feature", "properties": { "BM": 2799, "longitude": 16.425339292252179, "latitude": 46.402868107720145, "population": 1043 }, "geometry": { "type": "Polygon", "coordinates": [ [ [ 16.417727027794836, 46.406562454542573 ], [ 16.432610614700664, 46.404258652129535 ], [ 16.431234898268027, 46.401366500090809 ], [ 16.43117238830169, 46.401289391463294 ], [ 16.424952738809733, 46.398260273209402 ], [ 16.417077989736832, 46.406430667773293 ], [ 16.417727027794836, 46.406562454542573 ] ] ] } },
{ "type": "Feature", "properties": { "BM": 2801, "longitude": 16.427277437606339, "latitude": 46.394596884972003, "population": 593 }, "geometry": { "type": "Polygon", "coordinates": [ [ [ 16.421011406692788, 46.395917770494464 ], [ 16.424952738809733, 46.398260273209402 ], [ 16.43117238830169, 46.401289391463294 ], [ 16.431252955287075, 46.389712421520834 ], [ 16.431250440279729, 46.389706244299092 ], [ 16.427211146523295, 46.388706903036919 ], [ 16.423198280165746, 46.391919950067312 ], [ 16.421011406692788, 46.395917770494464 ] ] ] } },
{ "type": "Feature", "properties": { "BM": 2806, "longitude": 16.424666655051784, "latitude": 46.388398354365364, "population": 863 }, "geometry": { "type": "Polygon", "coordinates": [ [ [ 16.423434702170471, 46.385688895792754 ], [ 16.423198280165746, 46.391919950067312 ], [ 16.427211146523295, 46.388706903036919 ], [ 16.424157560230693, 46.385021354704911 ], [ 16.423434702170471, 46.385688895792754 ] ] ] } },
{ "type": "Feature", "properties": { "BM": 2804, "longitude": 16.434822807025004, "latitude": 46.455078458044916, "population": 455 }, "geometry": { "type": "Polygon", "coordinates": [ [ [ 16.42138259659815, 46.458920722386075 ], [ 16.440458337770039, 46.467580768258962 ], [ 16.448363064869863, 46.460292825669853 ], [ 16.440685934770752, 46.442402416482871 ], [ 16.422369054666564, 46.448681022715164 ], [ 16.420616215975496, 46.457455262711363 ], [ 16.42138259659815, 46.458920722386075 ] ] ] } },
{ "type": "Feature", "properties": { "BM": 2805, "longitude": 16.439915557066413, "latitude": 46.300706874738154, "population": 127 }, "geometry": { "type": "Polygon", "coordinates": [ [ [ 16.423162056920912, 46.322400448655429 ], [ 16.458285708443821, 46.319468676035704 ], [ 16.456874523869338, 46.280794587516979 ], [ 16.455069219239789, 46.279500742679062 ], [ 16.429646489498214, 46.276564467054676 ], [ 16.423268859442114, 46.296277191208191 ], [ 16.41903504234887, 46.315336712757706 ], [ 16.423162056920912, 46.322400448655429 ] ] ] } },
{ "type": "Feature", "properties": { "BM": 2810, "longitude": 16.433933708816017, "latitude": 46.393797457389496, "population": 545 }, "geometry": { "type": "Polygon", "coordinates": [ [ [ 16.431234898268027, 46.401366500090809 ], [ 16.43828693622126, 46.392511035489228 ], [ 16.436991802695463, 46.389287158290898 ], [ 16.431252955287075, 46.389712421520834 ], [ 16.43117238830169, 46.401289391463294 ], [ 16.431234898268027, 46.401366500090809 ] ] ] } },
{ "type": "Feature", "properties": { "BM": 2809, "longitude": 16.428189450272619, "latitude": 46.385293231245392, "population": 351 }, "geometry": { "type": "Polygon", "coordinates": [ [ [ 16.424157560230693, 46.385021354704911 ], [ 16.427211146523295, 46.388706903036919 ], [ 16.431250440279729, 46.389706244299092 ], [ 16.432141587839453, 46.384286118655005 ], [ 16.425386295522344, 46.380390349913334 ], [ 16.424157560230693, 46.385021354704911 ] ] ] } },
{ "type": "Feature", "properties": { "BM": 2754, "longitude": 16.427105927100538, "latitude": 46.493838693565976, "population": 734 }, "geometry": { "type": "Polygon", "coordinates": [ [ [ 16.416873015063729, 46.511561326377958 ], [ 16.435584245381531, 46.501043872157318 ], [ 16.435738657987557, 46.5009533885843 ], [ 16.444664606129347, 46.494069491417982 ], [ 16.441935037899306, 46.487098457667109 ], [ 16.438647602694502, 46.481000992171047 ], [ 16.412807613876801, 46.484529574404917 ], [ 16.412471501496395, 46.484909314582872 ], [ 16.416873015063729, 46.511561326377958 ] ] ] } },
{ "type": "Feature", "properties": { "BM": 2759, "longitude": 16.44525834460433, "latitude": 46.337105470425385, "population": 413 }, "geometry": { "type": "Polygon", "coordinates": [ [ [ 16.418969344696407, 46.342681518251645 ], [ 16.424179255843843, 46.348242301223266 ], [ 16.43921065821203, 46.356912401040745 ], [ 16.447438849980973, 46.357966160115353 ], [ 16.475454652772115, 46.337640933544151 ], [ 16.475066402957992, 46.333299781732642 ], [ 16.458285708443821, 46.319468676035704 ], [ 16.423162056920912, 46.322400448655429 ], [ 16.419016148616471, 46.34177229284564 ], [ 16.418969344696407, 46.342681518251645 ] ] ] } },
{ "type": "Feature", "properties": { "BM": 2757, "longitude": 16.411784913263901, "latitude": 46.449188297136914, "population": 745 }, "geometry": { "type": "Polygon", "coordinates": [ [ [ 16.403099601793976, 46.443446531600948 ], [ 16.398653103761244, 46.452628372094892 ], [ 16.420616215975496, 46.457455262711363 ], [ 16.422369054666564, 46.448681022715164 ], [ 16.419993182579493, 46.442385428921476 ], [ 16.404039493416228, 46.442555184798266 ], [ 16.403099601793976, 46.443446531600948 ] ] ] } },
{ "type": "Feature", "properties": { "BM": 2767, "longitude": 16.425823786531176, "latitude": 46.473009381044264, "population": 298 }, "geometry": { "type": "Polygon", "coordinates": [ [ [ 16.412493454800533, 46.47286427800644 ], [ 16.412807613876801, 46.484529574404917 ], [ 16.438647602694502, 46.481000992171047 ], [ 16.440458337770039, 46.467580768258962 ], [ 16.42138259659815, 46.458920722386075 ], [ 16.412493454800533, 46.47286427800644 ] ] ] } },
{ "type": "Feature", "properties": { "BM": 2775, "longitude": 16.426846725187715, "latitude": 46.409131753754593, "population": 1181 }, "geometry": { "type": "Polygon", "coordinates": [ [ [ 16.426337399311855, 46.416158332699929 ], [ 16.433960702809355, 46.409016304588619 ], [ 16.433674404277703, 46.405720669970663 ], [ 16.432610614700664, 46.404258652129535 ], [ 16.417727027794836, 46.406562454542573 ], [ 16.426337399311855, 46.416158332699929 ] ] ] } },
{ "type": "Feature", "properties": { "BM": 2772, "longitude": 16.410672103363964, "latitude": 46.400059364009977, "population": 747 }, "geometry": { "type": "Polygon", "coordinates": [ [ [ 16.40079479316579, 46.405519446041602 ], [ 16.417077989736832, 46.406430667773293 ], [ 16.424952738809733, 46.398260273209402 ], [ 16.421011406692788, 46.395917770494464 ], [ 16.404416785196027, 46.393037825124367 ], [ 16.398353156101066, 46.399267819315426 ], [ 16.40079479316579, 46.405519446041602 ] ] ] } },
{ "type": "Feature", "properties": { "BM": 2773, "longitude": 16.42777726611536, "latitude": 46.363613035364246, "population": 1005 }, "geometry": { "type": "Polygon", "coordinates": [ [ [ 16.417928248465643, 46.375345570612239 ], [ 16.424281264035614, 46.377748414934032 ], [ 16.432837027780185, 46.372255375210216 ], [ 16.43921065821203, 46.356912401040745 ], [ 16.424179255843843, 46.348242301223266 ], [ 16.417928248465643, 46.375345570612239 ] ] ] } },
{ "type": "Feature", "properties": { "BM": 2776, "longitude": 16.41636232567723, "latitude": 46.391453997690931, "population": 684 }, "geometry": { "type": "Polygon", "coordinates": [ [ [ 16.404416785196027, 46.393037825124367 ], [ 16.421011406692788, 46.395917770494464 ], [ 16.423198280165746, 46.391919950067312 ], [ 16.423434702170471, 46.385688895792754 ], [ 16.404689314290355, 46.392310497057622 ], [ 16.404416785196027, 46.393037825124367 ] ] ] } },
{ "type": "Feature", "properties": { "BM": 2777, "longitude": 16.414976612875844, "latitude": 46.383191624482755, "population": 871 }, "geometry": { "type": "Polygon", "coordinates": [ [ [ 16.417928248465643, 46.375345570612239 ], [ 16.407532710435397, 46.379841889616159 ], [ 16.404689314290355, 46.392310497057622 ], [ 16.423434702170471, 46.385688895792754 ], [ 16.424157560230693, 46.385021354704911 ], [ 16.425386295522344, 46.380390349913334 ], [ 16.424281264035614, 46.377748414934032 ], [ 16.417928248465643, 46.375345570612239 ] ] ] } },
{ "type": "Feature", "properties": { "BM": 2722, "longitude": 16.399583569344227, "latitude": 46.474920148139049, "population": 208 }, "geometry": { "type": "Polygon", "coordinates": [ [ [ 16.383784470857027, 46.475802887012378 ], [ 16.398805429933269, 46.485219940310358 ], [ 16.412471501496395, 46.484909314582872 ], [ 16.412807613876801, 46.484529574404917 ], [ 16.412493454800533, 46.47286427800644 ], [ 16.394538411513722, 46.460993893562687 ], [ 16.383784470857027, 46.475802887012378 ] ] ] } },
{ "type": "Feature", "properties": { "BM": 2723, "longitude": 16.401287492095207, "latitude": 46.428822460704907, "population": 356 }, "geometry": { "type": "Polygon", "coordinates": [ [ [ 16.390172116976878, 46.427363509584005 ], [ 16.403099601793976, 46.443446531600948 ], [ 16.404039493416228, 46.442555184798266 ], [ 16.410314490698912, 46.422686253948726 ], [ 16.402907147367628, 46.416823543940268 ], [ 16.390172116976878, 46.427363509584005 ] ] ] } },
{ "type": "Feature", "properties": { "BM": 2721, "longitude": 16.411047770481872, "latitude": 46.360880486601722, "population": 762 }, "geometry": { "type": "Polygon", "coordinates": [ [ [ 16.396204623364802, 46.35973202699261 ], [ 16.407532710435397, 46.379841889616159 ], [ 16.417928248465643, 46.375345570612239 ], [ 16.424179255843843, 46.348242301223266 ], [ 16.418969344696407, 46.342681518251645 ], [ 16.395274214913538, 46.356748512874454 ], [ 16.396204623364802, 46.35973202699261 ] ] ] } },
{ "type": "Feature", "properties": { "BM": 2726, "longitude": 16.427808112477003, "latitude": 46.515687720428623, "population": 399 }, "geometry": { "type": "Polygon", "coordinates": [ [ [ 16.438345779731641, 46.525343199999988 ], [ 16.435584245381531, 46.501043872157318 ], [ 16.416873015063729, 46.511561326377958 ], [ 16.415860392460484, 46.513680516918519 ], [ 16.417536268045229, 46.525343199999988 ], [ 16.438345779731641, 46.525343199999988 ] ] ] } },
{ "type": "Feature", "properties": { "BM": 2727, "longitude": 16.452858216841332, "latitude": 46.514717231438567, "population": 697 }, "geometry": { "type": "Polygon", "coordinates": [ [ [ 16.469826914588651, 46.525343199999988 ], [ 16.45571658556425, 46.499631890145288 ], [ 16.449545116850611, 46.496821695736486 ], [ 16.4398430883281, 46.51737482869018 ], [ 16.439071653093688, 46.525343199999988 ], [ 16.469826914588651, 46.525343199999988 ] ] ] } },
{ "type": "Feature", "properties": { "BM": 2728, "longitude": 16.405795062585316, "latitude": 46.498835572655537, "population": 122 }, "geometry": { "type": "Polygon", "coordinates": [ [ [ 16.394581134279413, 46.506830340148269 ], [ 16.415860392460484, 46.513680516918519 ], [ 16.416873015063729, 46.511561326377958 ], [ 16.412471501496395, 46.484909314582872 ], [ 16.398805429933269, 46.485219940310358 ], [ 16.393695552728321, 46.504508773317596 ], [ 16.394581134279413, 46.506830340148269 ] ] ] } },
{ "type": "Feature", "properties": { "BM": 2735, "longitude": 16.413092715734699, "latitude": 46.414465412732497, "population": 959 }, "geometry": { "type": "Polygon", "coordinates": [ [ [ 16.410314490698912, 46.422686253948726 ], [ 16.419259263085458, 46.424929326257988 ], [ 16.426337399311855, 46.416158332699929 ], [ 16.417727027794836, 46.406562454542573 ], [ 16.417077989736832, 46.406430667773293 ], [ 16.40079479316579, 46.405519446041602 ], [ 16.402907147367628, 46.416823543940268 ], [ 16.410314490698912, 46.422686253948726 ] ] ] } },
{ "type": "Feature", "properties": { "BM": 2736, "longitude": 16.413801668562005, "latitude": 46.433771403003682, "population": 340 }, "geometry": { "type": "Polygon", "coordinates": [ [ [ 16.404039493416228, 46.442555184798266 ], [ 16.419993182579493, 46.442385428921476 ], [ 16.422195072352821, 46.428900465513095 ], [ 16.419259263085458, 46.424929326257988 ], [ 16.410314490698912, 46.422686253948726 ], [ 16.404039493416228, 46.442555184798266 ] ] ] } },
{ "type": "Feature", "properties": { "BM": 2695, "longitude": 16.397586221799255, "latitude": 46.382256934308174, "population": 708 }, "geometry": { "type": "Polygon", "coordinates": [ [ [ 16.398353156101066, 46.399267819315426 ], [ 16.404416785196027, 46.393037825124367 ], [ 16.404689314290355, 46.392310497057622 ], [ 16.407532710435397, 46.379841889616159 ], [ 16.396204623364802, 46.35973202699261 ], [ 16.389480967656286, 46.379433597249978 ], [ 16.389751438771111, 46.394595478026439 ], [ 16.391890714983901, 46.397801668989651 ], [ 16.398353156101066, 46.399267819315426 ] ] ] } },
{ "type": "Feature", "properties": { "BM": 2693, "longitude": 16.39150026326006, "latitude": 46.440764614733339, "population": 801 }, "geometry": { "type": "Polygon", "coordinates": [ [ [ 16.38120066833439, 46.443081638270357 ], [ 16.396062980978446, 46.454072610111325 ], [ 16.398653103761244, 46.452628372094892 ], [ 16.403099601793976, 46.443446531600948 ], [ 16.390172116976878, 46.427363509584005 ], [ 16.382842671546765, 46.430456255280305 ], [ 16.38120066833439, 46.443081638270357 ] ] ] } },
{ "type": "Feature", "properties": { "BM": 2706, "longitude": 16.4077092863253, "latitude": 46.461314662984542, "population": 115 }, "geometry": { "type": "Polygon", "coordinates": [ [ [ 16.394538411513722, 46.460993893562687 ], [ 16.412493454800533, 46.47286427800644 ], [ 16.42138259659815, 46.458920722386075 ], [ 16.420616215975496, 46.457455262711363 ], [ 16.398653103761244, 46.452628372094892 ], [ 16.396062980978446, 46.454072610111325 ], [ 16.394538411513722, 46.460993893562687 ] ] ] } },
{ "type": "Feature", "properties": { "BM": 2718, "longitude": 16.403724819397667, "latitude": 46.324571723972227, "population": 417 }, "geometry": { "type": "Polygon", "coordinates": [ [ [ 16.419016148616471, 46.34177229284564 ], [ 16.423162056920912, 46.322400448655429 ], [ 16.41903504234887, 46.315336712757706 ], [ 16.405804843926202, 46.312692419078545 ], [ 16.380427218466195, 46.315379921887988 ], [ 16.380785103068984, 46.325936438365922 ], [ 16.419016148616471, 46.34177229284564 ] ] ] } },
{ "type": "Feature", "properties": { "BM": 2658, "longitude": 16.390001183418811, "latitude": 46.413399130735542, "population": 609 }, "geometry": { "type": "Polygon", "coordinates": [ [ [ 16.382842671546765, 46.430456255280305 ], [ 16.390172116976878, 46.427363509584005 ], [ 16.402907147367628, 46.416823543940268 ], [ 16.40079479316579, 46.405519446041602 ], [ 16.398353156101066, 46.399267819315426 ], [ 16.391890714983901, 46.397801668989651 ], [ 16.380298455316336, 46.403735302854209 ], [ 16.379355830622305, 46.427489145354002 ], [ 16.382842671546765, 46.430456255280305 ] ] ] } },
{ "type": "Feature", "properties": { "BM": 2674, "longitude": 16.39510776299117, "latitude": 46.341956227581697, "population": 974 }, "geometry": { "type": "Polygon", "coordinates": [ [ [ 16.378151580493306, 46.338600268447884 ], [ 16.389247608809363, 46.355564540972871 ], [ 16.395274214913538, 46.356748512874454 ], [ 16.418969344696407, 46.342681518251645 ], [ 16.419016148616471, 46.34177229284564 ], [ 16.380785103068984, 46.325936438365922 ], [ 16.378151580493306, 46.338600268447884 ] ] ] } },
{ "type": "Feature", "properties": { "BM": 2675, "longitude": 16.383158494910521, "latitude": 46.374385634928579, "population": 517 }, "geometry": { "type": "Polygon", "coordinates": [ [ [ 16.381982944931046, 46.377325160607327 ], [ 16.384755058378602, 46.377241465308551 ], [ 16.385323417885306, 46.376750816216841 ], [ 16.382051042947563, 46.36870830170448 ], [ 16.381982944931046, 46.377325160607327 ] ] ] } },
{ "type": "Feature", "properties": { "BM": 2673, "longitude": 16.382392970117312, "latitude": 46.379639232654974, "population": 732 }, "geometry": { "type": "Polygon", "coordinates": [ [ [ 16.380440907042289, 46.384351072049057 ], [ 16.384755058378602, 46.377241465308551 ], [ 16.381982944931046, 46.377325160607327 ], [ 16.380440907042289, 46.384351072049057 ] ] ] } },
{ "type": "Feature", "properties": { "BM": 2676, "longitude": 16.376361216158251, "latitude": 46.504791922767346, "population": 236 }, "geometry": { "type": "Polygon", "coordinates": [ [ [ 16.358978979657813, 46.502795903629845 ], [ 16.37985914202736, 46.521050743870148 ], [ 16.394581134279413, 46.506830340148269 ], [ 16.393695552728321, 46.504508773317596 ], [ 16.368678500852884, 46.488781704055434 ], [ 16.358978979657813, 46.502795903629845 ] ] ] } },
{ "type": "Feature", "properties": { "BM": 2677, "longitude": 16.385868958646757, "latitude": 46.385018458457893, "population": 748 }, "geometry": { "type": "Polygon", "coordinates": [ [ [ 16.379873337873207, 46.386102081691831 ], [ 16.389751438771111, 46.394595478026439 ], [ 16.389480967656286, 46.379433597249978 ], [ 16.385323417885306, 46.376750816216841 ], [ 16.384755058378602, 46.377241465308551 ], [ 16.380440907042289, 46.384351072049057 ], [ 16.379873337873207, 46.386102081691831 ] ] ] } },
{ "type": "Feature", "properties": { "BM": 2685, "longitude": 16.384558219900274, "latitude": 46.488326036691767, "population": 889 }, "geometry": { "type": "Polygon", "coordinates": [ [ [ 16.368678500852884, 46.488781704055434 ], [ 16.393695552728321, 46.504508773317596 ], [ 16.398805429933269, 46.485219940310358 ], [ 16.383784470857027, 46.475802887012378 ], [ 16.371570038702714, 46.478674707296548 ], [ 16.368678500852884, 46.488781704055434 ] ] ] } },
{ "type": "Feature", "properties": { "BM": 2624, "longitude": 16.370501006888592, "latitude": 46.43533443737806, "population": 547 }, "geometry": { "type": "Polygon", "coordinates": [ [ [ 16.356791075007575, 46.441549257779812 ], [ 16.374748255010186, 46.446404606785137 ], [ 16.38120066833439, 46.443081638270357 ], [ 16.382842671546765, 46.430456255280305 ], [ 16.379355830622305, 46.427489145354002 ], [ 16.363220462672203, 46.423373888679926 ], [ 16.356791075007575, 46.441549257779812 ] ] ] } },
{ "type": "Feature", "properties": { "BM": 2638, "longitude": 16.364208844886875, "latitude": 46.385485680980509, "population": 476 }, "geometry": { "type": "Polygon", "coordinates": [ [ [ 16.358089372368234, 46.398183763252902 ], [ 16.379066015126458, 46.385716637290322 ], [ 16.370484925405581, 46.378028619041856 ], [ 16.353179958663066, 46.376282110277856 ], [ 16.358089372368234, 46.398183763252902 ] ] ] } },
{ "type": "Feature", "properties": { "BM": 2637, "longitude": 16.369703579987611, "latitude": 46.414176575077931, "population": 396 }, "geometry": { "type": "Polygon", "coordinates": [ [ [ 16.379355830622305, 46.427489145354002 ], [ 16.380298455316336, 46.403735302854209 ], [ 16.358517282893509, 46.404896757072812 ], [ 16.355492144171933, 46.409305103139886 ], [ 16.363220462672203, 46.423373888679926 ], [ 16.379355830622305, 46.427489145354002 ] ] ] } },
{ "type": "Feature", "properties": { "BM": 2646, "longitude": 16.391258474830124, "latitude": 46.305158306375297, "population": 298 }, "geometry": { "type": "Polygon", "coordinates": [ [ [ 16.379020345354231, 46.314000305468326 ], [ 16.380427218466195, 46.315379921887988 ], [ 16.405804843926202, 46.312692419078545 ], [ 16.399907500643298, 46.298354425043527 ], [ 16.388192781188419, 46.29209378844569 ], [ 16.383878931801178, 46.293399678046555 ], [ 16.379020345354231, 46.314000305468326 ] ] ] } },
{ "type": "Feature", "properties": { "BM": 2648, "longitude": 16.388953067055947, "latitude": 46.366323064816413, "population": 776 }, "geometry": { "type": "Polygon", "coordinates": [ [ [ 16.381835432246941, 46.367563716899483 ], [ 16.382051042947563, 46.36870830170448 ], [ 16.385323417885306, 46.376750816216841 ], [ 16.389480967656286, 46.379433597249978 ], [ 16.396204623364802, 46.35973202699261 ], [ 16.395274214913538, 46.356748512874454 ], [ 16.389247608809363, 46.355564540972871 ], [ 16.387311495751216, 46.357019467012066 ], [ 16.381835432246941, 46.367563716899483 ] ] ] } },
{ "type": "Feature", "properties": { "BM": 2649, "longitude": 16.377831003972915, "latitude": 46.377266515915139, "population": 628 }, "geometry": { "type": "Polygon", "coordinates": [ [ [ 16.370484925405581, 46.378028619041856 ], [ 16.379066015126458, 46.385716637290322 ], [ 16.379873337873207, 46.386102081691831 ], [ 16.380440907042289, 46.384351072049057 ], [ 16.381982944931046, 46.377325160607327 ], [ 16.382051042947563, 46.36870830170448 ], [ 16.381835432246941, 46.367563716899483 ], [ 16.370484925405581, 46.378028619041856 ] ] ] } },
{ "type": "Feature", "properties": { "BM": 2595, "longitude": 16.374657160643796, "latitude": 46.39696362873309, "population": 741 }, "geometry": { "type": "Polygon", "coordinates": [ [ [ 16.358517282893509, 46.404896757072812 ], [ 16.380298455316336, 46.403735302854209 ], [ 16.391890714983901, 46.397801668989651 ], [ 16.389751438771111, 46.394595478026439 ], [ 16.379873337873207, 46.386102081691831 ], [ 16.379066015126458, 46.385716637290322 ], [ 16.358089372368234, 46.398183763252902 ], [ 16.358517282893509, 46.404896757072812 ] ] ] } },
{ "type": "Feature", "properties": { "BM": 2618, "longitude": 16.36805798946887, "latitude": 46.368378892602941, "population": 549 }, "geometry": { "type": "Polygon", "coordinates": [ [ [ 16.353179958663066, 46.376282110277856 ], [ 16.370484925405581, 46.378028619041856 ], [ 16.381835432246941, 46.367563716899483 ], [ 16.387311495751216, 46.357019467012066 ], [ 16.366313402520259, 46.361306371247018 ], [ 16.348129294314646, 46.370450821789845 ], [ 16.353179958663066, 46.376282110277856 ] ] ] } },
{ "type": "Feature", "properties": { "BM": 2619, "longitude": 16.365290478344019, "latitude": 46.455478743867751, "population": 392 }, "geometry": { "type": "Polygon", "coordinates": [ [ [ 16.355526665020424, 46.442236288722 ], [ 16.362872699033122, 46.471239477973867 ], [ 16.368059552192747, 46.474108664005414 ], [ 16.374748255010186, 46.446404606785137 ], [ 16.356791075007575, 46.441549257779812 ], [ 16.355526665020424, 46.442236288722 ] ] ] } },
{ "type": "Feature", "properties": { "BM": 2622, "longitude": 16.39944543445646, "latitude": 46.518138761395079, "population": 555 }, "geometry": { "type": "Polygon", "coordinates": [ [ [ 16.417536268045229, 46.525343199999988 ], [ 16.415860392460484, 46.513680516918519 ], [ 16.394581134279413, 46.506830340148269 ], [ 16.37985914202736, 46.521050743870148 ], [ 16.380674964730623, 46.525343199999988 ], [ 16.417536268045229, 46.525343199999988 ] ] ] } },
{ "type": "Feature", "properties": { "BM": 2620, "longitude": 16.3756977293151, "latitude": 46.350484139980857, "population": 467 }, "geometry": { "type": "Polygon", "coordinates": [ [ [ 16.366313402520259, 46.361306371247018 ], [ 16.387311495751216, 46.357019467012066 ], [ 16.389247608809363, 46.355564540972871 ], [ 16.378151580493306, 46.338600268447884 ], [ 16.367308509122832, 46.340935854982774 ], [ 16.366313402520259, 46.361306371247018 ] ] ] } },
{ "type": "Feature", "properties": { "BM": 2621, "longitude": 16.381147733089151, "latitude": 46.461233946319616, "population": 286 }, "geometry": { "type": "Polygon", "coordinates": [ [ [ 16.371570038702714, 46.478674707296548 ], [ 16.383784470857027, 46.475802887012378 ], [ 16.394538411513722, 46.460993893562687 ], [ 16.396062980978446, 46.454072610111325 ], [ 16.38120066833439, 46.443081638270357 ], [ 16.374748255010186, 46.446404606785137 ], [ 16.368059552192747, 46.474108664005414 ], [ 16.371570038702714, 46.478674707296548 ] ] ] } },
{ "type": "Feature", "properties": { "BM": 2567, "longitude": 16.365928205077211, "latitude": 46.328027330392132, "population": 585 }, "geometry": { "type": "Polygon", "coordinates": [ [ [ 16.345828779656252, 46.340992475245898 ], [ 16.367308509122832, 46.340935854982774 ], [ 16.378151580493306, 46.338600268447884 ], [ 16.380785103068984, 46.325936438365922 ], [ 16.380427218466195, 46.315379921887988 ], [ 16.379020345354231, 46.314000305468326 ], [ 16.367538747532581, 46.31153202748181 ], [ 16.357762398463624, 46.318251462501493 ], [ 16.356710450990761, 46.319951525778301 ], [ 16.347713235144916, 46.336294324170801 ], [ 16.345828779656252, 46.340992475245898 ] ] ] } },
{ "type": "Feature", "properties": { "BM": 2568, "longitude": 16.349893136466967, "latitude": 46.455572129922757, "population": 342 }, "geometry": { "type": "Polygon", "coordinates": [ [ [ 16.335033624933391, 46.449383876902054 ], [ 16.349179760842709, 46.468887446492069 ], [ 16.362872699033122, 46.471239477973867 ], [ 16.355526665020424, 46.442236288722 ], [ 16.343589867025244, 46.443089449107433 ], [ 16.337266638113231, 46.445083497381653 ], [ 16.335033624933391, 46.449383876902054 ] ] ] } },
{ "type": "Feature", "properties": { "BM": 2575, "longitude": 16.353641013389076, "latitude": 46.427924551507701, "population": 310 }, "geometry": { "type": "Polygon", "coordinates": [ [ [ 16.351735620397225, 46.410227536270199 ], [ 16.343589867025244, 46.443089449107433 ], [ 16.355526665020424, 46.442236288722 ], [ 16.356791075007575, 46.441549257779812 ], [ 16.363220462672203, 46.423373888679926 ], [ 16.355492144171933, 46.409305103139886 ], [ 16.351735620397225, 46.410227536270199 ] ] ] } },
{ "type": "Feature", "properties": { "BM": 3040, "longitude": 16.551215621195457, "latitude": 46.429268948364182, "population": 698 }, "geometry": { "type": "Polygon", "coordinates": [ [ [ 16.529226376728278, 46.440490179331441 ], [ 16.561351989882979, 46.447238345232122 ], [ 16.575389989993965, 46.425225055489967 ], [ 16.574328763946657, 46.420508024811419 ], [ 16.557244967894544, 46.414530629052372 ], [ 16.541729901332715, 46.410026228502872 ], [ 16.527415368427171, 46.43519403209919 ], [ 16.529226376728278, 46.440490179331441 ] ] ] } },
{ "type": "Feature", "properties": { "BM": 3054, "longitude": 16.545065776252823, "latitude": 46.365432671966481, "population": 273 }, "geometry": { "type": "Polygon", "coordinates": [ [ [ 16.5309032150608, 46.376938356737611 ], [ 16.558543618911891, 46.378103480060794 ], [ 16.563448029292218, 46.373371820187913 ], [ 16.563565534512886, 46.359084876971238 ], [ 16.52954291139207, 46.34987820602197 ], [ 16.527513350907213, 46.351063065803018 ], [ 16.530289152787304, 46.373148470030713 ], [ 16.5309032150608, 46.376938356737611 ] ] ] } },
{ "type": "Feature", "properties": { "BM": 3055, "longitude": 16.523531979833102, "latitude": 46.383903188369096, "population": 1016 }, "geometry": { "type": "Polygon", "coordinates": [ [ [ 16.530289152787304, 46.373148470030713 ], [ 16.514349219639545, 46.389710449350318 ], [ 16.522739104956372, 46.391333822456183 ], [ 16.5309032150608, 46.376938356737611 ], [ 16.530289152787304, 46.373148470030713 ] ] ] } },
{ "type": "Feature", "properties": { "BM": 3012, "longitude": 16.5159763322524, "latitude": 46.340811863847122, "population": 565 }, "geometry": { "type": "Polygon", "coordinates": [ [ [ 16.497255719540011, 46.364107417858833 ], [ 16.527513350907213, 46.351063065803018 ], [ 16.52954291139207, 46.34987820602197 ], [ 16.525514639604168, 46.31222568869034 ], [ 16.524635198451129, 46.311828010450583 ], [ 16.50832012238941, 46.33279695311122 ], [ 16.496936031093622, 46.363676523754748 ], [ 16.497255719540011, 46.364107417858833 ] ] ] } },
{ "type": "Feature", "properties": { "BM": 3022, "longitude": 16.504152976375522, "latitude": 46.320011888051695, "population": 501 }, "geometry": { "type": "Polygon", "coordinates": [ [ [ 16.494433371386101, 46.31259097798673 ], [ 16.482008225118552, 46.326081757378475 ], [ 16.50832012238941, 46.33279695311122 ], [ 16.524635198451129, 46.311828010450583 ], [ 16.51764431994042, 46.308081929365777 ], [ 16.494433371386101, 46.31259097798673 ] ] ] } },
{ "type": "Feature", "properties": { "BM": 3025, "longitude": 16.521311928033789, "latitude": 46.410538970610965, "population": 759 }, "geometry": { "type": "Polygon", "coordinates": [ [ [ 16.527415368427171, 46.43519403209919 ], [ 16.541729901332715, 46.410026228502872 ], [ 16.540473631931803, 46.398620674676351 ], [ 16.522739104956372, 46.391333822456183 ], [ 16.514349219639545, 46.389710449350318 ], [ 16.509414905467427, 46.388791026979469 ], [ 16.500292179716023, 46.419662121241238 ], [ 16.527415368427171, 46.43519403209919 ] ] ] } },
{ "type": "Feature", "properties": { "BM": 3029, "longitude": 16.55482018286553, "latitude": 46.462807602431639, "population": 1064 }, "geometry": { "type": "Polygon", "coordinates": [ [ [ 16.525582647103718, 46.45208763178065 ], [ 16.587627104931329, 46.499079326574346 ], [ 16.561351989882979, 46.447238345232122 ], [ 16.529226376728278, 46.440490179331441 ], [ 16.526011414911714, 46.447982929350665 ], [ 16.525582647103718, 46.45208763178065 ] ] ] } },
{ "type": "Feature", "properties": { "BM": 3038, "longitude": 16.520580461052564, "latitude": 46.480434636097797, "population": 148 }, "geometry": { "type": "Polygon", "coordinates": [ [ [ 16.501166890270827, 46.471092742995879 ], [ 16.536755374599842, 46.510763432213196 ], [ 16.523819118287022, 46.459447733084325 ], [ 16.501166890270827, 46.471092742995879 ] ] ] } },
{ "type": "Feature", "properties": { "BM": 3002, "longitude": 16.504746362877171, "latitude": 46.459603195955424, "population": 292 }, "geometry": { "type": "Polygon", "coordinates": [ [ [ 16.501166890270827, 46.471092742995879 ], [ 16.523819118287022, 46.459447733084325 ], [ 16.525582647103718, 46.45208763178065 ], [ 16.526011414911714, 46.447982929350665 ], [ 16.487013031561709, 46.454102967798342 ], [ 16.488265755642338, 46.471451738360074 ], [ 16.490678988847016, 46.472170379991496 ], [ 16.501166890270827, 46.471092742995879 ] ] ] } },
{ "type": "Feature", "properties": { "BM": 3000, "longitude": 16.557782958802449, "latitude": 46.498522455509246, "population": 574 }, "geometry": { "type": "Polygon", "coordinates": [ [ [ 16.602877788419384, 46.525343199999988 ], [ 16.587627104931329, 46.499079326574346 ], [ 16.525582647103718, 46.45208763178065 ], [ 16.523819118287022, 46.459447733084325 ], [ 16.536755374599842, 46.510763432213196 ], [ 16.542070577124761, 46.525343199999988 ], [ 16.602877788419384, 46.525343199999988 ] ] ] } },
{ "type": "Feature", "properties": { "BM": 3001, "longitude": 16.517864590779105, "latitude": 46.500629601449312, "population": 358 }, "geometry": { "type": "Polygon", "coordinates": [ [ [ 16.542070577124761, 46.525343199999988 ], [ 16.536755374599842, 46.510763432213196 ], [ 16.501166890270827, 46.471092742995879 ], [ 16.490678988847016, 46.472170379991496 ], [ 16.525237011361476, 46.525343199999988 ], [ 16.542070577124761, 46.525343199999988 ] ] ] } },
{ "type": "Feature", "properties": { "BM": 2951, "longitude": 16.499246678581468, "latitude": 46.502677067969387, "population": 485 }, "geometry": { "type": "Polygon", "coordinates": [ [ [ 16.525237011361476, 46.525343199999988 ], [ 16.490678988847016, 46.472170379991496 ], [ 16.488265755642338, 46.471451738360074 ], [ 16.478956856371401, 46.478730051835036 ], [ 16.496047468640441, 46.525343199999988 ], [ 16.525237011361476, 46.525343199999988 ] ] ] } },
{ "type": "Feature", "properties": { "BM": 2952, "longitude": 16.500855591962015, "latitude": 46.437436123007068, "population": 660 }, "geometry": { "type": "Polygon", "coordinates": [ [ [ 16.487013031561709, 46.454102967798342 ], [ 16.526011414911714, 46.447982929350665 ], [ 16.529226376728278, 46.440490179331441 ], [ 16.527415368427171, 46.43519403209919 ], [ 16.500292179716023, 46.419662121241238 ], [ 16.477358493957595, 46.425440072431023 ], [ 16.476879774533526, 46.43727000664726 ], [ 16.487013031561709, 46.454102967798342 ] ] ] } },
{ "type": "Feature", "properties": { "BM": 2959, "longitude": 16.515112637024522, "latitude": 46.370102649585803, "population": 748 }, "geometry": { "type": "Polygon", "coordinates": [ [ [ 16.496929208672046, 46.36693499464873 ], [ 16.509414905467427, 46.388791026979469 ], [ 16.514349219639545, 46.389710449350318 ], [ 16.530289152787304, 46.373148470030713 ], [ 16.527513350907213, 46.351063065803018 ], [ 16.497255719540011, 46.364107417858833 ], [ 16.497003440521748, 46.365965115006517 ], [ 16.496929208672046, 46.36693499464873 ] ] ] } },
{ "type": "Feature", "properties": { "BM": 2963, "longitude": 16.499697445422726, "latitude": 46.291794555812395, "population": 322 }, "geometry": { "type": "Polygon", "coordinates": [ [ [ 16.479437381089312, 46.281378022300089 ], [ 16.494433371386101, 46.31259097798673 ], [ 16.51764431994042, 46.308081929365777 ], [ 16.514478283467291, 46.283631261904929 ], [ 16.495708110764085, 46.269378238068178 ], [ 16.491921946746377, 46.2716666917512 ], [ 16.479437381089312, 46.281378022300089 ] ] ] } },
{ "type": "Feature", "properties": { "BM": 2915, "longitude": 16.475796824544151, "latitude": 46.505683598323927, "population": 986 }, "geometry": { "type": "Polygon", "coordinates": [ [ [ 16.496047468640441, 46.525343199999988 ], [ 16.478956856371401, 46.478730051835036 ], [ 16.476157033463227, 46.478941431477139 ], [ 16.45571658556425, 46.499631890145288 ], [ 16.469826914588651, 46.525343199999988 ], [ 16.496047468640441, 46.525343199999988 ] ] ] } },
{ "type": "Feature", "properties": { "BM": 2942, "longitude": 16.491883698393654, "latitude": 46.341147163631284, "population": 308 }, "geometry": { "type": "Polygon", "coordinates": [ [ [ 16.475454652772115, 46.337640933544151 ], [ 16.496936031093622, 46.363676523754748 ], [ 16.50832012238941, 46.33279695311122 ], [ 16.482008225118552, 46.326081757378475 ], [ 16.475066402957992, 46.333299781732642 ], [ 16.475454652772115, 46.337640933544151 ] ] ] } },
{ "type": "Feature", "properties": { "BM": 2940, "longitude": 16.49316447234353, "latitude": 46.398918626176538, "population": 1041 }, "geometry": { "type": "Polygon", "coordinates": [ [ [ 16.477358493957595, 46.425440072431023 ], [ 16.500292179716023, 46.419662121241238 ], [ 16.509414905467427, 46.388791026979469 ], [ 16.496929208672046, 46.36693499464873 ], [ 16.489324247145099, 46.373637374563778 ], [ 16.475258984673836, 46.423726566205097 ], [ 16.477358493957595, 46.425440072431023 ] ] ] } },
{ "type": "Feature", "properties": { "BM": 2881, "longitude": 16.471679804063598, "latitude": 46.357117631347172, "population": 313 }, "geometry": { "type": "Polygon", "coordinates": [ [ [ 16.448242406084791, 46.360327769018241 ], [ 16.455586528738454, 46.370039217890977 ], [ 16.497003440521748, 46.365965115006517 ], [ 16.497255719540011, 46.364107417858833 ], [ 16.496936031093622, 46.363676523754748 ], [ 16.475454652772115, 46.337640933544151 ], [ 16.447438849980973, 46.357966160115353 ], [ 16.448242406084791, 46.360327769018241 ] ] ] } },
{ "type": "Feature", "properties": { "BM": 2890, "longitude": 16.474363189417289, "latitude": 46.397148051501276, "population": 1181 }, "geometry": { "type": "Polygon", "coordinates": [ [ [ 16.462552184785171, 46.388256857503293 ], [ 16.462162834263648, 46.393280762396429 ], [ 16.467451913772116, 46.41515308528696 ], [ 16.469619129610436, 46.420846500456115 ], [ 16.475258984673836, 46.423726566205097 ], [ 16.489324247145099, 46.373637374563778 ], [ 16.463608230659187, 46.386522006658289 ], [ 16.462552184785171, 46.388256857503293 ] ] ] } },
{ "type": "Feature", "properties": { "BM": 2895, "longitude": 16.474177635604079, "latitude": 46.45986160894843, "population": 462 }, "geometry": { "type": "Polygon", "coordinates": [ [ [ 16.467967285728243, 46.47313232007177 ], [ 16.476157033463227, 46.478941431477139 ], [ 16.478956856371401, 46.478730051835036 ], [ 16.488265755642338, 46.471451738360074 ], [ 16.487013031561709, 46.454102967798342 ], [ 16.476879774533526, 46.43727000664726 ], [ 16.454626363249893, 46.459625314020769 ], [ 16.467967285728243, 46.47313232007177 ] ] ] } },
{ "type": "Feature", "properties": { "BM": 2896, "longitude": 16.473601388749596, "latitude": 46.374274532435805, "population": 722 }, "geometry": { "type": "Polygon", "coordinates": [ [ [ 16.463608230659187, 46.386522006658289 ], [ 16.489324247145099, 46.373637374563778 ], [ 16.496929208672046, 46.36693499464873 ], [ 16.497003440521748, 46.365965115006517 ], [ 16.455586528738454, 46.370039217890977 ], [ 16.463608230659187, 46.386522006658289 ] ] ] } },
{ "type": "Feature", "properties": { "BM": 2851, "longitude": 16.450915951282294, "latitude": 46.413012040562243, "population": 1294 }, "geometry": { "type": "Polygon", "coordinates": [ [ [ 16.45228169732388, 46.423762654526975 ], [ 16.469619129610436, 46.420846500456115 ], [ 16.467451913772116, 46.41515308528696 ], [ 16.442831331578166, 46.400574047527691 ], [ 16.433674404277703, 46.405720669970663 ], [ 16.433960702809355, 46.409016304588619 ], [ 16.45228169732388, 46.423762654526975 ] ] ] } },
{ "type": "Feature", "properties": { "BM": 2849, "longitude": 16.438985150218926, "latitude": 46.390599283447919, "population": 607 }, "geometry": { "type": "Polygon", "coordinates": [ [ [ 16.43828693622126, 46.392511035489228 ], [ 16.440351028060931, 46.392097844590744 ], [ 16.440849176631382, 46.390263347652507 ], [ 16.44030483326528, 46.389445817108871 ], [ 16.438205070919949, 46.388930041082197 ], [ 16.437145166734538, 46.389073709432402 ], [ 16.436991802695463, 46.389287158290898 ], [ 16.43828693622126, 46.392511035489228 ] ] ] } },
{ "type": "Feature", "properties": { "BM": 2854, "longitude": 16.439634844129618, "latitude": 46.388462047731039, "population": 437 }, "geometry": { "type": "Polygon", "coordinates": [ [ [ 16.440012263400178, 46.387254823745785 ], [ 16.438205070919949, 46.388930041082197 ], [ 16.44030483326528, 46.389445817108871 ], [ 16.440458533088712, 46.387488855066117 ], [ 16.440012263400178, 46.387254823745785 ] ] ] } },
{ "type": "Feature", "properties": { "BM": 2858, "longitude": 16.458405442603315, "latitude": 46.486255731392546, "population": 656 }, "geometry": { "type": "Polygon", "coordinates": [ [ [ 16.444664606129347, 46.494069491417982 ], [ 16.449545116850611, 46.496821695736486 ], [ 16.45571658556425, 46.499631890145288 ], [ 16.476157033463227, 46.478941431477139 ], [ 16.467967285728243, 46.47313232007177 ], [ 16.441935037899306, 46.487098457667109 ], [ 16.444664606129347, 46.494069491417982 ] ] ] } },
{ "type": "Feature", "properties": { "BM": 2857, "longitude": 16.443053811653318, "latitude": 46.387959758968265, "population": 943 }, "geometry": { "type": "Polygon", "coordinates": [ [ [ 16.44030483326528, 46.389445817108871 ], [ 16.440849176631382, 46.390263347652507 ], [ 16.445942220884813, 46.387584751296323 ], [ 16.446934394064595, 46.385941753438509 ], [ 16.440458533088712, 46.387488855066117 ], [ 16.44030483326528, 46.389445817108871 ] ] ] } },
{ "type": "Feature", "properties": { "BM": 2862, "longitude": 16.452540063395336, "latitude": 46.391118689494583, "population": 1012 }, "geometry": { "type": "Polygon", "coordinates": [ [ [ 16.446934394064595, 46.385941753438509 ], [ 16.445942220884813, 46.387584751296323 ], [ 16.44404538469195, 46.394591578559449 ], [ 16.444988416574169, 46.39750842906615 ], [ 16.462162834263648, 46.393280762396429 ], [ 16.462552184785171, 46.388256857503293 ], [ 16.448627333071805, 46.385174004491709 ], [ 16.447554486112942, 46.385263782283332 ], [ 16.446934394064595, 46.385941753438509 ] ] ] } },
{ "type": "Feature", "properties": { "BM": 2863, "longitude": 16.445796080095786, "latitude": 46.377041447020211, "population": 638 }, "geometry": { "type": "Polygon", "coordinates": [ [ [ 16.447554486112942, 46.385263782283332 ], [ 16.448627333071805, 46.385174004491709 ], [ 16.447416654946068, 46.364350537427299 ], [ 16.4413394703206, 46.380874229808086 ], [ 16.447554486112942, 46.385263782283332 ] ] ] } },
{ "type": "Feature", "properties": { "BM": 2860, "longitude": 16.443225300202215, "latitude": 46.391125572243283, "population": 678 }, "geometry": { "type": "Polygon", "coordinates": [ [ [ 16.440351028060931, 46.392097844590744 ], [ 16.44404538469195, 46.394591578559449 ], [ 16.445942220884813, 46.387584751296323 ], [ 16.440849176631382, 46.390263347652507 ], [ 16.440351028060931, 46.392097844590744 ] ] ] } },
{ "type": "Feature", "properties": { "BM": 2866, "longitude": 16.473045418237767, "latitude": 46.304989652333752, "population": 702 }, "geometry": { "type": "Polygon", "coordinates": [ [ [ 16.456874523869338, 46.280794587516979 ], [ 16.458285708443821, 46.319468676035704 ], [ 16.475066402957992, 46.333299781732642 ], [ 16.482008225118552, 46.326081757378475 ], [ 16.494433371386101, 46.31259097798673 ], [ 16.479437381089312, 46.281378022300089 ], [ 16.46076172775637, 46.280717094547882 ], [ 16.458708008423862, 46.280737791613859 ], [ 16.456874523869338, 46.280794587516979 ] ] ] } },
{ "type": "Feature", "properties": { "BM": 2878, "longitude": 16.456836489755279, "latitude": 46.40249557468762, "population": 483 }, "geometry": { "type": "Polygon", "coordinates": [ [ [ 16.467451913772116, 46.41515308528696 ], [ 16.462162834263648, 46.393280762396429 ], [ 16.444988416574169, 46.39750842906615 ], [ 16.442831331578166, 46.400574047527691 ], [ 16.467451913772116, 46.41515308528696 ] ] ] } },
{ "type": "Feature", "properties": { "BM": 2877, "longitude": 16.45373335516701, "latitude": 46.377070869347904, "population": 954 }, "geometry": { "type": "Polygon", "coordinates": [ [ [ 16.447416654946068, 46.364350537427299 ], [ 16.448627333071805, 46.385174004491709 ], [ 16.462552184785171, 46.388256857503293 ], [ 16.463608230659187, 46.386522006658289 ], [ 16.455586528738454, 46.370039217890977 ], [ 16.448242406084791, 46.360327769018241 ], [ 16.447416654946068, 46.364350537427299 ] ] ] } },
{ "type": "Feature", "properties": { "BM": 2818, "longitude": 16.440516432549295, "latitude": 46.368445050627457, "population": 425 }, "geometry": { "type": "Polygon", "coordinates": [ [ [ 16.4371758816844, 46.381458957222314 ], [ 16.4413394703206, 46.380874229808086 ], [ 16.447416654946068, 46.364350537427299 ], [ 16.448242406084791, 46.360327769018241 ], [ 16.447438849980973, 46.357966160115353 ], [ 16.43921065821203, 46.356912401040745 ], [ 16.432837027780185, 46.372255375210216 ], [ 16.4371758816844, 46.381458957222314 ] ] ] } },
{ "type": "Feature", "properties": { "BM": 2816, "longitude": 16.437986944574472, "latitude": 46.514933383264371, "population": 1010 }, "geometry": { "type": "Polygon", "coordinates": [ [ [ 16.439071653093688, 46.525343199999988 ], [ 16.4398430883281, 46.51737482869018 ], [ 16.435738657987557, 46.5009533885843 ], [ 16.435584245381531, 46.501043872157318 ], [ 16.438345779731641, 46.525343199999988 ], [ 16.439071653093688, 46.525343199999988 ] ] ] } },
{ "type": "Feature", "properties": { "BM": 2817, "longitude": 16.431059080107556, "latitude": 46.378761653849068, "population": 690 }, "geometry": { "type": "Polygon", "coordinates": [ [ [ 16.425386295522344, 46.380390349913334 ], [ 16.432141587839453, 46.384286118655005 ], [ 16.43687183696499, 46.38187604267636 ], [ 16.4371758816844, 46.381458957222314 ], [ 16.432837027780185, 46.372255375210216 ], [ 16.424281264035614, 46.377748414934032 ], [ 16.425386295522344, 46.380390349913334 ] ] ] } },
{ "type": "Feature", "properties": { "BM": 2827, "longitude": 16.434636570307738, "latitude": 46.386304586333154, "population": 273 }, "geometry": { "type": "Polygon", "coordinates": [ [ [ 16.431250440279729, 46.389706244299092 ], [ 16.431252955287075, 46.389712421520834 ], [ 16.436991802695463, 46.389287158290898 ], [ 16.437145166734538, 46.389073709432402 ], [ 16.437437183910703, 46.384034815675406 ], [ 16.43687183696499, 46.38187604267636 ], [ 16.432141587839453, 46.384286118655005 ], [ 16.431250440279729, 46.389706244299092 ] ] ] } },
{ "type": "Feature", "properties": { "BM": 2833, "longitude": 16.441590318711121, "latitude": 46.384180729330211, "population": 567 }, "geometry": { "type": "Polygon", "coordinates": [ [ [ 16.43687183696499, 46.38187604267636 ], [ 16.437437183910703, 46.384034815675406 ], [ 16.440012263400178, 46.387254823745785 ], [ 16.440458533088712, 46.387488855066117 ], [ 16.446934394064595, 46.385941753438509 ], [ 16.447554486112942, 46.385263782283332 ], [ 16.4413394703206, 46.380874229808086 ], [ 16.4371758816844, 46.381458957222314 ], [ 16.43687183696499, 46.38187604267636 ] ] ] } },
{ "type": "Feature", "properties": { "BM": 2839, "longitude": 16.458276099050234, "latitude": 46.438467134368196, "population": 491 }, "geometry": { "type": "Polygon", "coordinates": [ [ [ 16.440685934770752, 46.442402416482871 ], [ 16.448363064869863, 46.460292825669853 ], [ 16.454626363249893, 46.459625314020769 ], [ 16.476879774533526, 46.43727000664726 ], [ 16.477358493957595, 46.425440072431023 ], [ 16.475258984673836, 46.423726566205097 ], [ 16.469619129610436, 46.420846500456115 ], [ 16.45228169732388, 46.423762654526975 ], [ 16.441265018835637, 46.433931655166539 ], [ 16.440685934770752, 46.442402416482871 ] ] ] } },
{ "type": "Feature", "properties": { "BM": 2836, "longitude": 16.438211645932487, "latitude": 46.398710784635796, "population": 689 }, "geometry": { "type": "Polygon", "coordinates": [ [ [ 16.431234898268027, 46.401366500090809 ], [ 16.432610614700664, 46.404258652129535 ], [ 16.433674404277703, 46.405720669970663 ], [ 16.442831331578166, 46.400574047527691 ], [ 16.444988416574169, 46.39750842906615 ], [ 16.44404538469195, 46.394591578559449 ], [ 16.440351028060931, 46.392097844590744 ], [ 16.43828693622126, 46.392511035489228 ], [ 16.431234898268027, 46.401366500090809 ] ] ] } },
{ "type": "Feature", "properties": { "BM": 2837, "longitude": 16.450799860266635, "latitude": 46.472549876251321, "population": 432 }, "geometry": { "type": "Polygon", "coordinates": [ [ [ 16.440458337770039, 46.467580768258962 ], [ 16.438647602694502, 46.481000992171047 ], [ 16.441935037899306, 46.487098457667109 ], [ 16.467967285728243, 46.47313232007177 ], [ 16.454626363249893, 46.459625314020769 ], [ 16.448363064869863, 46.460292825669853 ], [ 16.440458337770039, 46.467580768258962 ] ] ] } },
{ "type": "Feature", "properties": { "BM": 2846, "longitude": 16.442018644792274, "latitude": 46.503553048332954, "population": 590 }, "geometry": { "type": "Polygon", "coordinates": [ [ [ 16.435738657987557, 46.5009533885843 ], [ 16.4398430883281, 46.51737482869018 ], [ 16.449545116850611, 46.496821695736486 ], [ 16.444664606129347, 46.494069491417982 ], [ 16.435738657987557, 46.5009533885843 ] ] ] } },
{ "type": "Feature", "properties": { "BM": 2845, "longitude": 16.43822334901401, "latitude": 46.386948076291716, "population": 473 }, "geometry": { "type": "Polygon", "coordinates": [ [ [ 16.437145166734538, 46.389073709432402 ], [ 16.438205070919949, 46.388930041082197 ], [ 16.440012263400178, 46.387254823745785 ], [ 16.437437183910703, 46.384034815675406 ], [ 16.437145166734538, 46.389073709432402 ] ] ] } },
{ "type": "Feature", "properties": { "BM": 2303, "longitude": 16.24368372314305, "latitude": 46.442891175777248, "population": 143 }, "geometry": { "type": "Polygon", "coordinates": [ [ [ 16.247144470991628, 46.460057874129262 ], [ 16.274789253364784, 46.463851226606657 ], [ 16.279589715339736, 46.437208114266717 ], [ 16.21407577563118, 46.422543195006341 ], [ 16.200924087063452, 46.439414430960369 ], [ 16.247144470991628, 46.460057874129262 ] ] ] } },
{ "type": "Feature", "properties": { "BM": 2144, "longitude": 16.204583558931191, "latitude": 46.491816259728914, "population": 115 }, "geometry": { "type": "Polygon", "coordinates": [ [ [ 16.254717658598182, 46.525343199999988 ], [ 16.272676432347051, 46.491995617879667 ], [ 16.247144470991628, 46.460057874129262 ], [ 16.200924087063452, 46.439414430960369 ], [ 16.180803712658044, 46.455007571839772 ], [ 16.120710526389367, 46.525343199999988 ], [ 16.254717658598182, 46.525343199999988 ] ] ] } },
{ "type": "Feature", "properties": { "BM": 2547, "longitude": 16.341395000654558, "latitude": 46.392287789970801, "population": 314 }, "geometry": { "type": "Polygon", "coordinates": [ [ [ 16.330715494935717, 46.380194914560207 ], [ 16.32136842855963, 46.405704083387164 ], [ 16.330407362985785, 46.410999134662518 ], [ 16.351735620397225, 46.410227536270199 ], [ 16.355492144171933, 46.409305103139886 ], [ 16.358517282893509, 46.404896757072812 ], [ 16.358089372368234, 46.398183763252902 ], [ 16.353179958663066, 46.376282110277856 ], [ 16.348129294314646, 46.370450821789845 ], [ 16.338920589389595, 46.365671148418855 ], [ 16.330715494935717, 46.380194914560207 ] ] ] } },
{ "type": "Feature", "properties": { "BM": 2544, "longitude": 16.350569886606074, "latitude": 46.487058802863821, "population": 152 }, "geometry": { "type": "Polygon", "coordinates": [ [ [ 16.327948856422864, 46.497109307513156 ], [ 16.353290700397853, 46.50488630450505 ], [ 16.358978979657813, 46.502795903629845 ], [ 16.368678500852884, 46.488781704055434 ], [ 16.371570038702714, 46.478674707296548 ], [ 16.368059552192747, 46.474108664005414 ], [ 16.362872699033122, 46.471239477973867 ], [ 16.349179760842709, 46.468887446492069 ], [ 16.328602884960123, 46.488104071247065 ], [ 16.327948856422864, 46.497109307513156 ] ] ] } },
{ "type": "Feature", "properties": { "BM": 2545, "longitude": 16.36298381311979, "latitude": 46.516844761392946, "population": 819 }, "geometry": { "type": "Polygon", "coordinates": [ [ [ 16.380674964730623, 46.525343199999988 ], [ 16.37985914202736, 46.521050743870148 ], [ 16.358978979657813, 46.502795903629845 ], [ 16.353290700397853, 46.50488630450505 ], [ 16.350208734985955, 46.525343199999988 ], [ 16.380674964730623, 46.525343199999988 ] ] ] } },
{ "type": "Feature", "properties": { "BM": 2556, "longitude": 16.351123475899527, "latitude": 46.354136266042026, "population": 427 }, "geometry": { "type": "Polygon", "coordinates": [ [ [ 16.331970359829228, 46.351326357424881 ], [ 16.338920589389595, 46.365671148418855 ], [ 16.348129294314646, 46.370450821789845 ], [ 16.366313402520259, 46.361306371247018 ], [ 16.367308509122832, 46.340935854982774 ], [ 16.345828779656252, 46.340992475245898 ], [ 16.331970359829228, 46.351326357424881 ] ] ] } },
{ "type": "Feature", "properties": { "BM": 2496, "longitude": 16.319883391296251, "latitude": 46.421017819715942, "population": 313 }, "geometry": { "type": "Polygon", "coordinates": [ [ [ 16.304682263373564, 46.408937891023811 ], [ 16.30899000474977, 46.430873085739307 ], [ 16.334015679434447, 46.438262794066475 ], [ 16.330407362985785, 46.410999134662518 ], [ 16.32136842855963, 46.405704083387164 ], [ 16.304682263373564, 46.408937891023811 ] ] ] } },
{ "type": "Feature", "properties": { "BM": 2500, "longitude": 16.332424154631941, "latitude": 46.467286722491295, "population": 229 }, "geometry": { "type": "Polygon", "coordinates": [ [ [ 16.31705076024711, 46.459554485922169 ], [ 16.328602884960123, 46.488104071247065 ], [ 16.349179760842709, 46.468887446492069 ], [ 16.335033624933391, 46.449383876902054 ], [ 16.31705076024711, 46.459554485922169 ] ] ] } },
{ "type": "Feature", "properties": { "BM": 2479, "longitude": 16.34027247103802, "latitude": 46.424783277107004, "population": 166 }, "geometry": { "type": "Polygon", "coordinates": [ [ [ 16.337266638113231, 46.445083497381653 ], [ 16.343589867025244, 46.443089449107433 ], [ 16.351735620397225, 46.410227536270199 ], [ 16.330407362985785, 46.410999134662518 ], [ 16.334015679434447, 46.438262794066475 ], [ 16.337266638113231, 46.445083497381653 ] ] ] } },
{ "type": "Feature", "properties": { "BM": 2438, "longitude": 16.319158760436071, "latitude": 46.445651714077826, "population": 201 }, "geometry": { "type": "Polygon", "coordinates": [ [ [ 16.305088430997394, 46.456799753391884 ], [ 16.31705076024711, 46.459554485922169 ], [ 16.335033624933391, 46.449383876902054 ], [ 16.337266638113231, 46.445083497381653 ], [ 16.334015679434447, 46.438262794066475 ], [ 16.30899000474977, 46.430873085739307 ], [ 16.304587150665327, 46.455566320282863 ], [ 16.305088430997394, 46.456799753391884 ] ] ] } },
{ "type": "Feature", "properties": { "BM": 2436, "longitude": 16.331312371449624, "latitude": 46.513422249938415, "population": 424 }, "geometry": { "type": "Polygon", "coordinates": [ [ [ 16.350208734985955, 46.525343199999988 ], [ 16.353290700397853, 46.50488630450505 ], [ 16.327948856422864, 46.497109307513156 ], [ 16.314678340002924, 46.505612692953768 ], [ 16.306288500670014, 46.525343199999988 ], [ 16.350208734985955, 46.525343199999988 ] ] ] } },
{ "type": "Feature", "properties": { "BM": 2437, "longitude": 16.310102249230116, "latitude": 46.480447453593584, "population": 365 }, "geometry": { "type": "Polygon", "coordinates": [ [ [ 16.288616796090892, 46.479511049295944 ], [ 16.314678340002924, 46.505612692953768 ], [ 16.327948856422864, 46.497109307513156 ], [ 16.328602884960123, 46.488104071247065 ], [ 16.31705076024711, 46.459554485922169 ], [ 16.305088430997394, 46.456799753391884 ], [ 16.289247341584161, 46.473641476790242 ], [ 16.288616796090892, 46.479511049295944 ] ] ] } },
{ "type": "Feature", "properties": { "BM": 2407, "longitude": 16.297879927528275, "latitude": 46.432557361354291, "population": 177 }, "geometry": { "type": "Polygon", "coordinates": [ [ [ 16.280453036807184, 46.437095930345713 ], [ 16.304587150665327, 46.455566320282863 ], [ 16.30899000474977, 46.430873085739307 ], [ 16.304682263373564, 46.408937891023811 ], [ 16.302123022489543, 46.408152214788444 ], [ 16.280453036807184, 46.437095930345713 ] ] ] } },
{ "type": "Feature", "properties": { "BM": 2427, "longitude": 16.306307015245338, "latitude": 46.391956700933108, "population": 250 }, "geometry": { "type": "Polygon", "coordinates": [ [ [ 16.27859473273368, 46.386484483994558 ], [ 16.302123022489543, 46.408152214788444 ], [ 16.304682263373564, 46.408937891023811 ], [ 16.32136842855963, 46.405704083387164 ], [ 16.330715494935717, 46.380194914560207 ], [ 16.284414950141464, 46.380338170714559 ], [ 16.27859473273368, 46.386484483994558 ] ] ] } },
{ "type": "Feature", "properties": { "BM": 2430, "longitude": 16.315077534626656, "latitude": 46.365540548217702, "population": 340 }, "geometry": { "type": "Polygon", "coordinates": [ [ [ 16.284414950141464, 46.380338170714559 ], [ 16.330715494935717, 46.380194914560207 ], [ 16.338920589389595, 46.365671148418855 ], [ 16.331970359829228, 46.351326357424881 ], [ 16.320793622696439, 46.345914026306694 ], [ 16.311973489772718, 46.344325174586615 ], [ 16.284414950141464, 46.380338170714559 ] ] ] } },
{ "type": "Feature", "properties": { "BM": 2390, "longitude": 16.270718073352569, "latitude": 46.474101160724601, "population": 398 }, "geometry": { "type": "Polygon", "coordinates": [ [ [ 16.272676432347051, 46.491995617879667 ], [ 16.288616796090892, 46.479511049295944 ], [ 16.289247341584161, 46.473641476790242 ], [ 16.274789253364784, 46.463851226606657 ], [ 16.247144470991628, 46.460057874129262 ], [ 16.272676432347051, 46.491995617879667 ] ] ] } },
{ "type": "Feature", "properties": { "BM": 2393, "longitude": 16.287751277728269, "latitude": 46.456419847717299, "population": 92 }, "geometry": { "type": "Polygon", "coordinates": [ [ [ 16.274789253364784, 46.463851226606657 ], [ 16.289247341584161, 46.473641476790242 ], [ 16.305088430997394, 46.456799753391884 ], [ 16.304587150665327, 46.455566320282863 ], [ 16.280453036807184, 46.437095930345713 ], [ 16.279589715339736, 46.437208114266717 ], [ 16.274789253364784, 46.463851226606657 ] ] ] } },
{ "type": "Feature", "properties": { "BM": 2362, "longitude": 16.26028357710921, "latitude": 46.411117462958707, "population": 237 }, "geometry": { "type": "Polygon", "coordinates": [ [ [ 16.221043964716035, 46.406640840059254 ], [ 16.21407577563118, 46.422543195006341 ], [ 16.279589715339736, 46.437208114266717 ], [ 16.280453036807184, 46.437095930345713 ], [ 16.302123022489543, 46.408152214788444 ], [ 16.27859473273368, 46.386484483994558 ], [ 16.255349940513405, 46.385855222010086 ], [ 16.231445834691844, 46.399755803506999 ], [ 16.221043964716035, 46.406640840059254 ] ] ] } },
{ "type": "Feature", "properties": { "BM": 1125, "longitude": 16.28650085034014, "latitude": 46.507645622281601, "population": 463 }, "geometry": { "type": "Polygon", "coordinates": [ [ [ 16.306288500670014, 46.525343199999988 ], [ 16.314678340002924, 46.505612692953768 ], [ 16.288616796090892, 46.479511049295944 ], [ 16.272676432347051, 46.491995617879667 ], [ 16.254717658598182, 46.525343199999988 ], [ 16.306288500670014, 46.525343199999988 ] ] ] } }
]
}
