{
"type": "FeatureCollection",
"name": "zupanija_7_meta",
"crs": { "type": "name", "properties": { "name": "urn:ogc:def:crs:EPSG::3765" } },
"features": [
{ "type": "Feature", "properties": { "name": "BJELOVARSKO-BILOGORSKA ŽUPANIJA", "population": 79282, "latitude": 14052.476338546625, "longitude": 5194.6263283159024 }, "geometry": { "type": "Polygon", "coordinates": [ [ [ 16.560246510895571, 45.700141181901458 ], [ 16.546358123655967, 45.708941738190596 ], [ 16.521765293875532, 45.706974244094184 ], [ 16.521273579462587, 45.712084154509157 ], [ 16.512102128801381, 45.737646069215025 ], [ 16.498307943436838, 45.745629132058347 ], [ 16.504913993447975, 45.760591576785203 ], [ 16.515934443783294, 45.767995092010473 ], [ 16.520564530172965, 45.787104680803488 ], [ 16.520178339140809, 45.790318356343626 ], [ 16.522610670805889, 45.798601153507938 ], [ 16.545162456942272, 45.798454395180435 ], [ 16.553186880163626, 45.804790799854352 ], [ 16.560275685116007, 45.79705127095275 ], [ 16.586171037911932, 45.807919052386147 ], [ 16.600309847347557, 45.800574592487116 ], [ 16.605939445052069, 45.805458757366779 ], [ 16.615179352159622, 45.81652498620663 ], [ 16.615705298744619, 45.816715676647036 ], [ 16.631432621184025, 45.834095319950656 ], [ 16.654306602231291, 45.838396704810179 ], [ 16.666708805732235, 45.832327971979055 ], [ 16.688616944481222, 45.838084177092611 ], [ 16.695763068324084, 45.846733270803156 ], [ 16.69463966634796, 45.861613844460756 ], [ 16.700138421386743, 45.875054898691189 ], [ 16.685973242425618, 45.896935047996365 ], [ 16.703717466507353, 45.915553076445832 ], [ 16.701765236061327, 45.928038356627674 ], [ 16.707183590535365, 45.937374125308175 ], [ 16.711227465937483, 45.941228808046098 ], [ 16.713430290650066, 45.960133194804591 ], [ 16.705353427843253, 45.966213794173136 ], [ 16.700858330517494, 45.997636621631933 ], [ 16.734167629648447, 46.003073949783413 ], [ 16.729875762675746, 46.030594311964435 ], [ 16.740831036586812, 46.043841613058632 ], [ 16.741706015660604, 46.044119779779862 ], [ 16.747593031361923, 46.043056813437175 ], [ 16.775769644627989, 46.059112241182696 ], [ 16.783102042167791, 46.057061940099068 ], [ 16.78886740060997, 46.041559573376077 ], [ 16.800701005009223, 46.036399424110037 ], [ 16.828838082968751, 46.061991951720941 ], [ 16.828219001129611, 46.070304376137429 ], [ 16.83009766893608, 46.07975523431201 ], [ 16.839072973971938, 46.089494280099714 ], [ 16.855890810683665, 46.08991648520545 ], [ 16.872836052795318, 46.084620498398181 ], [ 16.882370579234749, 46.077650300313671 ], [ 16.888241392580543, 46.075313146163076 ], [ 16.891637720979606, 46.073097929394798 ], [ 16.902522791926383, 46.059932709065102 ], [ 16.892413156689624, 46.041654355900057 ], [ 16.896905253385341, 46.03010722742647 ], [ 16.913718308908262, 46.009479951884707 ], [ 16.89201857831398, 45.995483236119838 ], [ 16.892530828925246, 45.992013004746433 ], [ 16.916038715880887, 45.983218127408172 ], [ 16.927199507331515, 45.987925301565063 ], [ 16.935640616181082, 46.007437340356297 ], [ 16.96782635709641, 45.989991522294432 ], [ 16.973099247868831, 45.988558048418717 ], [ 16.973285189897716, 45.988260116157399 ], [ 16.978481255543691, 45.982207697087652 ], [ 17.012984595526362, 45.963361653223693 ], [ 17.016200007106281, 45.957947789655137 ], [ 17.026586613845154, 45.959211271919564 ], [ 17.063059100471367, 45.941675495989628 ], [ 17.074618103496878, 45.911255219778404 ], [ 17.089036840141567, 45.911689193039564 ], [ 17.121470074377402, 45.891020071213923 ], [ 17.127064734922019, 45.881669977559916 ], [ 17.147094977422071, 45.869847309649415 ], [ 17.156230337348667, 45.858792211297235 ], [ 17.158955934721103, 45.853730467988356 ], [ 17.167958033003757, 45.843202455362146 ], [ 17.185519978923811, 45.834956679475958 ], [ 17.232558847228322, 45.800452963689139 ], [ 17.233099905663696, 45.800547508524566 ], [ 17.233272193341396, 45.800481429668373 ], [ 17.271485504133757, 45.800891147482844 ], [ 17.322536604494886, 45.78617468455429 ], [ 17.332080604492056, 45.783334685510525 ], [ 17.357900783376657, 45.757169742569467 ], [ 17.358654186024797, 45.756047530222745 ], [ 17.359514368509384, 45.754150597997395 ], [ 17.355655679476936, 45.730713241419465 ], [ 17.3763296089612, 45.696592799421651 ], [ 17.389625913650356, 45.688284517320739 ], [ 17.39189348352938, 45.68884301137129 ], [ 17.441806072473284, 45.735184756298722 ], [ 17.452521574376707, 45.725721836615776 ], [ 17.459787892460014, 45.680833431052797 ], [ 17.476471266658262, 45.66492470728776 ], [ 17.480548900690682, 45.65656759914075 ], [ 17.48312963343389, 45.627987084707513 ], [ 17.478723604122617, 45.615889075450582 ], [ 17.450182248589616, 45.533670932655504 ], [ 17.448008781554595, 45.533080306386914 ], [ 17.412029767124782, 45.550741124085015 ], [ 17.398126168812315, 45.552844861980354 ], [ 17.319552869433029, 45.515880730800852 ], [ 17.297253350456248, 45.514310786088544 ], [ 17.272407612491115, 45.495188854911433 ], [ 17.262974540269116, 45.486929050820251 ], [ 17.230915156104732, 45.497119570806689 ], [ 17.220314006455119, 45.494476473698434 ], [ 17.196048593376236, 45.514212618741567 ], [ 17.181748437097969, 45.516116921295314 ], [ 17.170523997830827, 45.50849752372676 ], [ 17.152757533120539, 45.509876214798737 ], [ 17.148186722682187, 45.513593055408947 ], [ 17.128350247878444, 45.51766877128258 ], [ 17.126312713974102, 45.520447525413637 ], [ 17.105507485913801, 45.523392649489558 ], [ 17.092168879051279, 45.497935755767159 ], [ 17.086244126816769, 45.494775042450463 ], [ 17.058201609176916, 45.533503539663428 ], [ 17.037330167567809, 45.510386130608929 ], [ 17.030128272760475, 45.490056399854346 ], [ 17.025207656222136, 45.487925074527872 ], [ 16.98093978441549, 45.521377110224101 ], [ 16.980708341654381, 45.521962336085579 ], [ 16.960939466755182, 45.532420669095593 ], [ 16.955740716622632, 45.52991578454003 ], [ 16.933371733537179, 45.501493009261118 ], [ 16.929382028799516, 45.491291794495069 ], [ 16.911562207649766, 45.484680617919814 ], [ 16.897528890254478, 45.491321535245696 ], [ 16.886987364653017, 45.491537184564351 ], [ 16.856939045129195, 45.515919069362276 ], [ 16.858042760975465, 45.518363039852034 ], [ 16.85302406203532, 45.55936170892609 ], [ 16.829996806703271, 45.565678718139146 ], [ 16.820878416064954, 45.584323648901652 ], [ 16.821779511118244, 45.601906890201491 ], [ 16.813257065839849, 45.610809476809543 ], [ 16.807565288195143, 45.611966472407133 ], [ 16.76743360767756, 45.609603434257089 ], [ 16.737110109514816, 45.616653571138414 ], [ 16.725003078259899, 45.646402183544673 ], [ 16.716647766895626, 45.652156639027162 ], [ 16.712181952025539, 45.657176866705342 ], [ 16.684595990125288, 45.668475140539385 ], [ 16.679625048875469, 45.669739756269436 ], [ 16.66616446640624, 45.679688025296443 ], [ 16.646178287178309, 45.672021632872195 ], [ 16.599663396296524, 45.673665483972691 ], [ 16.597630780378708, 45.672725602455124 ], [ 16.571573224389574, 45.684342509018435 ], [ 16.567725536515233, 45.69845536387998 ], [ 16.560246510895571, 45.700141181901458 ] ] ] } }
]
}
