{
"type": "FeatureCollection",
"name": "zupanija_graph_2",
"crs": { "type": "name", "properties": { "name": "urn:ogc:def:crs:EPSG::3765" } },
"features": [
{ "type": "Feature", "properties": { "BM": 4850, "longitude": 18.261045763968959, "latitude": 42.507246476832492, "population": 778 }, "geometry": { "type": "Polygon", "coordinates": [ [ [ 18.218124512861767, 42.4415921 ], [ 18.266999934803426, 42.559775907948023 ], [ 18.274802304808873, 42.56396667358954 ], [ 18.300279818388521, 42.55770658019987 ], [ 18.283426111314022, 42.510221696577688 ], [ 18.235350514045209, 42.4415921 ], [ 18.218124512861767, 42.4415921 ] ] ] } },
{ "type": "Feature", "properties": { "BM": 4859, "longitude": 18.427073058125661, "latitude": 42.452397879794113, "population": 189 }, "geometry": { "type": "Polygon", "coordinates": [ [ [ 18.391305353342975, 42.4415921 ], [ 18.430268473986896, 42.473708802739175 ], [ 18.456419533392069, 42.446040737355169 ], [ 18.455244963974511, 42.4415921 ], [ 18.391305353342975, 42.4415921 ] ] ] } },
{ "type": "Feature", "properties": { "BM": 4814, "longitude": 18.216332932226631, "latitude": 42.6331461973869, "population": 893 }, "geometry": { "type": "Polygon", "coordinates": [ [ [ 18.248378025873862, 42.673937903883079 ], [ 18.207653518361887, 42.600498123919706 ], [ 18.193123389515954, 42.595731480861566 ], [ 18.2074137379436, 42.645449861283851 ], [ 18.248378025873862, 42.673937903883079 ] ] ] } },
{ "type": "Feature", "properties": { "BM": 4813, "longitude": 18.187980806133215, "latitude": 42.630963103741479, "population": 1641 }, "geometry": { "type": "Polygon", "coordinates": [ [ [ 18.197001902207639, 42.640287352998193 ], [ 18.185625880491767, 42.612840042735925 ], [ 18.181314635700247, 42.63976191549034 ], [ 18.197001902207639, 42.640287352998193 ] ] ] } },
{ "type": "Feature", "properties": { "BM": 4825, "longitude": 18.249645564591106, "latitude": 42.639991133081814, "population": 513 }, "geometry": { "type": "Polygon", "coordinates": [ [ [ 18.279097284163004, 42.705837039369761 ], [ 18.275238401962358, 42.660925040984978 ], [ 18.266184357916188, 42.617511142482243 ], [ 18.251894692803834, 42.600238633912852 ], [ 18.24727217161432, 42.598143523716743 ], [ 18.209561769763464, 42.599809764137206 ], [ 18.207653518361887, 42.600498123919706 ], [ 18.248378025873862, 42.673937903883079 ], [ 18.279097284163004, 42.705837039369761 ] ] ] } },
{ "type": "Feature", "properties": { "BM": 4831, "longitude": 18.293392833753913, "latitude": 42.481176791280099, "population": 208 }, "geometry": { "type": "Polygon", "coordinates": [ [ [ 18.235350514045209, 42.4415921 ], [ 18.283426111314022, 42.510221696577688 ], [ 18.330934201292099, 42.539800733133674 ], [ 18.338280213685994, 42.532512714163751 ], [ 18.309717398580382, 42.4415921 ], [ 18.235350514045209, 42.4415921 ] ] ] } },
{ "type": "Feature", "properties": { "BM": 4828, "longitude": 18.228813202047931, "latitude": 42.592249958305182, "population": 379 }, "geometry": { "type": "Polygon", "coordinates": [ [ [ 18.209561769763464, 42.599809764137206 ], [ 18.24727217161432, 42.598143523716743 ], [ 18.233059390115375, 42.580829445238713 ], [ 18.223197220692036, 42.583973039414886 ], [ 18.209561769763464, 42.599809764137206 ] ] ] } },
{ "type": "Feature", "properties": { "BM": 4774, "longitude": 18.130758504793423, "latitude": 42.65128317071985, "population": 125 }, "geometry": { "type": "Polygon", "coordinates": [ [ [ 18.11377915547563, 42.657051128031348 ], [ 18.117264763611661, 42.658482744963003 ], [ 18.146496067459449, 42.658461955470621 ], [ 18.146549918557625, 42.649567133866235 ], [ 18.127005009776504, 42.639052028348772 ], [ 18.113806135876359, 42.654622995023175 ], [ 18.11377915547563, 42.657051128031348 ] ] ] } },
{ "type": "Feature", "properties": { "BM": 4775, "longitude": 18.118922992161721, "latitude": 42.638774609112993, "population": 475 }, "geometry": { "type": "Polygon", "coordinates": [ [ [ 18.113806135876359, 42.654622995023175 ], [ 18.127005009776504, 42.639052028348772 ], [ 18.116348672508288, 42.622230900470456 ], [ 18.113540238583852, 42.653449098333837 ], [ 18.113806135876359, 42.654622995023175 ] ] ] } },
{ "type": "Feature", "properties": { "BM": 4772, "longitude": 18.167552861895466, "latitude": 42.60520101641913, "population": 1740 }, "geometry": { "type": "Polygon", "coordinates": [ [ [ 18.148971986546012, 42.565953484703172 ], [ 18.155598562519096, 42.622739605825551 ], [ 18.17807924117125, 42.640199498866814 ], [ 18.181314635700247, 42.63976191549034 ], [ 18.185625880491767, 42.612840042735925 ], [ 18.178884192779439, 42.589025870234813 ], [ 18.148971986546012, 42.565953484703172 ] ] ] } },
{ "type": "Feature", "properties": { "BM": 4776, "longitude": 18.169729528820426, "latitude": 42.751573344346752, "population": 1483 }, "geometry": { "type": "Polygon", "coordinates": [ [ [ 18.160620538778659, 42.781097643624292 ], [ 18.23600313712754, 42.893891538922261 ], [ 18.164774408923829, 42.689093634593043 ], [ 18.146496067459449, 42.658461955470621 ], [ 18.117264763611661, 42.658482744963003 ], [ 18.1187381385074, 42.665733523301462 ], [ 18.160620538778659, 42.781097643624292 ] ] ] } },
{ "type": "Feature", "properties": { "BM": 4780, "longitude": 18.118140372319186, "latitude": 42.560094439210268, "population": 597 }, "geometry": { "type": "Polygon", "coordinates": [ [ [ 18.067550994309073, 42.4415921 ], [ 18.116348672508288, 42.622230900470456 ], [ 18.127005009776504, 42.639052028348772 ], [ 18.146549918557625, 42.649567133866235 ], [ 18.155598562519096, 42.622739605825551 ], [ 18.148971986546012, 42.565953484703172 ], [ 18.072106670022706, 42.4415921 ], [ 18.067550994309073, 42.4415921 ] ] ] } },
{ "type": "Feature", "properties": { "BM": 4785, "longitude": 18.16140250936812, "latitude": 42.652860016347041, "population": 252 }, "geometry": { "type": "Polygon", "coordinates": [ [ [ 18.146496067459449, 42.658461955470621 ], [ 18.164774408923829, 42.689093634593043 ], [ 18.17807924117125, 42.640199498866814 ], [ 18.155598562519096, 42.622739605825551 ], [ 18.146549918557625, 42.649567133866235 ], [ 18.146496067459449, 42.658461955470621 ] ] ] } },
{ "type": "Feature", "properties": { "BM": 4788, "longitude": 18.314742075467159, "latitude": 42.946412955006245, "population": 544 }, "geometry": { "type": "Polygon", "coordinates": [ [ [ 18.23600313712754, 42.893891538922261 ], [ 18.522039565449838, 43.465139546189242 ], [ 18.3239929156084, 42.823837996838023 ], [ 18.279097284163004, 42.705837039369761 ], [ 18.248378025873862, 42.673937903883079 ], [ 18.2074137379436, 42.645449861283851 ], [ 18.197001902207639, 42.640287352998193 ], [ 18.181314635700247, 42.63976191549034 ], [ 18.17807924117125, 42.640199498866814 ], [ 18.164774408923829, 42.689093634593043 ], [ 18.23600313712754, 42.893891538922261 ] ] ] } },
{ "type": "Feature", "properties": { "BM": 4789, "longitude": 18.193190060391043, "latitude": 42.616113478177567, "population": 1695 }, "geometry": { "type": "Polygon", "coordinates": [ [ [ 18.178884192779439, 42.589025870234813 ], [ 18.185625880491767, 42.612840042735925 ], [ 18.197001902207639, 42.640287352998193 ], [ 18.2074137379436, 42.645449861283851 ], [ 18.193123389515954, 42.595731480861566 ], [ 18.178884192779439, 42.589025870234813 ] ] ] } },
{ "type": "Feature", "properties": { "BM": 4739, "longitude": 18.081228478369127, "latitude": 42.654521988990467, "population": 1091 }, "geometry": { "type": "Polygon", "coordinates": [ [ [ 18.079209481139095, 42.654859581233211 ], [ 18.082138850163886, 42.659349645994432 ], [ 18.082863083509093, 42.659290262156752 ], [ 18.084238183015817, 42.65677452234722 ], [ 18.081456493508909, 42.651015616683232 ], [ 18.078378410053933, 42.649498948555092 ], [ 18.079209481139095, 42.654859581233211 ] ] ] } },
{ "type": "Feature", "properties": { "BM": 4736, "longitude": 18.078940898529009, "latitude": 42.657465571161055, "population": 999 }, "geometry": { "type": "Polygon", "coordinates": [ [ [ 18.082138850163886, 42.659349645994432 ], [ 18.079209481139095, 42.654859581233211 ], [ 18.075156950696162, 42.657480681395221 ], [ 18.081418557155285, 42.659778670158765 ], [ 18.082138850163886, 42.659349645994432 ] ] ] } },
{ "type": "Feature", "properties": { "BM": 4737, "longitude": 18.076900091046824, "latitude": 42.653462591210342, "population": 513 }, "geometry": { "type": "Polygon", "coordinates": [ [ [ 18.07728696077422, 42.648208660021979 ], [ 18.073907158162903, 42.657476176747515 ], [ 18.075156950696162, 42.657480681395221 ], [ 18.079209481139095, 42.654859581233211 ], [ 18.078378410053933, 42.649498948555092 ], [ 18.07728696077422, 42.648208660021979 ] ] ] } },
{ "type": "Feature", "properties": { "BM": 4742, "longitude": 18.0844475234478, "latitude": 42.653372350180717, "population": 814 }, "geometry": { "type": "Polygon", "coordinates": [ [ [ 18.086935726627367, 42.654713339905214 ], [ 18.085914543852535, 42.651157140435551 ], [ 18.081456493508909, 42.651015616683232 ], [ 18.084238183015817, 42.65677452234722 ], [ 18.086935726627367, 42.654713339905214 ] ] ] } },
{ "type": "Feature", "properties": { "BM": 4743, "longitude": 18.086430065300682, "latitude": 42.6572586214266, "population": 938 }, "geometry": { "type": "Polygon", "coordinates": [ [ [ 18.084238183015817, 42.65677452234722 ], [ 18.082863083509093, 42.659290262156752 ], [ 18.08376735960282, 42.660032654114531 ], [ 18.089887653881906, 42.657405380904862 ], [ 18.089009888138062, 42.655039062872511 ], [ 18.086935726627367, 42.654713339905214 ], [ 18.084238183015817, 42.65677452234722 ] ] ] } },
{ "type": "Feature", "properties": { "BM": 4740, "longitude": 18.097960462963592, "latitude": 42.666711705868934, "population": 237 }, "geometry": { "type": "Polygon", "coordinates": [ [ [ 18.088404212142489, 42.668535274889599 ], [ 18.097901829446485, 42.674945426572613 ], [ 18.106530793625993, 42.663519093148459 ], [ 18.107175037854965, 42.659976308553517 ], [ 18.106043518349118, 42.659677349639836 ], [ 18.093664373880351, 42.663128175892439 ], [ 18.089493829706445, 42.665987002824565 ], [ 18.088404212142489, 42.668535274889599 ] ] ] } },
{ "type": "Feature", "properties": { "BM": 4741, "longitude": 18.089043677431736, "latitude": 42.661556853418674, "population": 977 }, "geometry": { "type": "Polygon", "coordinates": [ [ [ 18.089493829706445, 42.665987002824565 ], [ 18.093664373880351, 42.663128175892439 ], [ 18.089887653881906, 42.657405380904862 ], [ 18.08376735960282, 42.660032654114531 ], [ 18.089493829706445, 42.665987002824565 ] ] ] } },
{ "type": "Feature", "properties": { "BM": 4747, "longitude": 18.087860068928208, "latitude": 42.683124772937646, "population": 550 }, "geometry": { "type": "Polygon", "coordinates": [ [ [ 18.072045341225905, 42.684248949002686 ], [ 18.095817268301236, 42.699221552134645 ], [ 18.097901829446485, 42.674945426572613 ], [ 18.088404212142489, 42.668535274889599 ], [ 18.072045341225905, 42.684248949002686 ] ] ] } },
{ "type": "Feature", "properties": { "BM": 4745, "longitude": 18.087454278961584, "latitude": 42.63389653892277, "population": 1292 }, "geometry": { "type": "Polygon", "coordinates": [ [ [ 18.07981333369975, 42.606232143770342 ], [ 18.087033232866087, 42.649567375535732 ], [ 18.091317720970487, 42.650589534985151 ], [ 18.092867745720319, 42.647586119992255 ], [ 18.09382114928346, 42.639881341915093 ], [ 18.07981333369975, 42.606232143770342 ] ] ] } },
{ "type": "Feature", "properties": { "BM": 4748, "longitude": 18.088727038733612, "latitude": 42.652247189525177, "population": 1288 }, "geometry": { "type": "Polygon", "coordinates": [ [ [ 18.086935726627367, 42.654713339905214 ], [ 18.089009888138062, 42.655039062872511 ], [ 18.091819269336767, 42.652839109504079 ], [ 18.091317720970487, 42.650589534985151 ], [ 18.087033232866087, 42.649567375535732 ], [ 18.085914543852535, 42.651157140435551 ], [ 18.086935726627367, 42.654713339905214 ] ] ] } },
{ "type": "Feature", "properties": { "BM": 4749, "longitude": 18.09606345135127, "latitude": 42.658221959910861, "population": 1315 }, "geometry": { "type": "Polygon", "coordinates": [ [ [ 18.089009888138062, 42.655039062872511 ], [ 18.089887653881906, 42.657405380904862 ], [ 18.093664373880351, 42.663128175892439 ], [ 18.106043518349118, 42.659677349639836 ], [ 18.105509507211888, 42.659161065849261 ], [ 18.105016274909342, 42.658879765564201 ], [ 18.091819269336767, 42.652839109504079 ], [ 18.089009888138062, 42.655039062872511 ] ] ] } },
{ "type": "Feature", "properties": { "BM": 4754, "longitude": 18.096285060447403, "latitude": 42.652930576011258, "population": 216 }, "geometry": { "type": "Polygon", "coordinates": [ [ [ 18.091819269336767, 42.652839109504079 ], [ 18.105016274909342, 42.658879765564201 ], [ 18.092867745720319, 42.647586119992255 ], [ 18.091317720970487, 42.650589534985151 ], [ 18.091819269336767, 42.652839109504079 ] ] ] } },
{ "type": "Feature", "properties": { "BM": 4753, "longitude": 18.105062590312713, "latitude": 42.690891194812643, "population": 640 }, "geometry": { "type": "Polygon", "coordinates": [ [ [ 18.095817268301236, 42.699221552134645 ], [ 18.114545234699118, 42.717920141283024 ], [ 18.111143216081313, 42.685367327164407 ], [ 18.106530793625993, 42.663519093148459 ], [ 18.097901829446485, 42.674945426572613 ], [ 18.095817268301236, 42.699221552134645 ] ] ] } },
{ "type": "Feature", "properties": { "BM": 4758, "longitude": 18.106126069960574, "latitude": 42.651432299510617, "population": 1258 }, "geometry": { "type": "Polygon", "coordinates": [ [ [ 18.106043518349118, 42.659677349639836 ], [ 18.107175037854965, 42.659976308553517 ], [ 18.11377915547563, 42.657051128031348 ], [ 18.113806135876359, 42.654622995023175 ], [ 18.113540238583852, 42.653449098333837 ], [ 18.107018191244848, 42.645007916652965 ], [ 18.09677266216093, 42.642991489702233 ], [ 18.105509507211888, 42.659161065849261 ], [ 18.106043518349118, 42.659677349639836 ] ] ] } },
{ "type": "Feature", "properties": { "BM": 4762, "longitude": 18.097664716893604, "latitude": 42.648740129524171, "population": 932 }, "geometry": { "type": "Polygon", "coordinates": [ [ [ 18.105509507211888, 42.659161065849261 ], [ 18.09677266216093, 42.642991489702233 ], [ 18.09382114928346, 42.639881341915093 ], [ 18.092867745720319, 42.647586119992255 ], [ 18.105016274909342, 42.658879765564201 ], [ 18.105509507211888, 42.659161065849261 ] ] ] } },
{ "type": "Feature", "properties": { "BM": 4760, "longitude": 18.112447083419216, "latitude": 42.668009727992086, "population": 208 }, "geometry": { "type": "Polygon", "coordinates": [ [ [ 18.106530793625993, 42.663519093148459 ], [ 18.111143216081313, 42.685367327164407 ], [ 18.1187381385074, 42.665733523301462 ], [ 18.117264763611661, 42.658482744963003 ], [ 18.11377915547563, 42.657051128031348 ], [ 18.107175037854965, 42.659976308553517 ], [ 18.106530793625993, 42.663519093148459 ] ] ] } },
{ "type": "Feature", "properties": { "BM": 4767, "longitude": 18.129565345355346, "latitude": 42.718224980752268, "population": 1196 }, "geometry": { "type": "Polygon", "coordinates": [ [ [ 18.114545234699118, 42.717920141283024 ], [ 18.160620538778659, 42.781097643624292 ], [ 18.1187381385074, 42.665733523301462 ], [ 18.111143216081313, 42.685367327164407 ], [ 18.114545234699118, 42.717920141283024 ] ] ] } },
{ "type": "Feature", "properties": { "BM": 4764, "longitude": 18.216094845170119, "latitude": 42.49843895189337, "population": 348 }, "geometry": { "type": "Polygon", "coordinates": [ [ [ 18.154537823828441, 42.4415921 ], [ 18.231624562359602, 42.56283743831861 ], [ 18.254081227437617, 42.572459682910534 ], [ 18.266999934803426, 42.559775907948023 ], [ 18.218124512861767, 42.4415921 ], [ 18.154537823828441, 42.4415921 ] ] ] } },
{ "type": "Feature", "properties": { "BM": 4765, "longitude": 18.079037444805902, "latitude": 42.530276036370864, "population": 894 }, "geometry": { "type": "Polygon", "coordinates": [ [ [ 18.035762269041509, 42.4415921 ], [ 18.107018191244848, 42.645007916652965 ], [ 18.113540238583852, 42.653449098333837 ], [ 18.116348672508288, 42.622230900470456 ], [ 18.067550994309073, 42.4415921 ], [ 18.035762269041509, 42.4415921 ] ] ] } },
{ "type": "Feature", "properties": { "BM": 4711, "longitude": 18.067379402558558, "latitude": 42.668306040841728, "population": 1316 }, "geometry": { "type": "Polygon", "coordinates": [ [ [ 18.063706806348726, 42.681434577916569 ], [ 18.081418557155285, 42.659778670158765 ], [ 18.075156950696162, 42.657480681395221 ], [ 18.073907158162903, 42.657476176747515 ], [ 18.054273226993534, 42.669950300130544 ], [ 18.063706806348726, 42.681434577916569 ] ] ] } },
{ "type": "Feature", "properties": { "BM": 4708, "longitude": 18.020646266560306, "latitude": 42.664345105983749, "population": 319 }, "geometry": { "type": "Polygon", "coordinates": [ [ [ 17.996531693499428, 42.684063843061935 ], [ 18.056115645715437, 42.698406833168271 ], [ 18.064309674206505, 42.682423159630623 ], [ 18.063706806348726, 42.681434577916569 ], [ 18.054273226993534, 42.669950300130544 ], [ 17.991835618092789, 42.612839278035288 ], [ 17.9920378545436, 42.679468838958591 ], [ 17.996531693499428, 42.684063843061935 ] ] ] } },
{ "type": "Feature", "properties": { "BM": 4735, "longitude": 18.077289411915373, "latitude": 42.672302937105215, "population": 543 }, "geometry": { "type": "Polygon", "coordinates": [ [ [ 18.064309674206505, 42.682423159630623 ], [ 18.072045341225905, 42.684248949002686 ], [ 18.088404212142489, 42.668535274889599 ], [ 18.089493829706445, 42.665987002824565 ], [ 18.08376735960282, 42.660032654114531 ], [ 18.082863083509093, 42.659290262156752 ], [ 18.082138850163886, 42.659349645994432 ], [ 18.081418557155285, 42.659778670158765 ], [ 18.063706806348726, 42.681434577916569 ], [ 18.064309674206505, 42.682423159630623 ] ] ] } },
{ "type": "Feature", "properties": { "BM": 4733, "longitude": 18.007897248524703, "latitude": 42.555325021956179, "population": 536 }, "geometry": { "type": "Polygon", "coordinates": [ [ [ 17.943207377128591, 42.4415921 ], [ 17.991835618092789, 42.612839278035288 ], [ 18.054273226993534, 42.669950300130544 ], [ 18.073907158162903, 42.657476176747515 ], [ 18.07728696077422, 42.648208660021979 ], [ 17.987255967542946, 42.4415921 ], [ 17.943207377128591, 42.4415921 ] ] ] } },
{ "type": "Feature", "properties": { "BM": 4677, "longitude": 18.31644843591943, "latitude": 43.217367400838953, "population": 264 }, "geometry": { "type": "Polygon", "coordinates": [ [ [ 18.271754823225436, 43.364072601101078 ], [ 18.593403949029899, 43.746060302096573 ], [ 18.626563485288269, 43.734175325438208 ], [ 18.522039565449838, 43.465139546189242 ], [ 18.23600313712754, 42.893891538922261 ], [ 18.160620538778659, 42.781097643624292 ], [ 18.114545234699118, 42.717920141283024 ], [ 18.095817268301236, 42.699221552134645 ], [ 18.072045341225905, 42.684248949002686 ], [ 18.064309674206505, 42.682423159630623 ], [ 18.056115645715437, 42.698406833168271 ], [ 18.050460153031896, 42.721707465733417 ], [ 18.165852464782887, 43.100061871171135 ], [ 18.271754823225436, 43.364072601101078 ] ] ] } },
{ "type": "Feature", "properties": { "BM": 4647, "longitude": 18.046244247153545, "latitude": 42.819512597235665, "population": 124 }, "geometry": { "type": "Polygon", "coordinates": [ [ [ 18.126270655998692, 43.012210162811094 ], [ 18.006828481430006, 42.695402307463091 ], [ 18.001689503378735, 42.690481205781879 ], [ 18.011427876862619, 42.765888944062326 ], [ 18.126270655998692, 43.012210162811094 ] ] ] } },
{ "type": "Feature", "properties": { "BM": 4662, "longitude": 18.032060953622327, "latitude": 42.701209945146026, "population": 729 }, "geometry": { "type": "Polygon", "coordinates": [ [ [ 18.006828481430006, 42.695402307463091 ], [ 18.050460153031896, 42.721707465733417 ], [ 18.056115645715437, 42.698406833168271 ], [ 17.996531693499428, 42.684063843061935 ], [ 18.001689503378735, 42.690481205781879 ], [ 18.006828481430006, 42.695402307463091 ] ] ] } },
{ "type": "Feature", "properties": { "BM": 4611, "longitude": 17.934026284133903, "latitude": 42.742248347479908, "population": 32 }, "geometry": { "type": "Polygon", "coordinates": [ [ [ 17.952590203548564, 42.74167743684945 ], [ 17.935228085011058, 42.717535397414856 ], [ 17.909044528037118, 42.741968568486406 ], [ 17.945387033258989, 42.76732410714385 ], [ 17.952590203548564, 42.74167743684945 ] ] ] } },
{ "type": "Feature", "properties": { "BM": 4623, "longitude": 18.064417075620611, "latitude": 42.542085337901419, "population": 903 }, "geometry": { "type": "Polygon", "coordinates": [ [ [ 18.022850637432274, 42.4415921 ], [ 18.07981333369975, 42.606232143770342 ], [ 18.09382114928346, 42.639881341915093 ], [ 18.09677266216093, 42.642991489702233 ], [ 18.107018191244848, 42.645007916652965 ], [ 18.035762269041509, 42.4415921 ], [ 18.022850637432274, 42.4415921 ] ] ] } },
{ "type": "Feature", "properties": { "BM": 4624, "longitude": 17.960305976904667, "latitude": 42.721809864179889, "population": 83 }, "geometry": { "type": "Polygon", "coordinates": [ [ [ 17.935228085011058, 42.717535397414856 ], [ 17.952590203548564, 42.74167743684945 ], [ 17.968445144772378, 42.740226848458107 ], [ 17.979630986802828, 42.714950418334006 ], [ 17.978519480017749, 42.700360283162247 ], [ 17.93544494928204, 42.716969077924539 ], [ 17.935228085011058, 42.717535397414856 ] ] ] } },
{ "type": "Feature", "properties": { "BM": 4634, "longitude": 17.995193131500759, "latitude": 42.716243299053339, "population": 43 }, "geometry": { "type": "Polygon", "coordinates": [ [ [ 17.979630986802828, 42.714950418334006 ], [ 18.011427876862619, 42.765888944062326 ], [ 18.001689503378735, 42.690481205781879 ], [ 17.996531693499428, 42.684063843061935 ], [ 17.9920378545436, 42.679468838958591 ], [ 17.978519480017749, 42.700360283162247 ], [ 17.979630986802828, 42.714950418334006 ] ] ] } },
{ "type": "Feature", "properties": { "BM": 4635, "longitude": 18.039173123225218, "latitude": 42.848511423007714, "population": 86 }, "geometry": { "type": "Polygon", "coordinates": [ [ [ 18.126270655998692, 43.012210162811094 ], [ 18.011427876862619, 42.765888944062326 ], [ 17.979630986802828, 42.714950418334006 ], [ 17.968445144772378, 42.740226848458107 ], [ 18.153045507296415, 43.07313849737055 ], [ 18.126270655998692, 43.012210162811094 ] ] ] } },
{ "type": "Feature", "properties": { "BM": 4636, "longitude": 18.077982520578988, "latitude": 42.852628347790841, "population": 61 }, "geometry": { "type": "Polygon", "coordinates": [ [ [ 18.153045507296415, 43.07313849737055 ], [ 18.165852464782887, 43.100061871171135 ], [ 18.050460153031896, 42.721707465733417 ], [ 18.006828481430006, 42.695402307463091 ], [ 18.126270655998692, 43.012210162811094 ], [ 18.153045507296415, 43.07313849737055 ] ] ] } },
{ "type": "Feature", "properties": { "BM": 4971, "longitude": 19.067432010334148, "latitude": 42.64330046679806, "population": 149 }, "geometry": { "type": "Polygon", "coordinates": [ [ [ 19.4035844, 42.4415921 ], [ 18.455244963974511, 42.4415921 ], [ 18.456419533392069, 42.446040737355169 ], [ 18.546820805573212, 42.543850384845705 ], [ 19.4035844, 43.0398748866237 ], [ 19.4035844, 42.4415921 ] ] ] } },
{ "type": "Feature", "properties": { "BM": 4942, "longitude": 18.402544226833879, "latitude": 42.467229375385863, "population": 61 }, "geometry": { "type": "Polygon", "coordinates": [ [ [ 18.373122864273093, 42.4415921 ], [ 18.394232357393598, 42.487398640817801 ], [ 18.43450013031574, 42.486669922633801 ], [ 18.430268473986896, 42.473708802739175 ], [ 18.391305353342975, 42.4415921 ], [ 18.373122864273093, 42.4415921 ] ] ] } },
{ "type": "Feature", "properties": { "BM": 4940, "longitude": 18.412599375076542, "latitude": 42.496600639093138, "population": 59 }, "geometry": { "type": "Polygon", "coordinates": [ [ [ 18.43450013031574, 42.486669922633801 ], [ 18.394232357393598, 42.487398640817801 ], [ 18.397174971550498, 42.51402400833436 ], [ 18.438956032293255, 42.493827903260666 ], [ 18.43450013031574, 42.486669922633801 ] ] ] } },
{ "type": "Feature", "properties": { "BM": 4941, "longitude": 18.477270660570916, "latitude": 42.49404538866132, "population": 68 }, "geometry": { "type": "Polygon", "coordinates": [ [ [ 18.438956032293255, 42.493827903260666 ], [ 18.484712754082661, 42.520392283749544 ], [ 18.546820805573212, 42.543850384845705 ], [ 18.456419533392069, 42.446040737355169 ], [ 18.430268473986896, 42.473708802739175 ], [ 18.43450013031574, 42.486669922633801 ], [ 18.438956032293255, 42.493827903260666 ] ] ] } },
{ "type": "Feature", "properties": { "BM": 4899, "longitude": 18.337388050378056, "latitude": 42.486710820274673, "population": 159 }, "geometry": { "type": "Polygon", "coordinates": [ [ [ 18.309717398580382, 42.4415921 ], [ 18.338280213685994, 42.532512714163751 ], [ 18.345254834902146, 42.531996543464352 ], [ 18.356464839275286, 42.527568950800379 ], [ 18.36175898455242, 42.502508996013788 ], [ 18.331026281147707, 42.4415921 ], [ 18.309717398580382, 42.4415921 ] ] ] } },
{ "type": "Feature", "properties": { "BM": 4902, "longitude": 18.359444451161139, "latitude": 42.540161745474393, "population": 170 }, "geometry": { "type": "Polygon", "coordinates": [ [ [ 18.345254834902146, 42.531996543464352 ], [ 18.357329479594924, 42.552565951049168 ], [ 18.372366501672957, 42.550947667622083 ], [ 18.365771445001773, 42.531493849651163 ], [ 18.356464839275286, 42.527568950800379 ], [ 18.345254834902146, 42.531996543464352 ] ] ] } },
{ "type": "Feature", "properties": { "BM": 4901, "longitude": 18.379585866238628, "latitude": 42.577515362426496, "population": 18 }, "geometry": { "type": "Polygon", "coordinates": [ [ [ 18.351830623541773, 42.580783252592546 ], [ 18.415316126059615, 42.609686418991089 ], [ 18.403805609485719, 42.577851344239434 ], [ 18.372366501672957, 42.550947667622083 ], [ 18.357329479594924, 42.552565951049168 ], [ 18.348535314978104, 42.565045349946061 ], [ 18.351830623541773, 42.580783252592546 ] ] ] } },
{ "type": "Feature", "properties": { "BM": 4906, "longitude": 18.388340883631471, "latitude": 42.544930986311293, "population": 150 }, "geometry": { "type": "Polygon", "coordinates": [ [ [ 18.372366501672957, 42.550947667622083 ], [ 18.403805609485719, 42.577851344239434 ], [ 18.401263177384429, 42.528329889878748 ], [ 18.397138750476369, 42.520359698313626 ], [ 18.365771445001773, 42.531493849651163 ], [ 18.372366501672957, 42.550947667622083 ] ] ] } },
{ "type": "Feature", "properties": { "BM": 4907, "longitude": 18.373949176819504, "latitude": 42.517736929415356, "population": 739 }, "geometry": { "type": "Polygon", "coordinates": [ [ [ 18.397138750476369, 42.520359698313626 ], [ 18.396956782979071, 42.5145137716286 ], [ 18.36175898455242, 42.502508996013788 ], [ 18.356464839275286, 42.527568950800379 ], [ 18.365771445001773, 42.531493849651163 ], [ 18.397138750476369, 42.520359698313626 ] ] ] } },
{ "type": "Feature", "properties": { "BM": 4908, "longitude": 19.005971378267848, "latitude": 43.062478508605579, "population": 334 }, "geometry": { "type": "Polygon", "coordinates": [ [ [ 19.4035844, 43.0398748866237 ], [ 18.546820805573212, 42.543850384845705 ], [ 18.484712754082661, 42.520392283749544 ], [ 18.401263177384429, 42.528329889878748 ], [ 18.403805609485719, 42.577851344239434 ], [ 18.415316126059615, 42.609686418991089 ], [ 19.199080470984477, 43.597776395287141 ], [ 19.290936563916247, 43.578542235127266 ], [ 19.4035844, 43.548178661502845 ], [ 19.4035844, 43.0398748866237 ] ] ] } },
{ "type": "Feature", "properties": { "BM": 4919, "longitude": 18.435241997562223, "latitude": 42.513799054471718, "population": 248 }, "geometry": { "type": "Polygon", "coordinates": [ [ [ 18.396956782979071, 42.5145137716286 ], [ 18.397138750476369, 42.520359698313626 ], [ 18.401263177384429, 42.528329889878748 ], [ 18.484712754082661, 42.520392283749544 ], [ 18.438956032293255, 42.493827903260666 ], [ 18.397174971550498, 42.51402400833436 ], [ 18.396956782979071, 42.5145137716286 ] ] ] } },
{ "type": "Feature", "properties": { "BM": 4864, "longitude": 18.291719373653084, "latitude": 42.572717164221046, "population": 168 }, "geometry": { "type": "Polygon", "coordinates": [ [ [ 18.278381712342526, 42.592634725020446 ], [ 18.312076267240659, 42.57426112480227 ], [ 18.309620297677665, 42.563093379027542 ], [ 18.300279818388521, 42.55770658019987 ], [ 18.274802304808873, 42.56396667358954 ], [ 18.278381712342526, 42.592634725020446 ] ] ] } },
{ "type": "Feature", "properties": { "BM": 4868, "longitude": 18.306746651476058, "latitude": 42.539000504234536, "population": 198 }, "geometry": { "type": "Polygon", "coordinates": [ [ [ 18.309620297677665, 42.563093379027542 ], [ 18.329549186191102, 42.544133334077195 ], [ 18.330934201292099, 42.539800733133674 ], [ 18.283426111314022, 42.510221696577688 ], [ 18.300279818388521, 42.55770658019987 ], [ 18.309620297677665, 42.563093379027542 ] ] ] } },
{ "type": "Feature", "properties": { "BM": 4869, "longitude": 18.683070434077255, "latitude": 43.254342828220018, "population": 61 }, "geometry": { "type": "Polygon", "coordinates": [ [ [ 18.522039565449838, 43.465139546189242 ], [ 18.626563485288269, 43.734175325438208 ], [ 18.901682186880301, 43.672652026376362 ], [ 19.199080470984477, 43.597776395287141 ], [ 18.415316126059615, 42.609686418991089 ], [ 18.351830623541773, 42.580783252592546 ], [ 18.327830050456139, 42.585470960328323 ], [ 18.3239929156084, 42.823837996838023 ], [ 18.522039565449838, 43.465139546189242 ] ] ] } },
{ "type": "Feature", "properties": { "BM": 4876, "longitude": 18.307090003984786, "latitude": 42.687027805077975, "population": 42 }, "geometry": { "type": "Polygon", "coordinates": [ [ [ 18.279097284163004, 42.705837039369761 ], [ 18.3239929156084, 42.823837996838023 ], [ 18.327830050456139, 42.585470960328323 ], [ 18.315272210216509, 42.578219844032745 ], [ 18.275238401962358, 42.660925040984978 ], [ 18.279097284163004, 42.705837039369761 ] ] ] } },
{ "type": "Feature", "properties": { "BM": 4886, "longitude": 18.367585639565004, "latitude": 42.474044267919538, "population": 50 }, "geometry": { "type": "Polygon", "coordinates": [ [ [ 18.331026281147707, 42.4415921 ], [ 18.36175898455242, 42.502508996013788 ], [ 18.396956782979071, 42.5145137716286 ], [ 18.397174971550498, 42.51402400833436 ], [ 18.394232357393598, 42.487398640817801 ], [ 18.373122864273093, 42.4415921 ], [ 18.331026281147707, 42.4415921 ] ] ] } },
{ "type": "Feature", "properties": { "BM": 4884, "longitude": 18.330451202109458, "latitude": 42.567665272612352, "population": 125 }, "geometry": { "type": "Polygon", "coordinates": [ [ [ 18.309620297677665, 42.563093379027542 ], [ 18.312076267240659, 42.57426112480227 ], [ 18.315272210216509, 42.578219844032745 ], [ 18.327830050456139, 42.585470960328323 ], [ 18.351830623541773, 42.580783252592546 ], [ 18.348535314978104, 42.565045349946061 ], [ 18.329549186191102, 42.544133334077195 ], [ 18.309620297677665, 42.563093379027542 ] ] ] } },
{ "type": "Feature", "properties": { "BM": 4892, "longitude": 18.343773858016657, "latitude": 42.546980354492732, "population": 191 }, "geometry": { "type": "Polygon", "coordinates": [ [ [ 18.329549186191102, 42.544133334077195 ], [ 18.348535314978104, 42.565045349946061 ], [ 18.357329479594924, 42.552565951049168 ], [ 18.345254834902146, 42.531996543464352 ], [ 18.338280213685994, 42.532512714163751 ], [ 18.330934201292099, 42.539800733133674 ], [ 18.329549186191102, 42.544133334077195 ] ] ] } },
{ "type": "Feature", "properties": { "BM": 4326, "longitude": 17.611935021754356, "latitude": 43.032121845983845, "population": 136 }, "geometry": { "type": "Polygon", "coordinates": [ [ [ 17.592378156773517, 43.043046998478772 ], [ 17.619338817814281, 43.05406084251544 ], [ 17.619922561556638, 43.053805108389909 ], [ 17.629123807519701, 43.032083324602894 ], [ 17.62710801944452, 43.017359429837526 ], [ 17.606489478319684, 43.010596023542924 ], [ 17.59843975199918, 43.022556211437632 ], [ 17.592378156773517, 43.043046998478772 ] ] ] } },
{ "type": "Feature", "properties": { "BM": 4335, "longitude": 17.595620837272172, "latitude": 42.708664262415688, "population": 94 }, "geometry": { "type": "Polygon", "coordinates": [ [ [ 17.579723875985721, 42.554560583055924 ], [ 17.573749889019535, 42.79928914016287 ], [ 17.629676309257672, 42.793170036461476 ], [ 17.603635452707803, 42.630019512120619 ], [ 17.579723875985721, 42.554560583055924 ] ] ] } },
{ "type": "Feature", "properties": { "BM": 4339, "longitude": 17.625429045498112, "latitude": 42.94455706048165, "population": 46 }, "geometry": { "type": "Polygon", "coordinates": [ [ [ 17.582480900248708, 42.965922501111379 ], [ 17.623455019302231, 42.976821082820237 ], [ 17.648947182857651, 42.972294011616263 ], [ 17.668285567058035, 42.952934197136372 ], [ 17.643151491067965, 42.910181269948048 ], [ 17.606023724819028, 42.909745242892036 ], [ 17.582480900248708, 42.965922501111379 ] ] ] } },
{ "type": "Feature", "properties": { "BM": 4336, "longitude": 17.623209710675507, "latitude": 42.994918614076198, "population": 238 }, "geometry": { "type": "Polygon", "coordinates": [ [ [ 17.59547606369129, 43.000104785004041 ], [ 17.606489478319684, 43.010596023542924 ], [ 17.62710801944452, 43.017359429837526 ], [ 17.631375991168717, 43.012357084288936 ], [ 17.648947182857651, 42.972294011616263 ], [ 17.623455019302231, 42.976821082820237 ], [ 17.59547606369129, 43.000104785004041 ] ] ] } },
{ "type": "Feature", "properties": { "BM": 4342, "longitude": 17.686577281675437, "latitude": 43.142650586044844, "population": 626 }, "geometry": { "type": "Polygon", "coordinates": [ [ [ 17.606136345630496, 43.074184025914207 ], [ 17.823839044517072, 43.299051966600935 ], [ 17.656263117769459, 43.086901344016574 ], [ 17.630634701617648, 43.061547414847219 ], [ 17.630548234912094, 43.061473730326512 ], [ 17.621930989133116, 43.055226177614109 ], [ 17.619922561556638, 43.053805108389909 ], [ 17.619338817814281, 43.05406084251544 ], [ 17.606136345630496, 43.074184025914207 ] ] ] } },
{ "type": "Feature", "properties": { "BM": 4343, "longitude": 17.662830207993178, "latitude": 43.027341803022118, "population": 93 }, "geometry": { "type": "Polygon", "coordinates": [ [ [ 17.629123807519701, 43.032083324602894 ], [ 17.660422341215565, 43.039277439510698 ], [ 17.722703894003931, 43.030599631336969 ], [ 17.631375991168717, 43.012357084288936 ], [ 17.62710801944452, 43.017359429837526 ], [ 17.629123807519701, 43.032083324602894 ] ] ] } },
{ "type": "Feature", "properties": { "BM": 4349, "longitude": 17.638361588764823, "latitude": 43.043779451138782, "population": 699 }, "geometry": { "type": "Polygon", "coordinates": [ [ [ 17.629123807519701, 43.032083324602894 ], [ 17.619922561556638, 43.053805108389909 ], [ 17.621930989133116, 43.055226177614109 ], [ 17.651818834559524, 43.049350874890358 ], [ 17.658638978169446, 43.042446531976623 ], [ 17.660422341215565, 43.039277439510698 ], [ 17.629123807519701, 43.032083324602894 ] ] ] } },
{ "type": "Feature", "properties": { "BM": 4290, "longitude": 17.545177085169492, "latitude": 42.951239615457126, "population": 113 }, "geometry": { "type": "Polygon", "coordinates": [ [ [ 17.544452271288556, 42.979163775042935 ], [ 17.553213978461148, 42.97641610992455 ], [ 17.551939038146958, 42.923440417221776 ], [ 17.537450106158943, 42.925676238187819 ], [ 17.537650936507461, 42.974098230348559 ], [ 17.544452271288556, 42.979163775042935 ] ] ] } },
{ "type": "Feature", "properties": { "BM": 4291, "longitude": 17.53831596012855, "latitude": 42.90555549078104, "population": 62 }, "geometry": { "type": "Polygon", "coordinates": [ [ [ 17.491214685044721, 42.922664105063419 ], [ 17.537450106158943, 42.925676238187819 ], [ 17.551939038146958, 42.923440417221776 ], [ 17.586629740729663, 42.899052621708826 ], [ 17.574567560259652, 42.880888955706027 ], [ 17.495265462591004, 42.899951758210605 ], [ 17.491214685044721, 42.922664105063419 ] ] ] } },
{ "type": "Feature", "properties": { "BM": 4295, "longitude": 17.633911154292555, "latitude": 42.571078202366259, "population": 88 }, "geometry": { "type": "Polygon", "coordinates": [ [ [ 17.559929740077976, 42.4415921 ], [ 17.579723875985721, 42.554560583055924 ], [ 17.603635452707803, 42.630019512120619 ], [ 17.684068996552504, 42.77640552862421 ], [ 17.692652752446758, 42.774463161981323 ], [ 17.665050897330644, 42.4415921 ], [ 17.559929740077976, 42.4415921 ] ] ] } },
{ "type": "Feature", "properties": { "BM": 4298, "longitude": 17.558451312448252, "latitude": 42.995644491362427, "population": 177 }, "geometry": { "type": "Polygon", "coordinates": [ [ [ 17.531912075310899, 43.011939514829265 ], [ 17.564428468766582, 43.012513595392541 ], [ 17.578307295234168, 43.008216643465715 ], [ 17.584445630936219, 42.995059022157434 ], [ 17.573388903568109, 42.976830122562859 ], [ 17.553213978461148, 42.97641610992455 ], [ 17.544452271288556, 42.979163775042935 ], [ 17.53056504091742, 43.010883455319885 ], [ 17.531912075310899, 43.011939514829265 ] ] ] } },
{ "type": "Feature", "properties": { "BM": 4300, "longitude": 17.574780694518715, "latitude": 42.93769254390827, "population": 214 }, "geometry": { "type": "Polygon", "coordinates": [ [ [ 17.586629740729663, 42.899052621708826 ], [ 17.551939038146958, 42.923440417221776 ], [ 17.553213978461148, 42.97641610992455 ], [ 17.573388903568109, 42.976830122562859 ], [ 17.582480900248708, 42.965922501111379 ], [ 17.606023724819028, 42.909745242892036 ], [ 17.586629740729663, 42.899052621708826 ] ] ] } },
{ "type": "Feature", "properties": { "BM": 4301, "longitude": 17.586932672311697, "latitude": 43.062298580515609, "population": 103 }, "geometry": { "type": "Polygon", "coordinates": [ [ [ 17.55967438171044, 43.067975875706757 ], [ 17.584367839995704, 43.087325718219859 ], [ 17.606136345630496, 43.074184025914207 ], [ 17.619338817814281, 43.05406084251544 ], [ 17.592378156773517, 43.043046998478772 ], [ 17.56827245893167, 43.044750145997781 ], [ 17.564973945503777, 43.046903733064994 ], [ 17.559460128676648, 43.064473722514741 ], [ 17.55967438171044, 43.067975875706757 ] ] ] } },
{ "type": "Feature", "properties": { "BM": 4311, "longitude": 17.567522231758694, "latitude": 43.026907978369607, "population": 723 }, "geometry": { "type": "Polygon", "coordinates": [ [ [ 17.564428468766582, 43.012513595392541 ], [ 17.556433396524149, 43.036897398505047 ], [ 17.564973945503777, 43.046903733064994 ], [ 17.56827245893167, 43.044750145997781 ], [ 17.575404918477375, 43.026312664843594 ], [ 17.578307295234168, 43.008216643465715 ], [ 17.564428468766582, 43.012513595392541 ] ] ] } },
{ "type": "Feature", "properties": { "BM": 4309, "longitude": 17.550924646867212, "latitude": 43.020450169575625, "population": 466 }, "geometry": { "type": "Polygon", "coordinates": [ [ [ 17.556433396524149, 43.036897398505047 ], [ 17.564428468766582, 43.012513595392541 ], [ 17.531912075310899, 43.011939514829265 ], [ 17.556433396524149, 43.036897398505047 ] ] ] } },
{ "type": "Feature", "properties": { "BM": 4314, "longitude": 17.595148742498612, "latitude": 42.981710353888147, "population": 44 }, "geometry": { "type": "Polygon", "coordinates": [ [ [ 17.584445630936219, 42.995059022157434 ], [ 17.59547606369129, 43.000104785004041 ], [ 17.623455019302231, 42.976821082820237 ], [ 17.582480900248708, 42.965922501111379 ], [ 17.573388903568109, 42.976830122562859 ], [ 17.584445630936219, 42.995059022157434 ] ] ] } },
{ "type": "Feature", "properties": { "BM": 4312, "longitude": 17.583809627662323, "latitude": 43.03426656981744, "population": 388 }, "geometry": { "type": "Polygon", "coordinates": [ [ [ 17.56827245893167, 43.044750145997781 ], [ 17.592378156773517, 43.043046998478772 ], [ 17.59843975199918, 43.022556211437632 ], [ 17.575404918477375, 43.026312664843594 ], [ 17.56827245893167, 43.044750145997781 ] ] ] } },
{ "type": "Feature", "properties": { "BM": 4313, "longitude": 17.589493562141161, "latitude": 43.012034295921424, "population": 242 }, "geometry": { "type": "Polygon", "coordinates": [ [ [ 17.578307295234168, 43.008216643465715 ], [ 17.575404918477375, 43.026312664843594 ], [ 17.59843975199918, 43.022556211437632 ], [ 17.606489478319684, 43.010596023542924 ], [ 17.59547606369129, 43.000104785004041 ], [ 17.584445630936219, 42.995059022157434 ], [ 17.578307295234168, 43.008216643465715 ] ] ] } },
{ "type": "Feature", "properties": { "BM": 4260, "longitude": 17.515307012945662, "latitude": 42.943255224120314, "population": 164 }, "geometry": { "type": "Polygon", "coordinates": [ [ [ 17.487613856950137, 42.947268341982834 ], [ 17.537650936507461, 42.974098230348559 ], [ 17.537450106158943, 42.925676238187819 ], [ 17.491214685044721, 42.922664105063419 ], [ 17.48699022768346, 42.928796635027197 ], [ 17.487613856950137, 42.947268341982834 ] ] ] } },
{ "type": "Feature", "properties": { "BM": 4270, "longitude": 17.539014142540719, "latitude": 43.038274335874142, "population": 932 }, "geometry": { "type": "Polygon", "coordinates": [ [ [ 17.515722446082485, 43.018501744420128 ], [ 17.52242518342327, 43.048794191507646 ], [ 17.559460128676648, 43.064473722514741 ], [ 17.564973945503777, 43.046903733064994 ], [ 17.556433396524149, 43.036897398505047 ], [ 17.531912075310899, 43.011939514829265 ], [ 17.53056504091742, 43.010883455319885 ], [ 17.519698332654613, 43.015735316018763 ], [ 17.515722446082485, 43.018501744420128 ] ] ] } },
{ "type": "Feature", "properties": { "BM": 4273, "longitude": 17.52511439064083, "latitude": 43.075257048791975, "population": 101 }, "geometry": { "type": "Polygon", "coordinates": [ [ [ 17.495365697124587, 43.095602936020434 ], [ 17.522634484164815, 43.099483050297806 ], [ 17.55967438171044, 43.067975875706757 ], [ 17.559460128676648, 43.064473722514741 ], [ 17.52242518342327, 43.048794191507646 ], [ 17.500832805987702, 43.076042998659425 ], [ 17.495365697124587, 43.095602936020434 ] ] ] } },
{ "type": "Feature", "properties": { "BM": 4283, "longitude": 17.56656072523883, "latitude": 43.120053414284065, "population": 63 }, "geometry": { "type": "Polygon", "coordinates": [ [ [ 17.522634484164815, 43.099483050297806 ], [ 17.599823104926855, 43.196157530531607 ], [ 17.584367839995704, 43.087325718219859 ], [ 17.55967438171044, 43.067975875706757 ], [ 17.522634484164815, 43.099483050297806 ] ] ] } },
{ "type": "Feature", "properties": { "BM": 4285, "longitude": 17.609696940839225, "latitude": 42.849236244767752, "population": 311 }, "geometry": { "type": "Polygon", "coordinates": [ [ [ 17.556231150214952, 42.809413704842157 ], [ 17.574567560259652, 42.880888955706027 ], [ 17.586629740729663, 42.899052621708826 ], [ 17.606023724819028, 42.909745242892036 ], [ 17.643151491067965, 42.910181269948048 ], [ 17.650340272095246, 42.897717424009741 ], [ 17.651147491806693, 42.829586638105127 ], [ 17.644786048010065, 42.796569337664984 ], [ 17.629676309257672, 42.793170036461476 ], [ 17.573749889019535, 42.79928914016287 ], [ 17.566644245100694, 42.80296115179722 ], [ 17.556231150214952, 42.809413704842157 ] ] ] } },
{ "type": "Feature", "properties": { "BM": 4224, "longitude": 17.472057098357762, "latitude": 43.03968742971248, "population": 524 }, "geometry": { "type": "Polygon", "coordinates": [ [ [ 17.469337904485496, 43.071387087120485 ], [ 17.492297121478366, 43.026297264931173 ], [ 17.492319588335427, 43.025664035451356 ], [ 17.454233946940747, 43.021979420085451 ], [ 17.469337904485496, 43.071387087120485 ] ] ] } },
{ "type": "Feature", "properties": { "BM": 4225, "longitude": 17.498735640972601, "latitude": 43.183355803157077, "population": 25 }, "geometry": { "type": "Polygon", "coordinates": [ [ [ 17.502457714714083, 43.224099243374944 ], [ 17.530716169760552, 43.248363644326062 ], [ 17.496979640787547, 43.130039771713555 ], [ 17.467270532974275, 43.150363031806641 ], [ 17.502457714714083, 43.224099243374944 ] ] ] } },
{ "type": "Feature", "properties": { "BM": 4230, "longitude": 17.526795506872617, "latitude": 42.853346208601288, "population": 285 }, "geometry": { "type": "Polygon", "coordinates": [ [ [ 17.48073684113713, 42.829334431784673 ], [ 17.495265462591004, 42.899951758210605 ], [ 17.574567560259652, 42.880888955706027 ], [ 17.556231150214952, 42.809413704842157 ], [ 17.535681760625327, 42.807624970629085 ], [ 17.480855902011324, 42.8292849322347 ], [ 17.48073684113713, 42.829334431784673 ] ] ] } },
{ "type": "Feature", "properties": { "BM": 4228, "longitude": 17.476812849691484, "latitude": 43.120103338572953, "population": 172 }, "geometry": { "type": "Polygon", "coordinates": [ [ [ 17.459770532259434, 43.106312196620536 ], [ 17.456894434446834, 43.138274138354987 ], [ 17.467270532974275, 43.150363031806641 ], [ 17.496979640787547, 43.130039771713555 ], [ 17.495055633314287, 43.095718068469878 ], [ 17.476017619684818, 43.094143942260672 ], [ 17.459770532259434, 43.106312196620536 ] ] ] } },
{ "type": "Feature", "properties": { "BM": 4244, "longitude": 17.952449985798264, "latitude": 43.619276268765724, "population": 409 }, "geometry": { "type": "Polygon", "coordinates": [ [ [ 18.083255554269478, 44.026125989569053 ], [ 18.18036401517179, 44.013744989854239 ], [ 18.336299585040457, 43.909001777216282 ], [ 17.823839044517072, 43.299051966600935 ], [ 17.606136345630496, 43.074184025914207 ], [ 17.584367839995704, 43.087325718219859 ], [ 17.599823104926855, 43.196157530531607 ], [ 17.715362117111983, 43.463357075043 ], [ 18.064236690363366, 44.004671646199093 ], [ 18.083255554269478, 44.026125989569053 ] ] ] } },
{ "type": "Feature", "properties": { "BM": 4245, "longitude": 17.485644050248876, "latitude": 42.976085495304901, "population": 63 }, "geometry": { "type": "Polygon", "coordinates": [ [ [ 17.46992014225226, 42.968618238624245 ], [ 17.47620157860062, 42.97921974174173 ], [ 17.50147979116236, 43.007774850574052 ], [ 17.486460886295696, 42.950851913818028 ], [ 17.486108170507684, 42.949994655389773 ], [ 17.46992014225226, 42.968618238624245 ] ] ] } },
{ "type": "Feature", "properties": { "BM": 4250, "longitude": 17.492886844322555, "latitude": 43.007098422627593, "population": 123 }, "geometry": { "type": "Polygon", "coordinates": [ [ [ 17.50147979116236, 43.007774850574052 ], [ 17.47620157860062, 42.97921974174173 ], [ 17.493591211235049, 43.024918316880012 ], [ 17.50783756666895, 43.019395989326171 ], [ 17.50147979116236, 43.007774850574052 ] ] ] } },
{ "type": "Feature", "properties": { "BM": 4251, "longitude": 17.503790584161766, "latitude": 42.995249818970478, "population": 164 }, "geometry": { "type": "Polygon", "coordinates": [ [ [ 17.50783756666895, 43.019395989326171 ], [ 17.515722446082485, 43.018501744420128 ], [ 17.519698332654613, 43.015735316018763 ], [ 17.486460886295696, 42.950851913818028 ], [ 17.50147979116236, 43.007774850574052 ], [ 17.50783756666895, 43.019395989326171 ] ] ] } },
{ "type": "Feature", "properties": { "BM": 4254, "longitude": 17.585639289726092, "latitude": 43.251274082458252, "population": 52 }, "geometry": { "type": "Polygon", "coordinates": [ [ [ 17.495055633314287, 43.095718068469878 ], [ 17.496979640787547, 43.130039771713555 ], [ 17.530716169760552, 43.248363644326062 ], [ 17.715362117111983, 43.463357075043 ], [ 17.599823104926855, 43.196157530531607 ], [ 17.522634484164815, 43.099483050297806 ], [ 17.495365697124587, 43.095602936020434 ], [ 17.495055633314287, 43.095718068469878 ] ] ] } },
{ "type": "Feature", "properties": { "BM": 4255, "longitude": 17.51742412488823, "latitude": 42.981599935550015, "population": 117 }, "geometry": { "type": "Polygon", "coordinates": [ [ [ 17.486108170507684, 42.949994655389773 ], [ 17.486460886295696, 42.950851913818028 ], [ 17.519698332654613, 43.015735316018763 ], [ 17.53056504091742, 43.010883455319885 ], [ 17.544452271288556, 42.979163775042935 ], [ 17.537650936507461, 42.974098230348559 ], [ 17.487613856950137, 42.947268341982834 ], [ 17.486108170507684, 42.949994655389773 ] ] ] } },
{ "type": "Feature", "properties": { "BM": 4252, "longitude": 17.506921104463714, "latitude": 43.042772531075421, "population": 140 }, "geometry": { "type": "Polygon", "coordinates": [ [ [ 17.492297121478366, 43.026297264931173 ], [ 17.500832805987702, 43.076042998659425 ], [ 17.52242518342327, 43.048794191507646 ], [ 17.515722446082485, 43.018501744420128 ], [ 17.50783756666895, 43.019395989326171 ], [ 17.493591211235049, 43.024918316880012 ], [ 17.492319588335427, 43.025664035451356 ], [ 17.492297121478366, 43.026297264931173 ] ] ] } },
{ "type": "Feature", "properties": { "BM": 4253, "longitude": 17.500279995247393, "latitude": 42.773276482420229, "population": 944 }, "geometry": { "type": "Polygon", "coordinates": [ [ [ 17.480855902011324, 42.8292849322347 ], [ 17.535681760625327, 42.807624970629085 ], [ 17.484302323105528, 42.682919544396896 ], [ 17.480855902011324, 42.8292849322347 ] ] ] } },
{ "type": "Feature", "properties": { "BM": 4204, "longitude": 17.439524253984448, "latitude": 43.088769929608809, "population": 240 }, "geometry": { "type": "Polygon", "coordinates": [ [ [ 17.412752003785656, 43.107112340808435 ], [ 17.459770532259434, 43.106312196620536 ], [ 17.476017619684818, 43.094143942260672 ], [ 17.470381221530729, 43.084023248332066 ], [ 17.441940972136123, 43.066771935015325 ], [ 17.440569875427443, 43.066749563112424 ], [ 17.411646549021189, 43.071743744788662 ], [ 17.412752003785656, 43.107112340808435 ] ] ] } },
{ "type": "Feature", "properties": { "BM": 4214, "longitude": 17.463391938295601, "latitude": 43.00120890115744, "population": 258 }, "geometry": { "type": "Polygon", "coordinates": [ [ [ 17.429821076769869, 42.999366674960811 ], [ 17.450949565134955, 43.020131233582383 ], [ 17.454233946940747, 43.021979420085451 ], [ 17.492319588335427, 43.025664035451356 ], [ 17.493591211235049, 43.024918316880012 ], [ 17.47620157860062, 42.97921974174173 ], [ 17.46992014225226, 42.968618238624245 ], [ 17.43928109334901, 42.990511926746329 ], [ 17.431102079248355, 42.996968278451867 ], [ 17.429821076769869, 42.999366674960811 ] ] ] } },
{ "type": "Feature", "properties": { "BM": 4212, "longitude": 17.417511198565997, "latitude": 43.058159407256873, "population": 427 }, "geometry": { "type": "Polygon", "coordinates": [ [ [ 17.440569875427443, 43.066749563112424 ], [ 17.43207309687466, 43.052995928392974 ], [ 17.39398617410394, 43.041795605570123 ], [ 17.411646549021189, 43.071743744788662 ], [ 17.440569875427443, 43.066749563112424 ] ] ] } },
{ "type": "Feature", "properties": { "BM": 4213, "longitude": 17.432164412556936, "latitude": 43.125783313961108, "population": 308 }, "geometry": { "type": "Polygon", "coordinates": [ [ [ 17.39846491359955, 43.119982624296647 ], [ 17.422337523168032, 43.14998503310435 ], [ 17.441633477150241, 43.148315194637078 ], [ 17.456894434446834, 43.138274138354987 ], [ 17.459770532259434, 43.106312196620536 ], [ 17.412752003785656, 43.107112340808435 ], [ 17.39846491359955, 43.119982624296647 ] ] ] } },
{ "type": "Feature", "properties": { "BM": 4218, "longitude": 17.439117129721886, "latitude": 43.055640478885039, "population": 483 }, "geometry": { "type": "Polygon", "coordinates": [ [ [ 17.440569875427443, 43.066749563112424 ], [ 17.441940972136123, 43.066771935015325 ], [ 17.443560483403044, 43.045573377369394 ], [ 17.43207309687466, 43.052995928392974 ], [ 17.440569875427443, 43.066749563112424 ] ] ] } },
{ "type": "Feature", "properties": { "BM": 4219, "longitude": 17.455002507871324, "latitude": 43.054998929314081, "population": 727 }, "geometry": { "type": "Polygon", "coordinates": [ [ [ 17.470381221530729, 43.084023248332066 ], [ 17.469337904485496, 43.071387087120485 ], [ 17.454233946940747, 43.021979420085451 ], [ 17.450949565134955, 43.020131233582383 ], [ 17.443560483403044, 43.045573377369394 ], [ 17.441940972136123, 43.066771935015325 ], [ 17.470381221530729, 43.084023248332066 ] ] ] } },
{ "type": "Feature", "properties": { "BM": 4223, "longitude": 17.459388652438438, "latitude": 42.949077197885238, "population": 162 }, "geometry": { "type": "Polygon", "coordinates": [ [ [ 17.43928109334901, 42.990511926746329 ], [ 17.46992014225226, 42.968618238624245 ], [ 17.486108170507684, 42.949994655389773 ], [ 17.487613856950137, 42.947268341982834 ], [ 17.48699022768346, 42.928796635027197 ], [ 17.440430719671799, 42.917934815354606 ], [ 17.43928109334901, 42.990511926746329 ] ] ] } },
{ "type": "Feature", "properties": { "BM": 4220, "longitude": 17.486209864105643, "latitude": 43.068800578550658, "population": 181 }, "geometry": { "type": "Polygon", "coordinates": [ [ [ 17.470381221530729, 43.084023248332066 ], [ 17.476017619684818, 43.094143942260672 ], [ 17.495055633314287, 43.095718068469878 ], [ 17.495365697124587, 43.095602936020434 ], [ 17.500832805987702, 43.076042998659425 ], [ 17.492297121478366, 43.026297264931173 ], [ 17.469337904485496, 43.071387087120485 ], [ 17.470381221530729, 43.084023248332066 ] ] ] } },
{ "type": "Feature", "properties": { "BM": 4221, "longitude": 17.446105703240057, "latitude": 42.875018711894377, "population": 223 }, "geometry": { "type": "Polygon", "coordinates": [ [ [ 17.440430719671799, 42.917934815354606 ], [ 17.48699022768346, 42.928796635027197 ], [ 17.491214685044721, 42.922664105063419 ], [ 17.495265462591004, 42.899951758210605 ], [ 17.48073684113713, 42.829334431784673 ], [ 17.440047384364171, 42.821143315093757 ], [ 17.382740870670553, 42.862999086428822 ], [ 17.408776842424846, 42.908284404263803 ], [ 17.440430719671799, 42.917934815354606 ] ] ] } },
{ "type": "Feature", "properties": { "BM": 4160, "longitude": 17.397822783900082, "latitude": 42.773627200408811, "population": 103 }, "geometry": { "type": "Polygon", "coordinates": [ [ [ 17.382740870670553, 42.862999086428822 ], [ 17.440047384364171, 42.821143315093757 ], [ 17.396085936759977, 42.624101038327993 ], [ 17.358102007819909, 42.861907127229976 ], [ 17.382740870670553, 42.862999086428822 ] ] ] } },
{ "type": "Feature", "properties": { "BM": 4173, "longitude": 17.393246301410617, "latitude": 42.979435335535619, "population": 60 }, "geometry": { "type": "Polygon", "coordinates": [ [ [ 17.348514234096395, 43.015842419663521 ], [ 17.377324425969245, 43.018471320606515 ], [ 17.429821076769869, 42.999366674960811 ], [ 17.431102079248355, 42.996968278451867 ], [ 17.408013447716236, 42.914507980994252 ], [ 17.346184377430646, 43.009824670700858 ], [ 17.348514234096395, 43.015842419663521 ] ] ] } },
{ "type": "Feature", "properties": { "BM": 4190, "longitude": 17.418231169350229, "latitude": 43.026542138197179, "population": 846 }, "geometry": { "type": "Polygon", "coordinates": [ [ [ 17.39398617410394, 43.041795605570123 ], [ 17.43207309687466, 43.052995928392974 ], [ 17.443560483403044, 43.045573377369394 ], [ 17.450949565134955, 43.020131233582383 ], [ 17.429821076769869, 42.999366674960811 ], [ 17.377324425969245, 43.018471320606515 ], [ 17.39398617410394, 43.041795605570123 ] ] ] } },
{ "type": "Feature", "properties": { "BM": 4191, "longitude": 17.427871188586632, "latitude": 42.945739857682341, "population": 311 }, "geometry": { "type": "Polygon", "coordinates": [ [ [ 17.408013447716236, 42.914507980994252 ], [ 17.431102079248355, 42.996968278451867 ], [ 17.43928109334901, 42.990511926746329 ], [ 17.440430719671799, 42.917934815354606 ], [ 17.408776842424846, 42.908284404263803 ], [ 17.408013447716236, 42.914507980994252 ] ] ] } },
{ "type": "Feature", "properties": { "BM": 4137, "longitude": 17.37857042612692, "latitude": 43.065711634447837, "population": 478 }, "geometry": { "type": "Polygon", "coordinates": [ [ [ 17.336256708411653, 43.035451915911516 ], [ 17.385161395869968, 43.122460744848382 ], [ 17.39846491359955, 43.119982624296647 ], [ 17.412752003785656, 43.107112340808435 ], [ 17.411646549021189, 43.071743744788662 ], [ 17.39398617410394, 43.041795605570123 ], [ 17.377324425969245, 43.018471320606515 ], [ 17.348514234096395, 43.015842419663521 ], [ 17.336256708411653, 43.035451915911516 ] ] ] } },
{ "type": "Feature", "properties": { "BM": 4147, "longitude": 17.479093717922421, "latitude": 42.605598180116715, "population": 137 }, "geometry": { "type": "Polygon", "coordinates": [ [ [ 17.389088128755553, 42.4415921 ], [ 17.484302323105528, 42.682919544396896 ], [ 17.535681760625327, 42.807624970629085 ], [ 17.556231150214952, 42.809413704842157 ], [ 17.566644245100694, 42.80296115179722 ], [ 17.452216112187717, 42.4415921 ], [ 17.389088128755553, 42.4415921 ] ] ] } },
{ "type": "Feature", "properties": { "BM": 4159, "longitude": 17.431391315365762, "latitude": 42.647905162280132, "population": 96 }, "geometry": { "type": "Polygon", "coordinates": [ [ [ 17.363877375266352, 42.4415921 ], [ 17.396085936759977, 42.624101038327993 ], [ 17.440047384364171, 42.821143315093757 ], [ 17.48073684113713, 42.829334431784673 ], [ 17.480855902011324, 42.8292849322347 ], [ 17.484302323105528, 42.682919544396896 ], [ 17.389088128755553, 42.4415921 ], [ 17.363877375266352, 42.4415921 ] ] ] } },
{ "type": "Feature", "properties": { "BM": 4100, "longitude": 17.291405109221348, "latitude": 43.029025121817931, "population": 519 }, "geometry": { "type": "Polygon", "coordinates": [ [ [ 17.326897957227018, 42.981964432920705 ], [ 17.245595854591713, 43.009615067330259 ], [ 17.245788846239272, 43.075371761949896 ], [ 17.274013702036306, 43.074099359662064 ], [ 17.304604722632778, 43.060553027424284 ], [ 17.336256708411653, 43.035451915911516 ], [ 17.348514234096395, 43.015842419663521 ], [ 17.346184377430646, 43.009824670700858 ], [ 17.326897957227018, 42.981964432920705 ] ] ] } },
{ "type": "Feature", "properties": { "BM": 4101, "longitude": 17.343558106270809, "latitude": 42.917498483773997, "population": 85 }, "geometry": { "type": "Polygon", "coordinates": [ [ [ 17.346184377430646, 43.009824670700858 ], [ 17.408013447716236, 42.914507980994252 ], [ 17.408776842424846, 42.908284404263803 ], [ 17.382740870670553, 42.862999086428822 ], [ 17.358102007819909, 42.861907127229976 ], [ 17.276033733314421, 42.865832470869087 ], [ 17.274533337681273, 42.882644416802918 ], [ 17.326897957227018, 42.981964432920705 ], [ 17.346184377430646, 43.009824670700858 ] ] ] } },
{ "type": "Feature", "properties": { "BM": 4600, "longitude": 17.997009098068883, "latitude": 42.907419301545417, "population": 152 }, "geometry": { "type": "Polygon", "coordinates": [ [ [ 18.163864376784481, 43.222400635965883 ], [ 17.945387033258989, 42.76732410714385 ], [ 17.909044528037118, 42.741968568486406 ], [ 17.8957466342994, 42.745227437257817 ], [ 17.89172680327081, 42.75108117134495 ], [ 18.163864376784481, 43.222400635965883 ] ] ] } },
{ "type": "Feature", "properties": { "BM": 4552, "longitude": 17.986904967712118, "latitude": 42.955922662744015, "population": 495 }, "geometry": { "type": "Polygon", "coordinates": [ [ [ 18.163864376784481, 43.222400635965883 ], [ 17.89172680327081, 42.75108117134495 ], [ 17.866436122877325, 42.763914122445115 ], [ 17.901060143640837, 42.881759431327104 ], [ 18.188254037482537, 43.269095293539692 ], [ 18.163864376784481, 43.222400635965883 ] ] ] } },
{ "type": "Feature", "properties": { "BM": 4553, "longitude": 18.105572926701701, "latitude": 43.046200848285942, "population": 56 }, "geometry": { "type": "Polygon", "coordinates": [ [ [ 18.188254037482537, 43.269095293539692 ], [ 18.208923240178333, 43.301409541302192 ], [ 18.271754823225436, 43.364072601101078 ], [ 18.165852464782887, 43.100061871171135 ], [ 18.153045507296415, 43.07313849737055 ], [ 17.968445144772378, 42.740226848458107 ], [ 17.952590203548564, 42.74167743684945 ], [ 17.945387033258989, 42.76732410714385 ], [ 18.163864376784481, 43.222400635965883 ], [ 18.188254037482537, 43.269095293539692 ] ] ] } },
{ "type": "Feature", "properties": { "BM": 4565, "longitude": 17.856084442521581, "latitude": 42.807695785388937, "population": 188 }, "geometry": { "type": "Polygon", "coordinates": [ [ [ 17.901060143640837, 42.881759431327104 ], [ 17.866436122877325, 42.763914122445115 ], [ 17.814821538004651, 42.759352848946072 ], [ 17.826960531643081, 42.814606858318662 ], [ 17.901060143640837, 42.881759431327104 ] ] ] } },
{ "type": "Feature", "properties": { "BM": 4571, "longitude": 17.871855277616564, "latitude": 42.640220156973051, "population": 191 }, "geometry": { "type": "Polygon", "coordinates": [ [ [ 17.806752247610333, 42.523748853021218 ], [ 17.8957466342994, 42.745227437257817 ], [ 17.909044528037118, 42.741968568486406 ], [ 17.935228085011058, 42.717535397414856 ], [ 17.93544494928204, 42.716969077924539 ], [ 17.806621545422598, 42.490337263872064 ], [ 17.806752247610333, 42.523748853021218 ] ] ] } },
{ "type": "Feature", "properties": { "BM": 4518, "longitude": 17.974908362987108, "latitude": 43.041767006909076, "population": 131 }, "geometry": { "type": "Polygon", "coordinates": [ [ [ 17.793259287944888, 42.834688859162767 ], [ 17.966619914284784, 43.122015529836595 ], [ 18.208923240178333, 43.301409541302192 ], [ 18.188254037482537, 43.269095293539692 ], [ 17.901060143640837, 42.881759431327104 ], [ 17.826960531643081, 42.814606858318662 ], [ 17.793259287944888, 42.834688859162767 ] ] ] } },
{ "type": "Feature", "properties": { "BM": 4516, "longitude": 17.830358340171973, "latitude": 42.678495902245771, "population": 247 }, "geometry": { "type": "Polygon", "coordinates": [ [ [ 17.814821538004651, 42.759352848946072 ], [ 17.866436122877325, 42.763914122445115 ], [ 17.89172680327081, 42.75108117134495 ], [ 17.8957466342994, 42.745227437257817 ], [ 17.806752247610333, 42.523748853021218 ], [ 17.783598961196901, 42.732745468266259 ], [ 17.814821538004651, 42.759352848946072 ] ] ] } },
{ "type": "Feature", "properties": { "BM": 4505, "longitude": 17.847907414951322, "latitude": 42.968782476470992, "population": 131 }, "geometry": { "type": "Polygon", "coordinates": [ [ [ 17.861888546020996, 43.049982902718348 ], [ 17.966619914284784, 43.122015529836595 ], [ 17.793259287944888, 42.834688859162767 ], [ 17.766147901087745, 42.83567209999422 ], [ 17.756857579870619, 42.85769367684378 ], [ 17.861888546020996, 43.049982902718348 ] ] ] } },
{ "type": "Feature", "properties": { "BM": 4450, "longitude": 17.734008003502264, "latitude": 42.813067810444608, "population": 106 }, "geometry": { "type": "Polygon", "coordinates": [ [ [ 17.729380439084945, 42.86036437126716 ], [ 17.756857579870619, 42.85769367684378 ], [ 17.766147901087745, 42.83567209999422 ], [ 17.744682202953296, 42.766075252822596 ], [ 17.700087632992744, 42.775079395634023 ], [ 17.712988054946532, 42.832018950527434 ], [ 17.729380439084945, 42.86036437126716 ] ] ] } },
{ "type": "Feature", "properties": { "BM": 4455, "longitude": 18.149860278122137, "latitude": 42.516648389120071, "population": 651 }, "geometry": { "type": "Polygon", "coordinates": [ [ [ 18.072106670022706, 42.4415921 ], [ 18.148971986546012, 42.565953484703172 ], [ 18.178884192779439, 42.589025870234813 ], [ 18.193123389515954, 42.595731480861566 ], [ 18.207653518361887, 42.600498123919706 ], [ 18.209561769763464, 42.599809764137206 ], [ 18.223197220692036, 42.583973039414886 ], [ 18.131997886912536, 42.4415921 ], [ 18.072106670022706, 42.4415921 ] ] ] } },
{ "type": "Feature", "properties": { "BM": 4452, "longitude": 17.779367717442096, "latitude": 42.944920700375384, "population": 101 }, "geometry": { "type": "Polygon", "coordinates": [ [ [ 17.814309974179217, 43.027542037791314 ], [ 17.861888546020996, 43.049982902718348 ], [ 17.756857579870619, 42.85769367684378 ], [ 17.729380439084945, 42.86036437126716 ], [ 17.710975256614862, 42.875015957241075 ], [ 17.708244649767476, 42.878901774523193 ], [ 17.799856449156668, 43.017966796245112 ], [ 17.814309974179217, 43.027542037791314 ] ] ] } },
{ "type": "Feature", "properties": { "BM": 4468, "longitude": 17.786045717087081, "latitude": 42.787779409343166, "population": 148 }, "geometry": { "type": "Polygon", "coordinates": [ [ [ 17.744682202953296, 42.766075252822596 ], [ 17.766147901087745, 42.83567209999422 ], [ 17.793259287944888, 42.834688859162767 ], [ 17.826960531643081, 42.814606858318662 ], [ 17.814821538004651, 42.759352848946072 ], [ 17.783598961196901, 42.732745468266259 ], [ 17.744682202953296, 42.766075252822596 ] ] ] } },
{ "type": "Feature", "properties": { "BM": 4429, "longitude": 17.711709890833088, "latitude": 42.853629295080196, "population": 119 }, "geometry": { "type": "Polygon", "coordinates": [ [ [ 17.710975256614862, 42.875015957241075 ], [ 17.729380439084945, 42.86036437126716 ], [ 17.712988054946532, 42.832018950527434 ], [ 17.69373870997563, 42.847622725387879 ], [ 17.710975256614862, 42.875015957241075 ] ] ] } },
{ "type": "Feature", "properties": { "BM": 4443, "longitude": 17.736804418838656, "latitude": 42.589894679404047, "population": 134 }, "geometry": { "type": "Polygon", "coordinates": [ [ [ 17.665050897330644, 42.4415921 ], [ 17.692652752446758, 42.774463161981323 ], [ 17.700087632992744, 42.775079395634023 ], [ 17.744682202953296, 42.766075252822596 ], [ 17.783598961196901, 42.732745468266259 ], [ 17.806752247610333, 42.523748853021218 ], [ 17.806621545422598, 42.490337263872064 ], [ 17.80224414121184, 42.4415921 ], [ 17.665050897330644, 42.4415921 ] ] ] } },
{ "type": "Feature", "properties": { "BM": 4386, "longitude": 17.706736181142993, "latitude": 43.000659195679177, "population": 216 }, "geometry": { "type": "Polygon", "coordinates": [ [ [ 17.631375991168717, 43.012357084288936 ], [ 17.722703894003931, 43.030599631336969 ], [ 17.814309974179217, 43.027542037791314 ], [ 17.799856449156668, 43.017966796245112 ], [ 17.668285567058035, 42.952934197136372 ], [ 17.648947182857651, 42.972294011616263 ], [ 17.631375991168717, 43.012357084288936 ] ] ] } },
{ "type": "Feature", "properties": { "BM": 4387, "longitude": 17.646884105810344, "latitude": 43.067399646464231, "population": 1173 }, "geometry": { "type": "Polygon", "coordinates": [ [ [ 17.656263117769459, 43.086901344016574 ], [ 17.654182553651303, 43.056052326006444 ], [ 17.650251080772318, 43.05456773234323 ], [ 17.630634701617648, 43.061547414847219 ], [ 17.656263117769459, 43.086901344016574 ] ] ] } },
{ "type": "Feature", "properties": { "BM": 4384, "longitude": 17.653976134423903, "latitude": 43.050426721090929, "population": 742 }, "geometry": { "type": "Polygon", "coordinates": [ [ [ 17.650586516113652, 43.05079710460074 ], [ 17.650251080772318, 43.05456773234323 ], [ 17.654182553651303, 43.056052326006444 ], [ 17.658638978169446, 43.042446531976623 ], [ 17.651818834559524, 43.049350874890358 ], [ 17.650586516113652, 43.05079710460074 ] ] ] } },
{ "type": "Feature", "properties": { "BM": 4385, "longitude": 17.64361119435771, "latitude": 43.0557120421429, "population": 1145 }, "geometry": { "type": "Polygon", "coordinates": [ [ [ 17.630634701617648, 43.061547414847219 ], [ 17.650251080772318, 43.05456773234323 ], [ 17.650586516113652, 43.05079710460074 ], [ 17.630548234912094, 43.061473730326512 ], [ 17.630634701617648, 43.061547414847219 ] ] ] } },
{ "type": "Feature", "properties": { "BM": 4394, "longitude": 17.712089854015158, "latitude": 42.940228306155028, "population": 165 }, "geometry": { "type": "Polygon", "coordinates": [ [ [ 17.643151491067965, 42.910181269948048 ], [ 17.668285567058035, 42.952934197136372 ], [ 17.799856449156668, 43.017966796245112 ], [ 17.708244649767476, 42.878901774523193 ], [ 17.650340272095246, 42.897717424009741 ], [ 17.643151491067965, 42.910181269948048 ] ] ] } },
{ "type": "Feature", "properties": { "BM": 4395, "longitude": 17.680692632705522, "latitude": 42.811124312105662, "population": 573 }, "geometry": { "type": "Polygon", "coordinates": [ [ [ 17.651147491806693, 42.829586638105127 ], [ 17.69373870997563, 42.847622725387879 ], [ 17.712988054946532, 42.832018950527434 ], [ 17.700087632992744, 42.775079395634023 ], [ 17.692652752446758, 42.774463161981323 ], [ 17.684068996552504, 42.77640552862421 ], [ 17.644786048010065, 42.796569337664984 ], [ 17.651147491806693, 42.829586638105127 ] ] ] } },
{ "type": "Feature", "properties": { "BM": 4414, "longitude": 17.673871257283327, "latitude": 42.865215935788811, "population": 345 }, "geometry": { "type": "Polygon", "coordinates": [ [ [ 17.650340272095246, 42.897717424009741 ], [ 17.708244649767476, 42.878901774523193 ], [ 17.710975256614862, 42.875015957241075 ], [ 17.69373870997563, 42.847622725387879 ], [ 17.651147491806693, 42.829586638105127 ], [ 17.650340272095246, 42.897717424009741 ] ] ] } },
{ "type": "Feature", "properties": { "BM": 4413, "longitude": 17.910075255180448, "latitude": 42.557930472920482, "population": 282 }, "geometry": { "type": "Polygon", "coordinates": [ [ [ 17.80224414121184, 42.4415921 ], [ 17.806621545422598, 42.490337263872064 ], [ 17.93544494928204, 42.716969077924539 ], [ 17.978519480017749, 42.700360283162247 ], [ 17.9920378545436, 42.679468838958591 ], [ 17.991835618092789, 42.612839278035288 ], [ 17.943207377128591, 42.4415921 ], [ 17.80224414121184, 42.4415921 ] ] ] } },
{ "type": "Feature", "properties": { "BM": 4374, "longitude": 18.039486627593156, "latitude": 42.530232375822685, "population": 1359 }, "geometry": { "type": "Polygon", "coordinates": [ [ [ 17.987255967542946, 42.4415921 ], [ 18.07728696077422, 42.648208660021979 ], [ 18.078378410053933, 42.649498948555092 ], [ 18.081456493508909, 42.651015616683232 ], [ 18.085914543852535, 42.651157140435551 ], [ 18.087033232866087, 42.649567375535732 ], [ 18.07981333369975, 42.606232143770342 ], [ 18.022850637432274, 42.4415921 ], [ 17.987255967542946, 42.4415921 ] ] ] } },
{ "type": "Feature", "properties": { "BM": 4375, "longitude": 18.186269625298021, "latitude": 42.509399248672743, "population": 788 }, "geometry": { "type": "Polygon", "coordinates": [ [ [ 18.131997886912536, 42.4415921 ], [ 18.223197220692036, 42.583973039414886 ], [ 18.233059390115375, 42.580829445238713 ], [ 18.231624562359602, 42.56283743831861 ], [ 18.154537823828441, 42.4415921 ], [ 18.131997886912536, 42.4415921 ] ] ] } },
{ "type": "Feature", "properties": { "BM": 4373, "longitude": 18.137572255588793, "latitude": 43.457938473146328, "population": 800 }, "geometry": { "type": "Polygon", "coordinates": [ [ [ 18.336299585040457, 43.909001777216282 ], [ 18.584127168670058, 43.752128276403859 ], [ 18.593403949029899, 43.746060302096573 ], [ 18.271754823225436, 43.364072601101078 ], [ 18.208923240178333, 43.301409541302192 ], [ 17.966619914284784, 43.122015529836595 ], [ 17.861888546020996, 43.049982902718348 ], [ 17.814309974179217, 43.027542037791314 ], [ 17.722703894003931, 43.030599631336969 ], [ 17.660422341215565, 43.039277439510698 ], [ 17.658638978169446, 43.042446531976623 ], [ 17.654182553651303, 43.056052326006444 ], [ 17.656263117769459, 43.086901344016574 ], [ 17.823839044517072, 43.299051966600935 ], [ 18.336299585040457, 43.909001777216282 ] ] ] } },
{ "type": "Feature", "properties": { "BM": 4376, "longitude": 17.639743476575799, "latitude": 42.735693765797635, "population": 68 }, "geometry": { "type": "Polygon", "coordinates": [ [ [ 17.644786048010065, 42.796569337664984 ], [ 17.684068996552504, 42.77640552862421 ], [ 17.603635452707803, 42.630019512120619 ], [ 17.629676309257672, 42.793170036461476 ], [ 17.644786048010065, 42.796569337664984 ] ] ] } },
{ "type": "Feature", "properties": { "BM": 4381, "longitude": 17.635362984932311, "latitude": 43.055257992414333, "population": 1087 }, "geometry": { "type": "Polygon", "coordinates": [ [ [ 17.630548234912094, 43.061473730326512 ], [ 17.650586516113652, 43.05079710460074 ], [ 17.651818834559524, 43.049350874890358 ], [ 17.621930989133116, 43.055226177614109 ], [ 17.630548234912094, 43.061473730326512 ] ] ] } },
{ "type": "Feature", "properties": { "BM": 3773, "longitude": 17.001618941923159, "latitude": 42.979160346405848, "population": 388 }, "geometry": { "type": "Polygon", "coordinates": [ [ [ 16.952091219082295, 43.015775317084817 ], [ 17.056074122386431, 42.991350897375696 ], [ 17.057952586623983, 42.980208470844964 ], [ 16.985670885961635, 42.934057477912766 ], [ 16.952091219082295, 43.015775317084817 ] ] ] } },
{ "type": "Feature", "properties": { "BM": 3726, "longitude": 17.016437237788296, "latitude": 42.626730462640772, "population": 229 }, "geometry": { "type": "Polygon", "coordinates": [ [ [ 16.962311879940557, 42.4415921 ], [ 16.866417048006632, 42.742169986574623 ], [ 16.980455572347974, 42.837774469645986 ], [ 16.999556308058903, 42.833857177879366 ], [ 17.057103802428902, 42.79080155301552 ], [ 17.080342761020283, 42.762868548186994 ], [ 17.134499304412266, 42.668530754348865 ], [ 17.142773414273265, 42.4415921 ], [ 16.962311879940557, 42.4415921 ] ] ] } },
{ "type": "Feature", "properties": { "BM": 3725, "longitude": 17.269528565054816, "latitude": 42.629725402782917, "population": 155 }, "geometry": { "type": "Polygon", "coordinates": [ [ [ 17.142773414273265, 42.4415921 ], [ 17.134499304412266, 42.668530754348865 ], [ 17.276033733314421, 42.865832470869087 ], [ 17.358102007819909, 42.861907127229976 ], [ 17.396085936759977, 42.624101038327993 ], [ 17.363877375266352, 42.4415921 ], [ 17.142773414273265, 42.4415921 ] ] ] } },
{ "type": "Feature", "properties": { "BM": 3706, "longitude": 16.946887044002896, "latitude": 42.933005110300194, "population": 511 }, "geometry": { "type": "Polygon", "coordinates": [ [ [ 16.89555923831346, 43.036309703183846 ], [ 16.936030218828506, 43.034360031010088 ], [ 16.952091219082295, 43.015775317084817 ], [ 16.985670885961635, 42.934057477912766 ], [ 16.999556308058903, 42.833857177879366 ], [ 16.980455572347974, 42.837774469645986 ], [ 16.929656737407203, 42.849143324362416 ], [ 16.902874689834189, 42.986495477265294 ], [ 16.89555923831346, 43.036309703183846 ] ] ] } },
{ "type": "Feature", "properties": { "BM": 3705, "longitude": 16.896958551305911, "latitude": 42.808145365286066, "population": 265 }, "geometry": { "type": "Polygon", "coordinates": [ [ [ 16.917065015432808, 42.849032352801352 ], [ 16.929656737407203, 42.849143324362416 ], [ 16.980455572347974, 42.837774469645986 ], [ 16.866417048006632, 42.742169986574623 ], [ 16.834752506742586, 42.826719219976304 ], [ 16.917065015432808, 42.849032352801352 ] ] ] } },
{ "type": "Feature", "properties": { "BM": 3649, "longitude": 16.848018893778981, "latitude": 42.877533689515502, "population": 374 }, "geometry": { "type": "Polygon", "coordinates": [ [ [ 16.842801413616598, 42.959880067277055 ], [ 16.885754394214612, 42.90152444676734 ], [ 16.917065015432808, 42.849032352801352 ], [ 16.834752506742586, 42.826719219976304 ], [ 16.782644425289657, 42.83660477641093 ], [ 16.842801413616598, 42.959880067277055 ] ] ] } },
{ "type": "Feature", "properties": { "BM": 3667, "longitude": 16.906689205114215, "latitude": 42.906634276718023, "population": 378 }, "geometry": { "type": "Polygon", "coordinates": [ [ [ 16.885754394214612, 42.90152444676734 ], [ 16.902874689834189, 42.986495477265294 ], [ 16.929656737407203, 42.849143324362416 ], [ 16.917065015432808, 42.849032352801352 ], [ 16.885754394214612, 42.90152444676734 ] ] ] } },
{ "type": "Feature", "properties": { "BM": 3668, "longitude": 16.873891726846132, "latitude": 42.980883935186142, "population": 1280 }, "geometry": { "type": "Polygon", "coordinates": [ [ [ 16.850078950297345, 43.03266701988322 ], [ 16.884085847561387, 43.039346337256852 ], [ 16.89555923831346, 43.036309703183846 ], [ 16.902874689834189, 42.986495477265294 ], [ 16.885754394214612, 42.90152444676734 ], [ 16.842801413616598, 42.959880067277055 ], [ 16.850078950297345, 43.03266701988322 ] ] ] } },
{ "type": "Feature", "properties": { "BM": 3610, "longitude": 17.533761234462389, "latitude": 42.572894882570658, "population": 106 }, "geometry": { "type": "Polygon", "coordinates": [ [ [ 17.452216112187717, 42.4415921 ], [ 17.566644245100694, 42.80296115179722 ], [ 17.573749889019535, 42.79928914016287 ], [ 17.579723875985721, 42.554560583055924 ], [ 17.559929740077976, 42.4415921 ], [ 17.452216112187717, 42.4415921 ] ] ] } },
{ "type": "Feature", "properties": { "BM": 4006, "longitude": 17.164751682804027, "latitude": 42.985579133380938, "population": 172 }, "geometry": { "type": "Polygon", "coordinates": [ [ [ 17.166992837696391, 42.995582202211651 ], [ 17.182108925216173, 42.973295800887357 ], [ 17.150756181222931, 42.984439522801352 ], [ 17.151317855534039, 42.992089937223639 ], [ 17.166992837696391, 42.995582202211651 ] ] ] } },
{ "type": "Feature", "properties": { "BM": 4009, "longitude": 17.179406967970653, "latitude": 42.988937505104154, "population": 176 }, "geometry": { "type": "Polygon", "coordinates": [ [ [ 17.182108925216173, 42.973295800887357 ], [ 17.166992837696391, 42.995582202211651 ], [ 17.186321190180504, 43.001847345404336 ], [ 17.185047165492293, 42.970333876700849 ], [ 17.182108925216173, 42.973295800887357 ] ] ] } },
{ "type": "Feature", "properties": { "BM": 4012, "longitude": 17.209410816260117, "latitude": 42.963774659973353, "population": 912 }, "geometry": { "type": "Polygon", "coordinates": [ [ [ 17.185047165492293, 42.970333876700849 ], [ 17.186321190180504, 43.001847345404336 ], [ 17.19214263801971, 43.004866757590619 ], [ 17.232800847010644, 42.965373643706272 ], [ 17.240720085946759, 42.928260019288651 ], [ 17.192916094669258, 42.945155305606519 ], [ 17.185047165492293, 42.970333876700849 ] ] ] } },
{ "type": "Feature", "properties": { "BM": 4024, "longitude": 17.273289579221725, "latitude": 42.954678420988742, "population": 38 }, "geometry": { "type": "Polygon", "coordinates": [ [ [ 17.232800847010644, 42.965373643706272 ], [ 17.245595854591713, 43.009615067330259 ], [ 17.326897957227018, 42.981964432920705 ], [ 17.274533337681273, 42.882644416802918 ], [ 17.240720085946759, 42.928260019288651 ], [ 17.232800847010644, 42.965373643706272 ] ] ] } },
{ "type": "Feature", "properties": { "BM": 4025, "longitude": 17.222587429334723, "latitude": 43.026498952933309, "population": 16 }, "geometry": { "type": "Polygon", "coordinates": [ [ [ 17.204170873994801, 43.06785113555302 ], [ 17.240502628346523, 43.077744337545383 ], [ 17.245788846239272, 43.075371761949896 ], [ 17.245595854591713, 43.009615067330259 ], [ 17.232800847010644, 42.965373643706272 ], [ 17.19214263801971, 43.004866757590619 ], [ 17.204170873994801, 43.06785113555302 ] ] ] } },
{ "type": "Feature", "properties": { "BM": 3997, "longitude": 17.167973675152481, "latitude": 42.962885383900854, "population": 1224 }, "geometry": { "type": "Polygon", "coordinates": [ [ [ 17.150756181222931, 42.984439522801352 ], [ 17.182108925216173, 42.973295800887357 ], [ 17.185047165492293, 42.970333876700849 ], [ 17.192916094669258, 42.945155305606519 ], [ 17.147320117916795, 42.951866828969578 ], [ 17.150756181222931, 42.984439522801352 ] ] ] } },
{ "type": "Feature", "properties": { "BM": 3938, "longitude": 17.171558091827748, "latitude": 42.827950345714214, "population": 1039 }, "geometry": { "type": "Polygon", "coordinates": [ [ [ 17.080342761020283, 42.762868548186994 ], [ 17.14666843140477, 42.951338068368798 ], [ 17.147320117916795, 42.951866828969578 ], [ 17.192916094669258, 42.945155305606519 ], [ 17.240720085946759, 42.928260019288651 ], [ 17.274533337681273, 42.882644416802918 ], [ 17.276033733314421, 42.865832470869087 ], [ 17.134499304412266, 42.668530754348865 ], [ 17.080342761020283, 42.762868548186994 ] ] ] } },
{ "type": "Feature", "properties": { "BM": 3957, "longitude": 17.154931163784173, "latitude": 43.042033458387181, "population": 44 }, "geometry": { "type": "Polygon", "coordinates": [ [ [ 17.103480214038036, 43.085018910575315 ], [ 17.204170873994801, 43.06785113555302 ], [ 17.19214263801971, 43.004866757590619 ], [ 17.186321190180504, 43.001847345404336 ], [ 17.166992837696391, 42.995582202211651 ], [ 17.151317855534039, 42.992089937223639 ], [ 17.117858232717147, 43.03203560341138 ], [ 17.102741329803045, 43.065730645447601 ], [ 17.103480214038036, 43.085018910575315 ] ] ] } },
{ "type": "Feature", "properties": { "BM": 3925, "longitude": 17.128741672750046, "latitude": 42.985782994539157, "population": 218 }, "geometry": { "type": "Polygon", "coordinates": [ [ [ 17.117858232717147, 43.03203560341138 ], [ 17.151317855534039, 42.992089937223639 ], [ 17.150756181222931, 42.984439522801352 ], [ 17.147320117916795, 42.951866828969578 ], [ 17.14666843140477, 42.951338068368798 ], [ 17.105410281203742, 42.965003889846081 ], [ 17.117858232717147, 43.03203560341138 ] ] ] } },
{ "type": "Feature", "properties": { "BM": 3879, "longitude": 17.094028849314782, "latitude": 42.880447666342462, "population": 962 }, "geometry": { "type": "Polygon", "coordinates": [ [ [ 17.073851004511486, 42.95319244015468 ], [ 17.105410281203742, 42.965003889846081 ], [ 17.14666843140477, 42.951338068368798 ], [ 17.080342761020283, 42.762868548186994 ], [ 17.057103802428902, 42.79080155301552 ], [ 17.073851004511486, 42.95319244015468 ] ] ] } },
{ "type": "Feature", "properties": { "BM": 3844, "longitude": 17.029087040103342, "latitude": 43.044281768531356, "population": 196 }, "geometry": { "type": "Polygon", "coordinates": [ [ [ 16.936030218828506, 43.034360031010088 ], [ 16.968421567956963, 43.061485669053553 ], [ 17.092344574184736, 43.101545616220506 ], [ 17.103480214038036, 43.085018910575315 ], [ 17.102741329803045, 43.065730645447601 ], [ 17.056074122386431, 42.991350897375696 ], [ 16.952091219082295, 43.015775317084817 ], [ 16.936030218828506, 43.034360031010088 ] ] ] } },
{ "type": "Feature", "properties": { "BM": 3866, "longitude": 17.033053188469637, "latitude": 42.891037516064962, "population": 304 }, "geometry": { "type": "Polygon", "coordinates": [ [ [ 16.985670885961635, 42.934057477912766 ], [ 17.057952586623983, 42.980208470844964 ], [ 17.073851004511486, 42.95319244015468 ], [ 17.057103802428902, 42.79080155301552 ], [ 16.999556308058903, 42.833857177879366 ], [ 16.985670885961635, 42.934057477912766 ] ] ] } },
{ "type": "Feature", "properties": { "BM": 3865, "longitude": 17.089684779446522, "latitude": 43.002570199298162, "population": 242 }, "geometry": { "type": "Polygon", "coordinates": [ [ [ 17.056074122386431, 42.991350897375696 ], [ 17.102741329803045, 43.065730645447601 ], [ 17.117858232717147, 43.03203560341138 ], [ 17.105410281203742, 42.965003889846081 ], [ 17.073851004511486, 42.95319244015468 ], [ 17.057952586623983, 42.980208470844964 ], [ 17.056074122386431, 42.991350897375696 ] ] ] } },
{ "type": "Feature", "properties": { "BM": 3427, "longitude": 16.789147075158002, "latitude": 42.939423467451149, "population": 617 }, "geometry": { "type": "Polygon", "coordinates": [ [ [ 16.748521333923438, 42.931246757031566 ], [ 16.762406635550256, 42.98017712302115 ], [ 16.786505801032966, 43.044002058607376 ], [ 16.808584134760611, 43.043889439952068 ], [ 16.850078950297345, 43.03266701988322 ], [ 16.842801413616598, 42.959880067277055 ], [ 16.782644425289657, 42.83660477641093 ], [ 16.722499091986077, 42.825861597039001 ], [ 16.748521333923438, 42.931246757031566 ] ] ] } },
{ "type": "Feature", "properties": { "BM": 3424, "longitude": 16.716410976499212, "latitude": 42.963463367200625, "population": 626 }, "geometry": { "type": "Polygon", "coordinates": [ [ [ 16.722569708080808, 42.967570500775722 ], [ 16.723464829731714, 42.9678205515008 ], [ 16.7144394365707, 42.960199882339644 ], [ 16.71095900736843, 42.962034550779379 ], [ 16.722569708080808, 42.967570500775722 ] ] ] } },
{ "type": "Feature", "properties": { "BM": 3396, "longitude": 16.677068685143336, "latitude": 43.004439093147802, "population": 1090 }, "geometry": { "type": "Polygon", "coordinates": [ [ [ 16.626513784467274, 43.036391549683692 ], [ 16.761748429597869, 43.054986859865238 ], [ 16.786505801032966, 43.044002058607376 ], [ 16.762406635550256, 42.98017712302115 ], [ 16.723464829731714, 42.9678205515008 ], [ 16.722569708080808, 42.967570500775722 ], [ 16.530377826233693, 42.965096234991591 ], [ 16.626513784467274, 43.036391549683692 ] ] ] } },
{ "type": "Feature", "properties": { "BM": 3422, "longitude": 16.74110300667024, "latitude": 42.95820943038764, "population": 792 }, "geometry": { "type": "Polygon", "coordinates": [ [ [ 16.762406635550256, 42.98017712302115 ], [ 16.748521333923438, 42.931246757031566 ], [ 16.7144394365707, 42.960199882339644 ], [ 16.723464829731714, 42.9678205515008 ], [ 16.762406635550256, 42.98017712302115 ] ] ] } },
{ "type": "Feature", "properties": { "BM": 2983, "longitude": 16.598218420237121, "latitude": 42.959301508953466, "population": 538 }, "geometry": { "type": "Polygon", "coordinates": [ [ [ 16.530377826233693, 42.965096234991591 ], [ 16.722569708080808, 42.967570500775722 ], [ 16.71095900736843, 42.962034550779379 ], [ 16.503981128141813, 42.945877431002039 ], [ 16.530377826233693, 42.965096234991591 ] ] ] } },
{ "type": "Feature", "properties": { "BM": 2209, "longitude": 16.569725205701189, "latitude": 42.842754073202208, "population": 834 }, "geometry": { "type": "Polygon", "coordinates": [ [ [ 16.449300841791406, 42.898007085275516 ], [ 16.465657523395016, 42.918969273157181 ], [ 16.503981128141813, 42.945877431002039 ], [ 16.71095900736843, 42.962034550779379 ], [ 16.7144394365707, 42.960199882339644 ], [ 16.748521333923438, 42.931246757031566 ], [ 16.722499091986077, 42.825861597039001 ], [ 16.415434114026802, 42.664699841124119 ], [ 16.449300841791406, 42.898007085275516 ] ] ] } },
{ "type": "Feature", "properties": { "BM": 2036, "longitude": 16.661182130477659, "latitude": 42.597984133848861, "population": 298 }, "geometry": { "type": "Polygon", "coordinates": [ [ [ 16.310793794170465, 42.4415921 ], [ 16.415434114026802, 42.664699841124119 ], [ 16.722499091986077, 42.825861597039001 ], [ 16.782644425289657, 42.83660477641093 ], [ 16.834752506742586, 42.826719219976304 ], [ 16.866417048006632, 42.742169986574623 ], [ 16.962311879940557, 42.4415921 ], [ 16.310793794170465, 42.4415921 ] ] ] } },
{ "type": "Feature", "properties": { "BM": 4834, "longitude": 18.265156351102185, "latitude": 42.587195679344774, "population": 103 }, "geometry": { "type": "Polygon", "coordinates": [ [ [ 18.278381712342526, 42.592634725020446 ], [ 18.274802304808873, 42.56396667358954 ], [ 18.266999934803426, 42.559775907948023 ], [ 18.254081227437617, 42.572459682910534 ], [ 18.251894692803834, 42.600238633912852 ], [ 18.266184357916188, 42.617511142482243 ], [ 18.278381712342526, 42.592634725020446 ] ] ] } },
{ "type": "Feature", "properties": { "BM": 4835, "longitude": 18.286710134653227, "latitude": 42.611860627005342, "population": 47 }, "geometry": { "type": "Polygon", "coordinates": [ [ [ 18.266184357916188, 42.617511142482243 ], [ 18.275238401962358, 42.660925040984978 ], [ 18.315272210216509, 42.578219844032745 ], [ 18.312076267240659, 42.57426112480227 ], [ 18.278381712342526, 42.592634725020446 ], [ 18.266184357916188, 42.617511142482243 ] ] ] } },
{ "type": "Feature", "properties": { "BM": 4836, "longitude": 18.243611164058059, "latitude": 42.580101576858013, "population": 525 }, "geometry": { "type": "Polygon", "coordinates": [ [ [ 18.233059390115375, 42.580829445238713 ], [ 18.24727217161432, 42.598143523716743 ], [ 18.251894692803834, 42.600238633912852 ], [ 18.254081227437617, 42.572459682910534 ], [ 18.231624562359602, 42.56283743831861 ], [ 18.233059390115375, 42.580829445238713 ] ] ] } }
]
}
