{
"type": "FeatureCollection",
"name": "zupanija_12_meta",
"crs": { "type": "name", "properties": { "name": "urn:ogc:def:crs:EPSG::3765" } },
"features": [
{ "type": "Feature", "properties": { "name": "BRODSKO-POSAVSKA ŽUPANIJA", "population": 0.037179574650167496, "latitude": 9625.948268899996, "longitude": 3793.3113121999991 }, "geometry": { "type": "Polygon", "coordinates": [ [ [ 17.3871401, 45.1372949 ], [ 17.380959, 45.1372199 ], [ 17.3756247, 45.1370102 ], [ 17.3724283, 45.137145 ], [ 17.3674962, 45.1373997 ], [ 17.367122280577149, 45.137437835685667 ], [ 17.3632781, 45.1378299 ], [ 17.3590078, 45.1386582 ], [ 17.3522341, 45.1399466 ], [ 17.3468786, 45.1411601 ], [ 17.3427488, 45.1426522 ], [ 17.3406041, 45.1440282 ], [ 17.3392369, 45.1449053 ], [ 17.3344318, 45.1484255 ], [ 17.3303675, 45.1517808 ], [ 17.3284624, 45.1540425 ], [ 17.3277246, 45.1565296 ], [ 17.32825790522185, 45.157735110730485 ], [ 17.3285259, 45.1583409 ], [ 17.3298589, 45.1604505 ], [ 17.331033, 45.1619055 ], [ 17.3314285, 45.1624623 ], [ 17.3315927, 45.162857 ], [ 17.3316334, 45.1631658 ], [ 17.3316073, 45.1634279 ], [ 17.3312901, 45.1638841 ], [ 17.3309378, 45.1642747 ], [ 17.3302135, 45.1647767 ], [ 17.329469, 45.1651236 ], [ 17.3283808, 45.1654276 ], [ 17.3274985, 45.1656043 ], [ 17.3266543, 45.1657086 ], [ 17.3256429, 45.165733 ], [ 17.3245722, 45.1656322 ], [ 17.3224631, 45.1653928 ], [ 17.3185868, 45.1647857 ], [ 17.3169081, 45.1644955 ], [ 17.3163058, 45.1644612 ], [ 17.3156731, 45.1644998 ], [ 17.3145963, 45.1646457 ], [ 17.3135743, 45.1648301 ], [ 17.3129992, 45.1650217 ], [ 17.3124927, 45.1652646 ], [ 17.3120085, 45.1656729 ], [ 17.3115765, 45.1660761 ], [ 17.3112541, 45.1664803 ], [ 17.3109742, 45.1668953 ], [ 17.310728, 45.1676477 ], [ 17.3106833, 45.1685274 ], [ 17.3108109, 45.1697523 ], [ 17.3109571, 45.1708864 ], [ 17.3112305, 45.1721777 ], [ 17.3113079, 45.1734162 ], [ 17.3112661, 45.1740273 ], [ 17.3111278, 45.1746606 ], [ 17.3108592, 45.1753258 ], [ 17.3106592, 45.175673 ], [ 17.310433, 45.1760102 ], [ 17.3100999, 45.1763295 ], [ 17.3096528, 45.176641 ], [ 17.3092005, 45.176761 ], [ 17.3085939, 45.1768171 ], [ 17.3079865, 45.1768264 ], [ 17.306269, 45.1767857 ], [ 17.3003302, 45.1759357 ], [ 17.29489, 45.1753218 ], [ 17.2893077, 45.1751013 ], [ 17.2882128, 45.1752832 ], [ 17.2876722, 45.1754284 ], [ 17.2871214, 45.1755764 ], [ 17.2849623, 45.1765046 ], [ 17.2836158, 45.1774655 ], [ 17.2823979, 45.1786764 ], [ 17.2803784, 45.1818063 ], [ 17.277761826418832, 45.185757251737869 ], [ 17.2761564, 45.1881814 ], [ 17.2747805, 45.1892741 ], [ 17.2733199, 45.1894987 ], [ 17.2716476, 45.1890945 ], [ 17.270864869188372, 45.188444356838602 ], [ 17.270314, 45.1879868 ], [ 17.2686629, 45.1852026 ], [ 17.2670807, 45.1827591 ], [ 17.2650628, 45.1793943 ], [ 17.2618468, 45.1732856 ], [ 17.2586244, 45.1631476 ], [ 17.2574799, 45.1594228 ], [ 17.25673, 45.1575843 ], [ 17.2559538, 45.1556814 ], [ 17.2552862, 45.1545754 ], [ 17.2544359, 45.1534467 ], [ 17.2527193, 45.1515237 ], [ 17.2509717, 45.1495938 ], [ 17.2504526, 45.1491305 ], [ 17.250213849228331, 45.148921055299859 ], [ 17.2498921, 45.1486388 ], [ 17.2487204, 45.1477455 ], [ 17.247988, 45.147275 ], [ 17.2472326, 45.1468303 ], [ 17.2464965, 45.1464699 ], [ 17.2457171, 45.1461814 ], [ 17.2448796, 45.1459901 ], [ 17.2440555, 45.1458814 ], [ 17.2432884, 45.1458407 ], [ 17.2425602, 45.1458306 ], [ 17.2411164, 45.1459253 ], [ 17.2387, 45.1463303 ], [ 17.2366193, 45.1467016 ], [ 17.2357502, 45.1468212 ], [ 17.2353458, 45.1468768 ], [ 17.2347339, 45.146921 ], [ 17.234658012599159, 45.146922127040604 ], [ 17.2340673, 45.1469309 ], [ 17.2334176, 45.1469175 ], [ 17.2327637, 45.1468697 ], [ 17.2313342, 45.1466658 ], [ 17.226646, 45.146076 ], [ 17.2242502, 45.1458516 ], [ 17.2230223, 45.1457251 ], [ 17.2218045, 45.1456971 ], [ 17.220385, 45.1456923 ], [ 17.2190354, 45.1457269 ], [ 17.218296469524944, 45.145778475875019 ], [ 17.2175898, 45.1458278 ], [ 17.2162311, 45.1460514 ], [ 17.2157872, 45.1461641 ], [ 17.2153505, 45.1462971 ], [ 17.2142715, 45.1467054 ], [ 17.2116328, 45.1476912 ], [ 17.2084824, 45.1486203 ], [ 17.2069895, 45.1490137 ], [ 17.2045428, 45.1494378 ], [ 17.2043583, 45.1494698 ], [ 17.2039948, 45.149534 ], [ 17.2021776, 45.149431 ], [ 17.200896, 45.1492758 ], [ 17.1995283, 45.1490247 ], [ 17.1977328, 45.1485466 ], [ 17.1952947, 45.1477814 ], [ 17.1940946, 45.1474948 ], [ 17.1931768, 45.1472756 ], [ 17.1918263, 45.146977 ], [ 17.1904896, 45.14673 ], [ 17.1901812, 45.1466888 ], [ 17.1892389, 45.1465629 ], [ 17.1891422, 45.14655 ], [ 17.1879187, 45.1464455 ], [ 17.1862592, 45.1463082 ], [ 17.1846641, 45.1462962 ], [ 17.1846134, 45.1462958 ], [ 17.1832855, 45.1464149 ], [ 17.1831434, 45.1464276 ], [ 17.1810012, 45.1467949 ], [ 17.1789934, 45.1471833 ], [ 17.1739786, 45.1483806 ], [ 17.1684537, 45.1499684 ], [ 17.1626537, 45.152335 ], [ 17.157277, 45.1554503 ], [ 17.151221, 45.1587619 ], [ 17.150358920190822, 45.159254592779625 ], [ 17.150358920190818, 45.159254592779625 ], [ 17.1482944, 45.1604345 ], [ 17.148100539, 45.160545252 ], [ 17.1464661, 45.161479 ], [ 17.1455211, 45.1619975 ], [ 17.144334, 45.1624666 ], [ 17.1432556, 45.1628206 ], [ 17.1413028, 45.1633783 ], [ 17.1403709, 45.1636488 ], [ 17.1386017, 45.1640664 ], [ 17.1362288, 45.164764 ], [ 17.132814, 45.165732 ], [ 17.1297732, 45.1667051 ], [ 17.1281316, 45.1673795 ], [ 17.1266408, 45.16804 ], [ 17.1254613, 45.1687292 ], [ 17.1239157, 45.1696665 ], [ 17.1228565, 45.1703875 ], [ 17.1218826, 45.171034 ], [ 17.1208894, 45.171585 ], [ 17.1202566, 45.1720071 ], [ 17.1199859, 45.1722094 ], [ 17.1186675, 45.1730513 ], [ 17.1172785, 45.1739226 ], [ 17.1163402, 45.1744548 ], [ 17.1154247, 45.1749472 ], [ 17.1145215, 45.175327 ], [ 17.113227, 45.1759152 ], [ 17.1121033, 45.1763658 ], [ 17.1113471, 45.1766139 ], [ 17.1092828, 45.1770058 ], [ 17.1066157, 45.1774633 ], [ 17.1044961, 45.1778672 ], [ 17.1003574, 45.1788535 ], [ 17.097695, 45.1797271 ], [ 17.0933439, 45.1813242 ], [ 17.091365421986573, 45.18219855489307 ], [ 17.093549365292578, 45.197311420803409 ], [ 17.093526195339365, 45.226516309247337 ], [ 17.102896255693178, 45.235773117113609 ], [ 17.154959791844956, 45.262631992057784 ], [ 17.176746513271404, 45.297934064970619 ], [ 17.176760400424943, 45.306194096820356 ], [ 17.15809571356731, 45.337252076135421 ], [ 17.211530110080229, 45.380993947358057 ], [ 17.270631980336081, 45.370035569657006 ], [ 17.276173192095168, 45.374463142930772 ], [ 17.350466362534092, 45.377847561957843 ], [ 17.354454492755153, 45.379320049821189 ], [ 17.38532497782829, 45.421800768325113 ], [ 17.417769594164632, 45.448806756514834 ], [ 17.464341934366654, 45.381002822478671 ], [ 17.476524034103193, 45.376319787613404 ], [ 17.484102843005306, 45.365929813937321 ], [ 17.489309807633269, 45.316182909987482 ], [ 17.498628484121184, 45.309210827145833 ], [ 17.509198936319375, 45.298470018067398 ], [ 17.528752621202823, 45.298032381094131 ], [ 17.533718452728714, 45.296318528146998 ], [ 17.540263001824332, 45.295927928992242 ], [ 17.566201725674844, 45.284563330318505 ], [ 17.574775183312671, 45.286674655927065 ], [ 17.593858523689718, 45.285927025722579 ], [ 17.614567314509976, 45.250982800255841 ], [ 17.647142714720818, 45.264253442468387 ], [ 17.649102923219072, 45.267927025702228 ], [ 17.675763119525161, 45.279766213607282 ], [ 17.684125180446209, 45.277596908514901 ], [ 17.706750608893465, 45.280083217196243 ], [ 17.709392760290349, 45.279753853704165 ], [ 17.710270447411865, 45.271293386394802 ], [ 17.706205329734985, 45.250095224633412 ], [ 17.706856168987027, 45.242687109277696 ], [ 17.704916128152117, 45.234242904242613 ], [ 17.722036395339508, 45.207965008163598 ], [ 17.729661479449291, 45.205292621309283 ], [ 17.734981498830962, 45.197805471267479 ], [ 17.748827666724655, 45.194069497648478 ], [ 17.76909787462224, 45.19566401476844 ], [ 17.771885149248881, 45.203937451239653 ], [ 17.798637744586141, 45.223850752577697 ], [ 17.822134131364372, 45.220544872202687 ], [ 17.82272083740115, 45.221217122393185 ], [ 17.828732600223237, 45.233661633636011 ], [ 17.854259639348843, 45.247803464453845 ], [ 17.856879555346083, 45.245618237887285 ], [ 17.865104716385609, 45.243663270063422 ], [ 17.868165199056687, 45.244244505288833 ], [ 17.913852671689188, 45.279358699713001 ], [ 17.913836738063154, 45.280258116120763 ], [ 17.916139475805753, 45.283608826973342 ], [ 17.969676181748035, 45.283424137393673 ], [ 17.977869200517048, 45.276588473438359 ], [ 18.009710371342038, 45.285690565349633 ], [ 18.022452383256866, 45.277846499109565 ], [ 18.03608420944418, 45.277113661303481 ], [ 18.058504954113822, 45.261148724574156 ], [ 18.077718766779839, 45.256907022958501 ], [ 18.091437447655306, 45.263522018442629 ], [ 18.093782696284034, 45.265770447893033 ], [ 18.139610847056698, 45.253503283976485 ], [ 18.15071489160114, 45.255742178176121 ], [ 18.186538254139393, 45.22389340371231 ], [ 18.190092931540864, 45.223865886431028 ], [ 18.198357689307183, 45.217896522073467 ], [ 18.256382299896735, 45.22809781741158 ], [ 18.273394899293475, 45.221732679730266 ], [ 18.281684783834113, 45.226554952875702 ], [ 18.290525878679244, 45.226786630761389 ], [ 18.312340310830738, 45.220056620687309 ], [ 18.330340499409747, 45.234861392672506 ], [ 18.3733392340088, 45.237741956393286 ], [ 18.37959038729376, 45.228771165939747 ], [ 18.400248714165784, 45.232989498826839 ], [ 18.42442204718628, 45.209392967848693 ], [ 18.437241175155869, 45.188499698713684 ], [ 18.454814000777574, 45.188163791013899 ], [ 18.455914903030681, 45.189148411271532 ], [ 18.534656251568066, 45.215134423825617 ], [ 18.557987217381992, 45.203121697724384 ], [ 18.541595713303867, 45.176433577539441 ], [ 18.514251803593208, 45.147009568858287 ], [ 18.487559471410254, 45.127606143085572 ], [ 18.493270313864606, 45.10298246129112 ], [ 18.513537826587044, 45.087401887066143 ], [ 18.517297591158059, 45.081928025945061 ], [ 18.536489186087362, 45.061483227718512 ], [ 18.5363319, 45.0611245 ], [ 18.5372456, 45.0546701 ], [ 18.5373459, 45.0515877 ], [ 18.5371964, 45.0479131 ], [ 18.5369182, 45.0467643 ], [ 18.5367143, 45.046447 ], [ 18.5358513, 45.045167 ], [ 18.5349573, 45.0443195 ], [ 18.5338559, 45.0436482 ], [ 18.5324764, 45.0434787 ], [ 18.5312565, 45.0438786 ], [ 18.5303843, 45.0444642 ], [ 18.529826, 45.0453778 ], [ 18.5292687, 45.0477254 ], [ 18.5296248, 45.0498071 ], [ 18.5307434, 45.0549782 ], [ 18.5291363, 45.0587838 ], [ 18.5284323, 45.0594892 ], [ 18.5280067, 45.0599156 ], [ 18.5260779, 45.0607133 ], [ 18.5223001, 45.0609075 ], [ 18.5197034, 45.0603895 ], [ 18.5139273, 45.0584463 ], [ 18.5094563, 45.0573259 ], [ 18.5074549, 45.0571852 ], [ 18.5056001, 45.0576233 ], [ 18.5000956, 45.059596 ], [ 18.4979619, 45.0602889 ], [ 18.4964287, 45.0607606 ], [ 18.4962116, 45.0608274 ], [ 18.4961378, 45.0608502 ], [ 18.4938459, 45.0615607 ], [ 18.4916988, 45.0618623 ], [ 18.4896159, 45.0614419 ], [ 18.484832680668237, 45.060992062199212 ], [ 18.484832680668234, 45.060992062199212 ], [ 18.4839165, 45.0609059 ], [ 18.4787533, 45.0616714 ], [ 18.4778631, 45.0619825 ], [ 18.4759261, 45.062705 ], [ 18.4741162, 45.0636421 ], [ 18.4730001, 45.0645234 ], [ 18.4711761, 45.0657199 ], [ 18.470205409217538, 45.066380961159673 ], [ 18.470205409217535, 45.066380961159673 ], [ 18.469402, 45.0669281 ], [ 18.4668266, 45.0691442 ], [ 18.4632193, 45.0734206 ], [ 18.4602248, 45.0757385 ], [ 18.4569984, 45.0774953 ], [ 18.4533211, 45.0788862 ], [ 18.452804114616818, 45.079111499668073 ], [ 18.4470856, 45.0816036 ], [ 18.4443797, 45.0837373 ], [ 18.4425208, 45.0859044 ], [ 18.4414624, 45.0881278 ], [ 18.4404737, 45.0902049 ], [ 18.4392501, 45.0950384 ], [ 18.438913805617133, 45.0958507391829 ], [ 18.4381434, 45.0977117 ], [ 18.4368362, 45.0998678 ], [ 18.43525, 45.1015546 ], [ 18.4335861, 45.1030407 ], [ 18.431391, 45.1044875 ], [ 18.429022, 45.1058227 ], [ 18.4253673, 45.1076202 ], [ 18.4217672, 45.1087532 ], [ 18.4183031, 45.1094834 ], [ 18.4152729, 45.1100529 ], [ 18.4120022, 45.1104361 ], [ 18.4100252, 45.1104901 ], [ 18.4058554, 45.1102153 ], [ 18.4041932, 45.1099589 ], [ 18.395413, 45.1086048 ], [ 18.3918276, 45.1081052 ], [ 18.390022851519717, 45.107853715698347 ], [ 18.388825, 45.1076868 ], [ 18.3826887, 45.1072383 ], [ 18.3678596, 45.1061372 ], [ 18.337028098637155, 45.102605323444166 ], [ 18.3259135, 45.1013321 ], [ 18.3221405, 45.1011546 ], [ 18.320856939440944, 45.101248219698277 ], [ 18.3205405, 45.1012713 ], [ 18.3191522, 45.1016046 ], [ 18.3180698, 45.1022045 ], [ 18.3173384, 45.1028454 ], [ 18.317171998179496, 45.103052634918932 ], [ 18.3161403, 45.1043375 ], [ 18.3152488, 45.1057374 ], [ 18.3151945, 45.1058227 ], [ 18.3151582, 45.1058922 ], [ 18.3132582, 45.1095321 ], [ 18.3121637, 45.1113192 ], [ 18.3111755, 45.1124855 ], [ 18.3099989, 45.1135018 ], [ 18.3088324, 45.1144126 ], [ 18.3075518, 45.1152179 ], [ 18.3062341, 45.1158343 ], [ 18.3048694, 45.1160676 ], [ 18.3033694, 45.1160718 ], [ 18.3023702, 45.1159752 ], [ 18.3011987, 45.1157844 ], [ 18.2987751, 45.1152345 ], [ 18.293757, 45.1139244 ], [ 18.2915984, 45.1134685 ], [ 18.2895384, 45.1132413 ], [ 18.2874806, 45.1132353 ], [ 18.2852687, 45.1135185 ], [ 18.2840216, 45.1137851 ], [ 18.2829157, 45.1142016 ], [ 18.281951, 45.1146848 ], [ 18.2810327, 45.1151934 ], [ 18.2801392, 45.1159176 ], [ 18.2795355, 45.1166261 ], [ 18.2788887, 45.1178772 ], [ 18.2786332, 45.1197327 ], [ 18.2786803, 45.1215652 ], [ 18.2791654, 45.1262213 ], [ 18.2787586, 45.1290523 ], [ 18.2779206, 45.1314418 ], [ 18.276789, 45.1330219 ], [ 18.276155130429245, 45.133685266339626 ], [ 18.2753621, 45.1345152 ], [ 18.273096, 45.135965 ], [ 18.2707979, 45.1369545 ], [ 18.2676982, 45.1380808 ], [ 18.2639515, 45.1388569 ], [ 18.2611963, 45.1391016 ], [ 18.258324, 45.1392177 ], [ 18.257940231755953, 45.13923075756275 ], [ 18.255479, 45.1393145 ], [ 18.2529896, 45.1392758 ], [ 18.250555, 45.1390628 ], [ 18.2480514, 45.1387504 ], [ 18.246397, 45.1384713 ], [ 18.2425124, 45.1375914 ], [ 18.2383817, 45.1364297 ], [ 18.235017, 45.1353648 ], [ 18.231726, 45.1342712 ], [ 18.22725353572023, 45.132263382790136 ], [ 18.2256404, 45.1315392 ], [ 18.2190016, 45.1286119 ], [ 18.218596570813091, 45.128411498004198 ], [ 18.215704, 45.1269803 ], [ 18.2125011, 45.1248552 ], [ 18.2106781, 45.1232477 ], [ 18.2098781, 45.1223648 ], [ 18.2091817, 45.1212931 ], [ 18.2087722, 45.1191497 ], [ 18.2086285, 45.1170966 ], [ 18.2090781, 45.1138517 ], [ 18.2100115, 45.1107034 ], [ 18.2106918, 45.1093205 ], [ 18.2117605, 45.1079034 ], [ 18.2140917, 45.1058717 ], [ 18.2176666, 45.1034376 ], [ 18.218891420333875, 45.102626923348943 ], [ 18.2201843, 45.1017712 ], [ 18.2211255, 45.1009213 ], [ 18.2215255, 45.1001047 ], [ 18.2217373, 45.0994548 ], [ 18.2217678, 45.0988916 ], [ 18.2216903, 45.0978882 ], [ 18.2213528, 45.09689 ], [ 18.2185867, 45.0934727 ], [ 18.2146879, 45.0895289 ], [ 18.2144964, 45.0893352 ], [ 18.2139534, 45.0887859 ], [ 18.2100808, 45.0853682 ], [ 18.2071361, 45.08331 ], [ 18.2029536, 45.0810043 ], [ 18.1992185, 45.0792196 ], [ 18.1973863, 45.0786923 ], [ 18.1969964, 45.0785869 ], [ 18.1964811, 45.0784174 ], [ 18.1962538, 45.0783685 ], [ 18.196147, 45.0783378 ], [ 18.1959711, 45.0782736 ], [ 18.1957674, 45.078208 ], [ 18.1954847, 45.0781298 ], [ 18.1951493, 45.0779712 ], [ 18.191807, 45.0773191 ], [ 18.1880899, 45.0768229 ], [ 18.1823478, 45.0767022 ], [ 18.1763476, 45.076919 ], [ 18.1720181, 45.0772357 ], [ 18.1676895, 45.0780925 ], [ 18.1640414, 45.0790863 ], [ 18.1606358, 45.0804365 ], [ 18.158739048644151, 45.081324274558931 ], [ 18.1573588, 45.0819703 ], [ 18.1539234, 45.0835873 ], [ 18.1513351, 45.0845875 ], [ 18.1488103, 45.0853682 ], [ 18.1463937, 45.0857544 ], [ 18.1437819, 45.085871 ], [ 18.1412406, 45.0857377 ], [ 18.1385757, 45.0853193 ], [ 18.1356169, 45.0845542 ], [ 18.1323933, 45.0835373 ], [ 18.1268885, 45.0815595 ], [ 18.1246989, 45.0806867 ], [ 18.1237342, 45.0803866 ], [ 18.1225106, 45.0802199 ], [ 18.1213812, 45.0801866 ], [ 18.1202517, 45.0803199 ], [ 18.1181576, 45.0805867 ], [ 18.1161616, 45.0810506 ], [ 18.1137809, 45.0817202 ], [ 18.1112868, 45.0826205 ], [ 18.1083455, 45.0842041 ], [ 18.108002273850872, 45.08447993726427 ], [ 18.1053349, 45.0866236 ], [ 18.1027218, 45.0898048 ], [ 18.1004629, 45.0931217 ], [ 18.0982275, 45.095405 ], [ 18.0960157, 45.0973883 ], [ 18.0940862, 45.0987382 ], [ 18.091592, 45.1000047 ], [ 18.0873566, 45.1014879 ], [ 18.081474, 45.1030377 ], [ 18.0759915, 45.1043875 ], [ 18.0749091, 45.1047374 ], [ 18.0736856, 45.105304 ], [ 18.0724149, 45.1061205 ], [ 18.0717326, 45.1068703 ], [ 18.0713325, 45.1073536 ], [ 18.0710266, 45.1080534 ], [ 18.0709796, 45.1086033 ], [ 18.0710031, 45.1089698 ], [ 18.071086857756313, 45.109154320156257 ], [ 18.0712149, 45.1094364 ], [ 18.0716384, 45.1099529 ], [ 18.0723443, 45.1104028 ], [ 18.072718028905694, 45.110620740404919 ], [ 18.0739444, 45.1113359 ], [ 18.0798505, 45.1140683 ], [ 18.0838911, 45.1159595 ], [ 18.0844859, 45.1163508 ], [ 18.0849565, 45.1167007 ], [ 18.085333, 45.1172005 ], [ 18.0856859, 45.1177836 ], [ 18.0858271, 45.1187998 ], [ 18.0856153, 45.1198493 ], [ 18.0850506, 45.1210988 ], [ 18.084813649254038, 45.121494683709777 ], [ 18.08438, 45.1222192 ], [ 18.080608, 45.1269997 ], [ 18.0767664, 45.1331103 ], [ 18.0753327, 45.1360065 ], [ 18.0746268, 45.1375387 ], [ 18.0738738, 45.1385379 ], [ 18.0730502, 45.1393706 ], [ 18.0723208, 45.1400201 ], [ 18.0714267, 45.1406029 ], [ 18.0702972, 45.1412024 ], [ 18.0684148, 45.1420184 ], [ 18.067684381164849, 45.142265953660036 ], [ 18.071535575188012, 45.150046567423132 ], [ 18.067684381164845, 45.142265953660036 ], [ 18.0667442, 45.1425846 ], [ 18.0651441, 45.1430009 ], [ 18.0629558, 45.1432674 ], [ 18.0600522, 45.1434388 ], [ 18.0566027, 45.1431175 ], [ 18.055768742972731, 45.142985574594555 ], [ 18.0526025, 45.1424847 ], [ 18.0489083, 45.1416188 ], [ 18.0465788, 45.1406862 ], [ 18.045583699905215, 45.140105178689872 ], [ 18.0446964, 45.1395871 ], [ 18.0438493, 45.1388377 ], [ 18.043214, 45.1379217 ], [ 18.0425787, 45.1361897 ], [ 18.0420435, 45.1342752 ], [ 18.041592, 45.1325073 ], [ 18.0415095, 45.1306087 ], [ 18.0412111, 45.1290963 ], [ 18.0407085, 45.1279291 ], [ 18.0401604, 45.1269455 ], [ 18.0398527, 45.1264779 ], [ 18.0396148, 45.1261902 ], [ 18.0392519, 45.1258978 ], [ 18.0387696, 45.1256746 ], [ 18.0379647, 45.1255132 ], [ 18.0347615, 45.1258828 ], [ 18.0341914, 45.1260626 ], [ 18.0337593, 45.1263442 ], [ 18.0320084, 45.127869 ], [ 18.0300351, 45.1302573 ], [ 18.0285578, 45.1324583 ], [ 18.0264565, 45.1357022 ], [ 18.0257788, 45.1372523 ], [ 18.025343835167565, 45.138520180596977 ], [ 18.0251454, 45.1390986 ], [ 18.024831, 45.1401372 ], [ 18.024317, 45.1417342 ], [ 18.0235339, 45.1435621 ], [ 18.0232692, 45.1446706 ], [ 18.0228588, 45.145607 ], [ 18.022834911852243, 45.145634149641417 ], [ 18.021027945406896, 45.147687824608106 ], [ 18.021027945406892, 45.147687824608106 ], [ 18.0206974, 45.1480635 ], [ 18.0197688, 45.1487289 ], [ 18.0188132, 45.149495 ], [ 18.0175661, 45.150211 ], [ 18.016272, 45.1507437 ], [ 18.0151557, 45.151045 ], [ 18.0139101, 45.1512297 ], [ 18.013217586469178, 45.151338878630774 ], [ 18.0115112, 45.1516079 ], [ 18.009733, 45.1517868 ], [ 18.008396437355273, 45.151885732440064 ], [ 18.0080875, 45.1519086 ], [ 18.0070001, 45.1519608 ], [ 18.0052096, 45.1519602 ], [ 18.004364699397374, 45.151895643865821 ], [ 18.0037346, 45.1518475 ], [ 18.0022463, 45.151631 ], [ 18.0001639, 45.1510746 ], [ 17.998925108673127, 45.150586238020168 ], [ 17.9986125, 45.150463 ], [ 17.9945395, 45.1488806 ], [ 17.9880699, 45.1456283 ], [ 17.9865183, 45.1444194 ], [ 17.9849824, 45.143155 ], [ 17.9826315, 45.1407037 ], [ 17.9803101, 45.1387427 ], [ 17.9782018, 45.1366631 ], [ 17.9768639, 45.1347247 ], [ 17.9763154, 45.132983 ], [ 17.9760803, 45.1310194 ], [ 17.9759863, 45.1287119 ], [ 17.9755945, 45.1260602 ], [ 17.9746071, 45.1235971 ], [ 17.9732749, 45.1214223 ], [ 17.9715196, 45.119303 ], [ 17.9696075, 45.1173278 ], [ 17.9675387, 45.1156633 ], [ 17.9655013, 45.1141874 ], [ 17.9614107, 45.1123452 ], [ 17.9602822, 45.1119457 ], [ 17.9591068, 45.111757 ], [ 17.9579157, 45.1116128 ], [ 17.9557528, 45.1115684 ], [ 17.9534803, 45.1116128 ], [ 17.951908844651872, 45.111674919068896 ], [ 17.9475784, 45.1118461 ], [ 17.9439356, 45.1118014 ], [ 17.9414437, 45.1116239 ], [ 17.940660471223396, 45.11148250138563 ], [ 17.9390458, 45.111191 ], [ 17.9368986, 45.1104586 ], [ 17.9349552, 45.1095596 ], [ 17.9337641, 45.1087273 ], [ 17.9327767, 45.1078505 ], [ 17.9316169, 45.1062079 ], [ 17.9307079, 45.1042878 ], [ 17.930081, 45.1020901 ], [ 17.9298533, 45.0994603 ], [ 17.9301907, 45.0974946 ], [ 17.9308019, 45.095441 ], [ 17.9324476, 45.0923215 ], [ 17.9341716, 45.0895128 ], [ 17.9362874, 45.0873367 ], [ 17.9373061, 45.0862043 ], [ 17.9377449, 45.0854604 ], [ 17.93798, 45.0846831 ], [ 17.93798, 45.0835839 ], [ 17.9376195, 45.0826291 ], [ 17.9370867, 45.0818851 ], [ 17.9361933, 45.0811745 ], [ 17.935394, 45.0806526 ], [ 17.9342311, 45.0801853 ], [ 17.929534, 45.0784743 ], [ 17.92668, 45.0770104 ], [ 17.9235925, 45.0755668 ], [ 17.920646, 45.074001 ], [ 17.9181071, 45.0723019 ], [ 17.9139068, 45.0691256 ], [ 17.9063682, 45.0629392 ], [ 17.9021662, 45.0602353 ], [ 17.9004104, 45.0592944 ], [ 17.8990616, 45.0586391 ], [ 17.8968882, 45.0577402 ], [ 17.8941147, 45.0566279 ], [ 17.8912104, 45.0555639 ], [ 17.890520599822718, 45.055288629524107 ], [ 17.8874513, 45.0540638 ], [ 17.882642148922645, 45.052092060314138 ], [ 17.8768566, 45.04972 ], [ 17.8699136, 45.0465647 ], [ 17.8674529, 45.0457536 ], [ 17.865102, 45.0451092 ], [ 17.8612936, 45.0444537 ], [ 17.8582844, 45.0442537 ], [ 17.8552439, 45.0441759 ], [ 17.8514981, 45.044287 ], [ 17.8479561, 45.0447092 ], [ 17.8446178, 45.0452759 ], [ 17.8414363, 45.0459981 ], [ 17.8400056, 45.0461904 ], [ 17.8376095, 45.0469188 ], [ 17.8348771, 45.0478267 ], [ 17.831929035066601, 45.04904116925254 ], [ 17.8316265, 45.0491658 ], [ 17.8281412, 45.0508073 ], [ 17.8265765, 45.0516775 ], [ 17.8244672, 45.0528899 ], [ 17.8222163, 45.054121 ], [ 17.819902, 45.0555524 ], [ 17.8174967, 45.0569318 ], [ 17.8148537, 45.0586552 ], [ 17.8114223, 45.0605126 ], [ 17.8091982, 45.0617432 ], [ 17.8071093, 45.0630127 ], [ 17.8052265, 45.0642716 ], [ 17.8034691, 45.0656485 ], [ 17.8017049, 45.0670922 ], [ 17.7999764, 45.0686379 ], [ 17.7988514, 45.0696255 ], [ 17.7972886, 45.0708147 ], [ 17.7962139, 45.0716523 ], [ 17.7954696, 45.0722613 ], [ 17.7949704, 45.0727048 ], [ 17.7945711, 45.0729996 ], [ 17.7934163, 45.0740355 ], [ 17.7927556, 45.0747277 ], [ 17.7916737, 45.0760711 ], [ 17.7909113, 45.0771325 ], [ 17.7902794, 45.0779379 ], [ 17.7900804, 45.0782216 ], [ 17.7897274, 45.0786757 ], [ 17.7896055, 45.0788742 ], [ 17.7893322, 45.079191 ], [ 17.7884565, 45.080059 ], [ 17.7876886, 45.0806901 ], [ 17.786908, 45.0812752 ], [ 17.7860976, 45.0817842 ], [ 17.7854862, 45.0822361 ], [ 17.7849876, 45.0825332 ], [ 17.7839238, 45.0831023 ], [ 17.7832829271881, 45.083363271135354 ], [ 17.783179008516342, 45.083405588071336 ], [ 17.7829948, 45.0834806 ], [ 17.7814726, 45.0840947 ], [ 17.7793881, 45.0844722 ], [ 17.7772723, 45.0847609 ], [ 17.7752352, 45.0849041 ], [ 17.7732601, 45.0849052 ], [ 17.7714107, 45.0848497 ], [ 17.7696867, 45.0846054 ], [ 17.7681195, 45.0842834 ], [ 17.7665052, 45.0840836 ], [ 17.7648439, 45.0840947 ], [ 17.7633393, 45.0841946 ], [ 17.7618347, 45.0844611 ], [ 17.7595622, 45.0849718 ], [ 17.7578382, 45.0856158 ], [ 17.7566157, 45.0861709 ], [ 17.754782, 45.0871147 ], [ 17.7531834, 45.088125 ], [ 17.750519, 45.0902011 ], [ 17.7481368, 45.092044 ], [ 17.7460367, 45.0933318 ], [ 17.7424293, 45.0952926 ], [ 17.7374073, 45.0975126 ], [ 17.7323214, 45.0996194 ], [ 17.7286229, 45.1016768 ], [ 17.7251232, 45.1042298 ], [ 17.7213216, 45.1076101 ], [ 17.7187536, 45.1095954 ], [ 17.7161638, 45.1112558 ], [ 17.7130025, 45.1125343 ], [ 17.7114822, 45.1131574 ], [ 17.7104619, 45.1135756 ], [ 17.7086619, 45.1141715 ], [ 17.7070767, 45.1145239 ], [ 17.7052586, 45.1148271 ], [ 17.7038571, 45.1149166 ], [ 17.703603292517986, 45.114918170795491 ], [ 17.7017081, 45.1149299 ], [ 17.6995839, 45.1150062 ], [ 17.6972989, 45.1152103 ], [ 17.6955677, 45.1155804 ], [ 17.6936981, 45.116226 ], [ 17.6920364, 45.117221 ], [ 17.690434, 45.1183221 ], [ 17.689314, 45.119215 ], [ 17.688093, 45.1203626 ], [ 17.6865748, 45.1223726 ], [ 17.6855645, 45.123946 ], [ 17.6843218, 45.1254158 ], [ 17.6833404, 45.1263598 ], [ 17.6819711, 45.1275847 ], [ 17.6796883, 45.1293402 ], [ 17.6774389, 45.1309045 ], [ 17.6754074, 45.1319555 ], [ 17.6735145, 45.1327285 ], [ 17.6710515, 45.1334202 ], [ 17.6696763, 45.1337077 ], [ 17.667937, 45.1339267 ], [ 17.6652772, 45.1341125 ], [ 17.6626874, 45.134001 ], [ 17.66015, 45.1337286 ], [ 17.6577979, 45.1332719 ], [ 17.6545329, 45.1324899 ], [ 17.650751, 45.1313847 ], [ 17.6477308, 45.130363 ], [ 17.6443136, 45.1289473 ], [ 17.6407438, 45.1273494 ], [ 17.640139189544239, 45.127021329723398 ], [ 17.6372966, 45.1254789 ], [ 17.6334993, 45.1234968 ], [ 17.6297196, 45.1211058 ], [ 17.6279522, 45.1195696 ], [ 17.6270423, 45.1180952 ], [ 17.6267273, 45.1172032 ], [ 17.6264648, 45.1163111 ], [ 17.6261323, 45.1154934 ], [ 17.6253974, 45.114527 ], [ 17.6241725, 45.1138207 ], [ 17.6228936, 45.1134503 ], [ 17.6202352, 45.1133003 ], [ 17.6177334, 45.1134348 ], [ 17.6146356, 45.1134614 ], [ 17.6131307, 45.1134118 ], [ 17.6116083, 45.1129658 ], [ 17.6101034, 45.1119497 ], [ 17.6086685, 45.1105372 ], [ 17.6066036, 45.1088148 ], [ 17.6042588, 45.1073278 ], [ 17.6027802, 45.1068781 ], [ 17.601529, 45.1064975 ], [ 17.5985542, 45.106101 ], [ 17.5955094, 45.1060638 ], [ 17.5927096, 45.1068569 ], [ 17.5901897, 45.1080341 ], [ 17.5879324, 45.1098061 ], [ 17.58606, 45.1120612 ], [ 17.5838727, 45.1138455 ], [ 17.5821753, 45.114973 ], [ 17.5803554, 45.1158155 ], [ 17.5778881, 45.1164226 ], [ 17.5766632, 45.1163855 ], [ 17.5755607, 45.1162616 ], [ 17.5753455, 45.1162163 ], [ 17.57444011788424, 45.116025697652205 ], [ 17.5742658, 45.115989 ], [ 17.5730759, 45.1156297 ], [ 17.571991, 45.1150845 ], [ 17.570871, 45.1143659 ], [ 17.5696986, 45.1129906 ], [ 17.5683512, 45.1115284 ], [ 17.5670038, 45.1103265 ], [ 17.5655624, 45.1095792 ], [ 17.563609, 45.1089139 ], [ 17.5613692, 45.1086475 ], [ 17.5581844, 45.1082943 ], [ 17.5563645, 45.1084183 ], [ 17.5552971, 45.1088767 ], [ 17.5547896, 45.1094096 ], [ 17.5541772, 45.1103885 ], [ 17.5539847, 45.1116276 ], [ 17.5544921, 45.1132136 ], [ 17.5565045, 45.1163855 ], [ 17.5573374, 45.1185707 ], [ 17.5575019, 45.1198917 ], [ 17.5575194, 45.1212421 ], [ 17.5571301, 45.1231758 ], [ 17.556312, 45.1249833 ], [ 17.5550887, 45.1266617 ], [ 17.5536872, 45.1281422 ], [ 17.5524973, 45.128935 ], [ 17.5511674, 45.1296286 ], [ 17.549225, 45.130025 ], [ 17.5480351, 45.1300993 ], [ 17.5468277, 45.130025 ], [ 17.5447453, 45.1295543 ], [ 17.5433629, 45.1290341 ], [ 17.5420505, 45.1283652 ], [ 17.5412105, 45.127721 ], [ 17.5405806, 45.1270273 ], [ 17.5397756, 45.1259372 ], [ 17.5395831, 45.1248471 ], [ 17.5398456, 45.1232118 ], [ 17.5407206, 45.1204987 ], [ 17.541158, 45.119012 ], [ 17.541123, 45.1182191 ], [ 17.5408256, 45.1171288 ], [ 17.5401781, 45.1158155 ], [ 17.5389007, 45.1141057 ], [ 17.5367804, 45.1123387 ], [ 17.5346135, 45.1109956 ], [ 17.5322511, 45.1097813 ], [ 17.5307812, 45.1090502 ], [ 17.5294863, 45.1087528 ], [ 17.5282264, 45.108728 ], [ 17.5252166, 45.1088767 ], [ 17.5229068, 45.1088643 ], [ 17.519722, 45.1085917 ], [ 17.5165022, 45.108443 ], [ 17.5147873, 45.1084926 ], [ 17.5133874, 45.1087404 ], [ 17.5126262, 45.109008 ], [ 17.51211, 45.1093476 ], [ 17.5104476, 45.110562 ], [ 17.5079101, 45.1130935 ], [ 17.5066329, 45.1140066 ], [ 17.504953, 45.1146385 ], [ 17.5037456, 45.1148739 ], [ 17.5020832, 45.1149358 ], [ 17.5002808, 45.1143907 ], [ 17.4961511, 45.1126188 ], [ 17.4914089, 45.1107974 ], [ 17.4885248, 45.1097358 ], [ 17.4861513, 45.1095439 ], [ 17.4842714, 45.1097117 ], [ 17.4826801, 45.110133 ], [ 17.4818284, 45.1104982 ], [ 17.4810496, 45.1109832 ], [ 17.4804997, 45.1114409 ], [ 17.4801169, 45.1120267 ], [ 17.4797988, 45.1131165 ], [ 17.4797253, 45.1137384 ], [ 17.4797385, 45.1143094 ], [ 17.4801315, 45.1151348 ], [ 17.4807696, 45.115989 ], [ 17.4823736, 45.1174006 ], [ 17.4842519, 45.1186775 ], [ 17.4871392, 45.1200403 ], [ 17.489694, 45.1213536 ], [ 17.4910764, 45.1223942 ], [ 17.4920974, 45.1235855 ], [ 17.4927954, 45.1249383 ], [ 17.4932339, 45.1259012 ], [ 17.4935091, 45.1267627 ], [ 17.4936895, 45.1278159 ], [ 17.4937527, 45.1289232 ], [ 17.4937319, 45.1299265 ], [ 17.4935723, 45.1305713 ], [ 17.4936084, 45.1313667 ], [ 17.4935272, 45.1317962 ], [ 17.4933468, 45.1325503 ], [ 17.4931078, 45.1333043 ], [ 17.4929364, 45.1339056 ], [ 17.4927996, 45.1344994 ], [ 17.4923922, 45.1353674 ], [ 17.4916691, 45.1362471 ], [ 17.4908844, 45.1368866 ], [ 17.489985619073536, 45.137189725499546 ], [ 17.4897138, 45.1372814 ], [ 17.4888324, 45.1375106 ], [ 17.4880568, 45.1375801 ], [ 17.4873983, 45.1375451 ], [ 17.4867436, 45.1373831 ], [ 17.4860048, 45.1370647 ], [ 17.4852516, 45.1367048 ], [ 17.4839528, 45.1354327 ], [ 17.4835532, 45.1349386 ], [ 17.4821444, 45.1329766 ], [ 17.4812636, 45.1320181 ], [ 17.4802953, 45.1311249 ], [ 17.4789198, 45.1299986 ], [ 17.4779723, 45.1293527 ], [ 17.4771565, 45.1288786 ], [ 17.4762996, 45.1284523 ], [ 17.4752804, 45.1280259 ], [ 17.4735982, 45.1274055 ], [ 17.4719237, 45.1269148 ], [ 17.4695467, 45.1264324 ], [ 17.4665782, 45.1260437 ], [ 17.4644027, 45.1258591 ], [ 17.4621829, 45.1256699 ], [ 17.4611691, 45.1256173 ], [ 17.4598793, 45.1256332 ], [ 17.4580677, 45.1257489 ], [ 17.4556807, 45.12598 ], [ 17.4541856, 45.1261581 ], [ 17.4531732, 45.1262918 ], [ 17.452708, 45.1263817 ], [ 17.4522171, 45.1265114 ], [ 17.4515026, 45.1267664 ], [ 17.4510588, 45.1269678 ], [ 17.4507155, 45.1271382 ], [ 17.4503953, 45.1273307 ], [ 17.4500909, 45.1275328 ], [ 17.4498152, 45.1277391 ], [ 17.4493739, 45.1281198 ], [ 17.44912, 45.1283626 ], [ 17.4489387, 45.1285939 ], [ 17.4487786, 45.1288675 ], [ 17.4486433, 45.1291555 ], [ 17.4485057, 45.1295198 ], [ 17.4484787, 45.1298109 ], [ 17.448503, 45.1301053 ], [ 17.4485395, 45.1303757 ], [ 17.4486996, 45.131117 ], [ 17.4489105, 45.1315914 ], [ 17.4491642, 45.1320031 ], [ 17.4501995, 45.1333844 ], [ 17.4517235, 45.1350924 ], [ 17.45397, 45.1392918 ], [ 17.4552529, 45.1439554 ], [ 17.4553009, 45.1477664 ], [ 17.4547593, 45.1514028 ], [ 17.453798, 45.1552556 ], [ 17.4525703, 45.1580564 ], [ 17.4496417, 45.1599756 ], [ 17.4477863, 45.1605424 ], [ 17.445225, 45.160827 ], [ 17.4426212, 45.1604496 ], [ 17.44112, 45.1599549 ], [ 17.4394038, 45.1593893 ], [ 17.4378527, 45.1581312 ], [ 17.4371935, 45.1575965 ], [ 17.4363979, 45.1554653 ], [ 17.4361651, 45.1535332 ], [ 17.4354172, 45.1500803 ], [ 17.4345352, 45.1478263 ], [ 17.4321855, 45.1448004 ], [ 17.4290225, 45.1421683 ], [ 17.4229828, 45.138526 ], [ 17.422192126411467, 45.138104159255825 ], [ 17.4179665, 45.1358497 ], [ 17.4149971, 45.1350325 ], [ 17.4116102, 45.1343433 ], [ 17.407546, 45.1342684 ], [ 17.4013014, 45.1348377 ], [ 17.394062, 45.1361562 ], [ 17.391849, 45.1365203 ], [ 17.3871401, 45.1372949 ] ] ] } }
]
}
