{
"type": "FeatureCollection",
"name": "zupanija_14_meta",
"crs": { "type": "name", "properties": { "name": "urn:ogc:def:crs:EPSG::3765" } },
"features": [
{ "type": "Feature", "properties": { "name": "OSJEČKO-BARANJSKA ŽUPANIJA", "population": 157072, "latitude": 15075.423297822223, "longitude": 6106.7880150602559 }, "geometry": { "type": "Polygon", "coordinates": [ [ [ 18.030635301356323, 45.408516717730471 ], [ 18.013899053660619, 45.402411314381226 ], [ 17.993454978487694, 45.429745387088083 ], [ 17.972984802034837, 45.43003528687418 ], [ 17.935676725624266, 45.445988353856656 ], [ 17.9280200569311, 45.446011048678372 ], [ 17.911726415816396, 45.461367945673885 ], [ 17.898363642474337, 45.474398646555791 ], [ 17.900459060327751, 45.481195043867466 ], [ 17.916460948612499, 45.494186826379838 ], [ 17.942526040962367, 45.50810598824765 ], [ 17.951962583242057, 45.509872637311616 ], [ 17.957595232200521, 45.517456730043264 ], [ 17.959243643706788, 45.54067397847971 ], [ 17.960615609815513, 45.54267449067784 ], [ 18.000171943157536, 45.552815205033141 ], [ 18.002455139818736, 45.556824564583721 ], [ 18.003957208810572, 45.561038287725424 ], [ 18.000427802736656, 45.572501702897583 ], [ 18.064876259496327, 45.644118211164937 ], [ 18.065233520257774, 45.644768669831713 ], [ 18.053394822437241, 45.650844358138166 ], [ 18.030893555602031, 45.660533874593014 ], [ 18.003110914850193, 45.698693216696029 ], [ 17.990317288357101, 45.697696938081073 ], [ 17.938205534491935, 45.728149038425769 ], [ 17.947189779605427, 45.772744692302382 ], [ 17.938822106361002, 45.789065455496754 ], [ 17.9410082, 45.7902492 ], [ 17.9426391, 45.7906434 ], [ 17.9453352, 45.7918167 ], [ 17.9469573, 45.7922107 ], [ 17.9496689, 45.7926217 ], [ 17.9529297, 45.7930317 ], [ 17.9545595, 45.7930477 ], [ 17.9562057, 45.7926857 ], [ 17.9644165, 45.7900943 ], [ 17.9671505, 45.7893646 ], [ 17.9687891, 45.7893804 ], [ 17.9698861, 45.7890067 ], [ 17.9726052, 45.7890329 ], [ 17.9742273, 45.7894328 ], [ 17.976939, 45.7898369 ], [ 17.9807179, 45.7913977 ], [ 17.9828746, 45.7925587 ], [ 17.9855643, 45.7941089 ], [ 17.9866465, 45.7944973 ], [ 17.9882777, 45.794897 ], [ 17.9899003, 45.7952905 ], [ 17.9915228, 45.7956901 ], [ 17.9931526, 45.7957054 ], [ 17.9958809, 45.7957311 ], [ 17.9964287, 45.795352 ], [ 17.9991553, 45.7949996 ], [ 18.001349, 45.7942578 ], [ 18.0024531, 45.7935058 ], [ 18.0040974, 45.7927588 ], [ 18.0057651, 45.7912497 ], [ 18.0074166, 45.7901247 ], [ 18.0107283, 45.7878684 ], [ 18.011283, 45.7871112 ], [ 18.0135121, 45.7844668 ], [ 18.0151632, 45.7833417 ], [ 18.0179178, 45.7814644 ], [ 18.0206652, 45.779965 ], [ 18.0272433, 45.7777382 ], [ 18.0283395, 45.7773702 ], [ 18.028684854631187, 45.77731334699547 ], [ 18.030516, 45.7770119 ], [ 18.0321614, 45.7766426 ], [ 18.034345, 45.7759001 ], [ 18.0359972, 45.7751528 ], [ 18.0381736, 45.7747944 ], [ 18.0398118, 45.7748092 ], [ 18.0458047, 45.7744788 ], [ 18.047981, 45.7741202 ], [ 18.0496191, 45.7741349 ], [ 18.0534405, 45.7734066 ], [ 18.0561657, 45.7730527 ], [ 18.0589047, 45.7719304 ], [ 18.0627326, 45.7708238 ], [ 18.0649244, 45.7700808 ], [ 18.0671162, 45.7693377 ], [ 18.069848, 45.7685994 ], [ 18.0714906, 45.7678576 ], [ 18.0753247, 45.7663664 ], [ 18.0797009, 45.7652578 ], [ 18.0818922, 45.7645206 ], [ 18.0824322, 45.7645253 ], [ 18.0851502, 45.7645487 ], [ 18.0867814, 45.7649408 ], [ 18.0948891, 45.7659023 ], [ 18.0953928, 45.7659548 ], [ 18.0959322, 45.7660394 ], [ 18.0965475, 45.7661579 ], [ 18.0975562, 45.7663906 ], [ 18.0984927, 45.7666988 ], [ 18.0993296, 45.7670116 ], [ 18.101282, 45.7680388 ], [ 18.1029673, 45.7688848 ], [ 18.1048442, 45.7697022 ], [ 18.105854, 45.7702366 ], [ 18.1069218, 45.7709222 ], [ 18.1079246, 45.7716491 ], [ 18.10873, 45.7723221 ], [ 18.1093922, 45.7729437 ], [ 18.1100194, 45.7737577 ], [ 18.110552206925693, 45.774504115751981 ], [ 18.1108525, 45.7749248 ], [ 18.1120615, 45.7762609 ], [ 18.1128717, 45.7770622 ], [ 18.113577, 45.7779216 ], [ 18.1146474, 45.779484 ], [ 18.1159462, 45.7815257 ], [ 18.1169319, 45.783521 ], [ 18.1175207, 45.7845256 ], [ 18.1182354, 45.7855641 ], [ 18.1190415, 45.7864526 ], [ 18.1197827, 45.7871446 ], [ 18.1207737, 45.7878373 ], [ 18.1218819, 45.7885096 ], [ 18.1229823, 45.7889473 ], [ 18.1239087, 45.7891408 ], [ 18.1248575, 45.7892036 ], [ 18.125781, 45.789142 ], [ 18.1273964, 45.7888095 ], [ 18.1294274, 45.7881523 ], [ 18.1313037, 45.7876912 ], [ 18.132529, 45.7874985 ], [ 18.133832, 45.7873248 ], [ 18.1348057, 45.7873293 ], [ 18.1357016, 45.7874282 ], [ 18.1377658, 45.7878596 ], [ 18.1396328, 45.7882893 ], [ 18.1408784, 45.7884687 ], [ 18.1421583, 45.7885163 ], [ 18.1432452, 45.7884845 ], [ 18.1442303, 45.7884453 ], [ 18.1452877, 45.7883305 ], [ 18.1463111, 45.7881726 ], [ 18.1479136, 45.7879121 ], [ 18.1493115, 45.7875936 ], [ 18.1504852, 45.7872701 ], [ 18.152558, 45.7865274 ], [ 18.153527, 45.7860693 ], [ 18.1548575, 45.7854039 ], [ 18.1557417, 45.7848463 ], [ 18.1562539, 45.7844009 ], [ 18.156884, 45.7835951 ], [ 18.1575913, 45.7826337 ], [ 18.1580032, 45.7821488 ], [ 18.1586546, 45.7815256 ], [ 18.1591943, 45.7809982 ], [ 18.1599274, 45.7803899 ], [ 18.1610088, 45.779526 ], [ 18.1618455, 45.7789136 ], [ 18.162811, 45.7782294 ], [ 18.1639634, 45.777546 ], [ 18.1651538, 45.7769685 ], [ 18.1663134, 45.7764822 ], [ 18.166470366949412, 45.776434406828237 ], [ 18.1674386, 45.7761396 ], [ 18.1688595, 45.7758811 ], [ 18.1695489, 45.7758412 ], [ 18.1703205, 45.7758377 ], [ 18.1712123, 45.77596 ], [ 18.1719385, 45.776265 ], [ 18.1725702, 45.7766239 ], [ 18.172753855429391, 45.7767726399114 ], [ 18.1744517, 45.7781477 ], [ 18.1752197, 45.7787927 ], [ 18.1760099, 45.7794098 ], [ 18.1771836, 45.7803053 ], [ 18.1788957, 45.7814253 ], [ 18.1806764, 45.7826351 ], [ 18.1812901, 45.7831424 ], [ 18.1823291, 45.7842544 ], [ 18.1831076, 45.7849174 ], [ 18.1839177, 45.7854674 ], [ 18.1850831, 45.7860643 ], [ 18.1859814, 45.7864538 ], [ 18.1871317, 45.7868783 ], [ 18.1883865, 45.7872358 ], [ 18.1893256, 45.7873733 ], [ 18.1907376, 45.7874275 ], [ 18.1924243, 45.7873049 ], [ 18.1936976, 45.7870712 ], [ 18.1951553, 45.7865349 ], [ 18.196622, 45.7858564 ], [ 18.196832144026395, 45.785737596190557 ], [ 18.1981248, 45.7850068 ], [ 18.2007898, 45.7834428 ], [ 18.201722, 45.7827635 ], [ 18.2024418, 45.7823128 ], [ 18.2030986, 45.7819564 ], [ 18.2039936, 45.7816184 ], [ 18.2049604, 45.781358 ], [ 18.2058094, 45.7811866 ], [ 18.2075817, 45.7811724 ], [ 18.209231, 45.7812313 ], [ 18.2104142, 45.7812614 ], [ 18.2115431, 45.7812188 ], [ 18.2126399, 45.7810987 ], [ 18.2136594, 45.7809486 ], [ 18.2152137, 45.7806326 ], [ 18.2163439, 45.7804451 ], [ 18.2176029, 45.7803712 ], [ 18.219495890831279, 45.780314281072584 ], [ 18.2203134, 45.7802897 ], [ 18.2230886, 45.7802139 ], [ 18.225426, 45.7800783 ], [ 18.2263919, 45.7799455 ], [ 18.2280096, 45.7795955 ], [ 18.2290731, 45.7792623 ], [ 18.2303105, 45.7787814 ], [ 18.2309563, 45.7784102 ], [ 18.2315333, 45.7780211 ], [ 18.2322479, 45.7774244 ], [ 18.2330365, 45.7766513 ], [ 18.2338339, 45.7757185 ], [ 18.2342817, 45.7750523 ], [ 18.2346062, 45.7742369 ], [ 18.2347718, 45.7735344 ], [ 18.2349218, 45.772685 ], [ 18.2350521, 45.7719171 ], [ 18.2355406, 45.7703476 ], [ 18.2358819, 45.7694245 ], [ 18.2362404, 45.7688247 ], [ 18.2368277, 45.7680938 ], [ 18.237724, 45.7671534 ], [ 18.2387043, 45.7663672 ], [ 18.2394613, 45.7657606 ], [ 18.2401179, 45.7648668 ], [ 18.2406178, 45.7639289 ], [ 18.2409965, 45.7631366 ], [ 18.2413752, 45.7625718 ], [ 18.241835, 45.762018 ], [ 18.2426728, 45.7614462 ], [ 18.2431976, 45.7611887 ], [ 18.2437187, 45.7610245 ], [ 18.2443257, 45.7609322 ], [ 18.2449216, 45.7609331 ], [ 18.2454442, 45.760994 ], [ 18.2465907, 45.7612283 ], [ 18.2478401, 45.7615883 ], [ 18.2489056, 45.7618283 ], [ 18.2495917, 45.761946 ], [ 18.2504659, 45.7619718 ], [ 18.2518808, 45.7619005 ], [ 18.2537634, 45.761783 ], [ 18.2564505, 45.7615433 ], [ 18.2581289, 45.7613707 ], [ 18.2595646, 45.7611685 ], [ 18.260982, 45.7609132 ], [ 18.2620818, 45.7606377 ], [ 18.2647308, 45.759764 ], [ 18.2668275, 45.7589294 ], [ 18.2679481, 45.7584668 ], [ 18.2686428, 45.7582055 ], [ 18.2694851, 45.7579095 ], [ 18.2711259, 45.7574054 ], [ 18.2725093, 45.7569972 ], [ 18.2732648, 45.7567653 ], [ 18.2741194, 45.7564571 ], [ 18.2748802, 45.756159 ], [ 18.2753976, 45.7558748 ], [ 18.2759005, 45.7554698 ], [ 18.2768777, 45.755663 ], [ 18.2771045, 45.7557171 ], [ 18.2830764, 45.7571337 ], [ 18.2872675, 45.7590596 ], [ 18.2891952, 45.7599208 ], [ 18.2901099, 45.7602691 ], [ 18.29015463403687, 45.760283566580213 ], [ 18.290938, 45.7605369 ], [ 18.2919494, 45.7607774 ], [ 18.2928174, 45.7608854 ], [ 18.2938441, 45.760928 ], [ 18.295394, 45.7608973 ], [ 18.2964138, 45.7608096 ], [ 18.2973831, 45.7606161 ], [ 18.2982999, 45.760385 ], [ 18.2992193, 45.7600828 ], [ 18.3002776, 45.7596678 ], [ 18.3011015, 45.7593056 ], [ 18.3019045, 45.758973 ], [ 18.3025637, 45.7586299 ], [ 18.3033224, 45.7581709 ], [ 18.3042012, 45.7575442 ], [ 18.3053572, 45.7575781 ], [ 18.3063426, 45.7573881 ], [ 18.3074223, 45.7570842 ], [ 18.3085294, 45.7567199 ], [ 18.3095105, 45.7565116 ], [ 18.3117523, 45.7562267 ], [ 18.3124084, 45.7561715 ], [ 18.3137231, 45.7562369 ], [ 18.31431134140653, 45.756307224351069 ], [ 18.3155993, 45.7564612 ], [ 18.3160267, 45.7564895 ], [ 18.316305254954415, 45.756453328263994 ], [ 18.3164541, 45.756434 ], [ 18.3192312, 45.7560977 ], [ 18.3198809, 45.7559013 ], [ 18.3205826, 45.7555653 ], [ 18.3213959, 45.7552174 ], [ 18.3220923, 45.7549794 ], [ 18.3226451, 45.7548332 ], [ 18.3239761, 45.7547043 ], [ 18.3284149, 45.7544176 ], [ 18.3309607, 45.7544589 ], [ 18.3322933, 45.7542324 ], [ 18.3333656, 45.7538641 ], [ 18.3350203, 45.7528789 ], [ 18.3359542, 45.7521377 ], [ 18.3366408, 45.7514183 ], [ 18.3370668, 45.7507247 ], [ 18.3373793, 45.7499434 ], [ 18.3376232, 45.74921 ], [ 18.3378033, 45.7470782 ], [ 18.3386654, 45.7470026 ], [ 18.3390932, 45.746955 ], [ 18.3415552, 45.7478608 ], [ 18.3421426, 45.7480641 ], [ 18.3442866, 45.7497222 ], [ 18.3450018, 45.7499557 ], [ 18.3453268, 45.7508168 ], [ 18.3457571, 45.7519148 ], [ 18.3460477, 45.7537965 ], [ 18.3461211, 45.7545587 ], [ 18.3463957, 45.7550653 ], [ 18.3469307, 45.7554529 ], [ 18.346963, 45.7555613 ], [ 18.3474747, 45.7558344 ], [ 18.3485763, 45.7567474 ], [ 18.3489642, 45.7572999 ], [ 18.3496232, 45.7581347 ], [ 18.3495541, 45.758731 ], [ 18.3501535, 45.7589003 ], [ 18.3506927, 45.759666 ], [ 18.351763, 45.7604349 ], [ 18.3517534, 45.761191 ], [ 18.3544291, 45.7637362 ], [ 18.3546835, 45.7640042 ], [ 18.354699305498759, 45.764015383784525 ], [ 18.3550973, 45.764297 ], [ 18.3555197, 45.7641593 ], [ 18.3560094, 45.7638591 ], [ 18.3565234, 45.7639181 ], [ 18.3566246, 45.7640971 ], [ 18.3565709, 45.7655975 ], [ 18.3564332, 45.7668788 ], [ 18.3571259, 45.7669384 ], [ 18.357736, 45.7671753 ], [ 18.3582039, 45.7672462 ], [ 18.361559, 45.7658805 ], [ 18.3625717, 45.7662096 ], [ 18.3637386, 45.7661322 ], [ 18.3650013, 45.7656476 ], [ 18.3654236, 45.765671 ], [ 18.3663741, 45.7666171 ], [ 18.3666767, 45.7667215 ], [ 18.3642257, 45.7729364 ], [ 18.3701005, 45.7699024 ], [ 18.3704099, 45.7691658 ], [ 18.3712421, 45.7689273 ], [ 18.3717911, 45.7689306 ], [ 18.3723264, 45.7693181 ], [ 18.3719591, 45.7685292 ], [ 18.3725337, 45.7683766 ], [ 18.3743509, 45.7676955 ], [ 18.3783585, 45.7655429 ], [ 18.3798369, 45.7649082 ], [ 18.3803829, 45.7641217 ], [ 18.3807321, 45.7636669 ], [ 18.3814061, 45.7635665 ], [ 18.3818057, 45.763828 ], [ 18.3820788, 45.764087 ], [ 18.382445, 45.7642104 ], [ 18.3829621, 45.7641736 ], [ 18.3838068, 45.7638238 ], [ 18.3845319, 45.7639372 ], [ 18.3856372, 45.7647726 ], [ 18.386352, 45.7646378 ], [ 18.3870053, 45.7643387 ], [ 18.3895993, 45.7622651 ], [ 18.3906099, 45.7620165 ], [ 18.3918949, 45.7616983 ], [ 18.3923182, 45.7612504 ], [ 18.3924248, 45.7609482 ], [ 18.3923467, 45.759088 ], [ 18.3920305, 45.757766 ], [ 18.3925194, 45.7574472 ], [ 18.3931424, 45.7576357 ], [ 18.3936824, 45.7576389 ], [ 18.3945426, 45.7571712 ], [ 18.3951747, 45.7563603 ], [ 18.395334107101434, 45.755877465512569 ], [ 18.395617, 45.7550206 ], [ 18.3971714, 45.7531367 ], [ 18.3975081, 45.7531173 ], [ 18.3980829, 45.7538593 ], [ 18.39839, 45.7544774 ], [ 18.3985816, 45.7549138 ], [ 18.3991537, 45.7553087 ], [ 18.3996937, 45.7553871 ], [ 18.4000841, 45.7553096 ], [ 18.4001397, 45.7552439 ], [ 18.4002707, 45.7548428 ], [ 18.400041, 45.7535311 ], [ 18.3995296, 45.7523132 ], [ 18.3993461, 45.7519725 ], [ 18.3993059, 45.751408 ], [ 18.3995209, 45.7505743 ], [ 18.3988929, 45.7501771 ], [ 18.3979476, 45.7497672 ], [ 18.3968719, 45.7494638 ], [ 18.3968855, 45.7482973 ], [ 18.3974318, 45.7472377 ], [ 18.3978023, 45.7452075 ], [ 18.3979134, 45.7446505 ], [ 18.3991742, 45.7445775 ], [ 18.4007417, 45.744353 ], [ 18.4010854, 45.7440113 ], [ 18.4010828, 45.7435893 ], [ 18.4009866, 45.7430576 ], [ 18.4024915, 45.7426228 ], [ 18.4040401, 45.7420589 ], [ 18.4061748, 45.7404374 ], [ 18.4076301, 45.7397119 ], [ 18.4092498, 45.73921 ], [ 18.4105726, 45.7389227 ], [ 18.4112493, 45.7390076 ], [ 18.4123828, 45.7398486 ], [ 18.4129314, 45.7398517 ], [ 18.414859, 45.7405134 ], [ 18.4159009, 45.7406538 ], [ 18.4189021, 45.7409864 ], [ 18.4208932, 45.7409264 ], [ 18.4235111, 45.7400648 ], [ 18.4247841, 45.7405182 ], [ 18.4271952, 45.7407181 ], [ 18.4275001, 45.7414873 ], [ 18.4285496, 45.741156 ], [ 18.4298331, 45.7406872 ], [ 18.4321999, 45.7395735 ], [ 18.4340461, 45.7389961 ], [ 18.434613, 45.7388477 ], [ 18.4355756, 45.7386989 ], [ 18.4367096, 45.738413 ], [ 18.4383466, 45.7384792 ], [ 18.439648915823785, 45.738364368047698 ], [ 18.4405978, 45.7382807 ], [ 18.4439563, 45.738121 ], [ 18.4449979, 45.7379613 ], [ 18.4453094, 45.7378933 ], [ 18.4459592, 45.7372049 ], [ 18.446853, 45.737128 ], [ 18.4484106, 45.7420928 ], [ 18.4480671, 45.7423293 ], [ 18.4482387, 45.7427115 ], [ 18.4491147, 45.7438448 ], [ 18.4498815, 45.7450289 ], [ 18.4500733, 45.7457849 ], [ 18.4498922, 45.74649 ], [ 18.4490622, 45.7473826 ], [ 18.4479265, 45.7487143 ], [ 18.448323298788857, 45.751960529114683 ], [ 18.4490566, 45.7579597 ], [ 18.4475195, 45.7590813 ], [ 18.4450763, 45.7605196 ], [ 18.4541002, 45.767421 ], [ 18.4542098, 45.7675138 ], [ 18.454369, 45.7676495 ], [ 18.4542819, 45.7676977 ], [ 18.4544891, 45.7678755 ], [ 18.4562828, 45.7695229 ], [ 18.4638006, 45.7662352 ], [ 18.4711527, 45.7663483 ], [ 18.4748819, 45.7664056 ], [ 18.4807206, 45.7664954 ], [ 18.4821905, 45.7655032 ], [ 18.4820859, 45.7731924 ], [ 18.4827231, 45.7733577 ], [ 18.4827114, 45.774498 ], [ 18.4827075, 45.774876 ], [ 18.4826996, 45.7756382 ], [ 18.4826956, 45.7760224 ], [ 18.4832368, 45.7767875 ], [ 18.4837653, 45.7779305 ], [ 18.4843065, 45.7786955 ], [ 18.484831, 45.7802227 ], [ 18.4853595, 45.7813657 ], [ 18.4853439, 45.7828902 ], [ 18.4858774, 45.7844112 ], [ 18.4858578, 45.7863199 ], [ 18.4863864, 45.7874629 ], [ 18.4874681, 45.7882306 ], [ 18.4880094, 45.7889956 ], [ 18.4885381, 45.7901386 ], [ 18.4885343, 45.7905166 ], [ 18.4885303, 45.7909009 ], [ 18.4890629, 45.7916658 ], [ 18.4890551, 45.7924281 ], [ 18.4890435, 45.7935683 ], [ 18.489892170259701, 45.794170559344032 ], [ 18.4901253, 45.794336 ], [ 18.4906707, 45.7947168 ], [ 18.4944836, 45.7943576 ], [ 18.497741, 45.795514 ], [ 18.4999151, 45.7951467 ], [ 18.5021019, 45.7943951 ], [ 18.5053933, 45.7921242 ], [ 18.5048819, 45.7883165 ], [ 18.5101881, 45.7848045 ], [ 18.5163376, 45.7853224 ], [ 18.5185165, 45.7853327 ], [ 18.5218066, 45.7830675 ], [ 18.5223505, 45.7826859 ], [ 18.5223286, 45.7849726 ], [ 18.5212099, 45.7880103 ], [ 18.5250041, 45.7895526 ], [ 18.5282545, 45.7914704 ], [ 18.5318522, 45.7933842 ], [ 18.5325912, 45.7937773 ], [ 18.5342283, 45.7930225 ], [ 18.5369442, 45.7934192 ], [ 18.5391233, 45.7934291 ], [ 18.5402094, 45.7938121 ], [ 18.542378, 45.7949623 ], [ 18.5440045, 45.7953538 ], [ 18.5445449, 45.7953563 ], [ 18.5461872, 45.7949794 ], [ 18.5478242, 45.7942244 ], [ 18.5478893, 45.7941794 ], [ 18.548368, 45.7938488 ], [ 18.5505437, 45.7942366 ], [ 18.5543529, 45.7942534 ], [ 18.555439, 45.7946424 ], [ 18.5570466, 45.7980157 ], [ 18.55864150287352, 45.801110113963603 ], [ 18.55865, 45.8011266 ], [ 18.5598192, 45.8036729 ], [ 18.5749572, 45.8003464 ], [ 18.573289, 45.8106824 ], [ 18.5728156, 45.8135942 ], [ 18.5748818, 45.8140325 ], [ 18.574853, 45.8143669 ], [ 18.5755626, 45.8145189 ], [ 18.5758842, 45.8145877 ], [ 18.576329631625363, 45.814688757820903 ], [ 18.5803201, 45.8155941 ], [ 18.5848181, 45.8167156 ], [ 18.5853965, 45.8169236 ], [ 18.5913225, 45.819214 ], [ 18.5924844, 45.8197548 ], [ 18.5941363, 45.8206974 ], [ 18.5951927, 45.8213706 ], [ 18.5981326, 45.8236941 ], [ 18.599188, 45.8245639 ], [ 18.6005493, 45.8255853 ], [ 18.6019875, 45.8268225 ], [ 18.602513126425997, 45.827229997235804 ], [ 18.6035057, 45.8279995 ], [ 18.6016673, 45.8317497 ], [ 18.6008788, 45.8334246 ], [ 18.6009181, 45.8336694 ], [ 18.6010945, 45.8337902 ], [ 18.6115696, 45.8363918 ], [ 18.6160589, 45.8375372 ], [ 18.6214994, 45.8390826 ], [ 18.6236656, 45.8398531 ], [ 18.614845, 45.8531439 ], [ 18.6164856, 45.8531503 ], [ 18.6192051, 45.8535449 ], [ 18.6235534, 45.8543238 ], [ 18.6235446, 45.8554641 ], [ 18.6246148, 45.858133 ], [ 18.6256969, 45.8592775 ], [ 18.625688, 45.860424 ], [ 18.6262291, 45.8615663 ], [ 18.6262203, 45.8627066 ], [ 18.6267438, 45.8649955 ], [ 18.6272702, 45.8669001 ], [ 18.6277705, 45.8733783 ], [ 18.6283116, 45.8733804 ], [ 18.6293999, 45.8737625 ], [ 18.6295426, 45.8738632 ], [ 18.6304853, 45.8745288 ], [ 18.631562, 45.8764355 ], [ 18.6315591, 45.8768197 ], [ 18.6376222, 45.868085 ], [ 18.6479463, 45.8719275 ], [ 18.6495703, 45.8730736 ], [ 18.6539322, 45.8734733 ], [ 18.6549222, 45.8741994 ], [ 18.6478879, 45.8799221 ], [ 18.6478851, 45.8803063 ], [ 18.6451444, 45.8825772 ], [ 18.6418562, 45.884468 ], [ 18.6418533, 45.8848522 ], [ 18.6412809, 45.8890397 ], [ 18.6460129, 45.8922605 ], [ 18.6481932, 45.8925193 ], [ 18.6483033, 45.8920891 ], [ 18.649372770116653, 45.892814930991626 ], [ 18.6510607, 45.8939605 ], [ 18.6519067, 45.8945027 ], [ 18.6520572, 45.8944859 ], [ 18.6524599, 45.894371 ], [ 18.6525863, 45.89439 ], [ 18.6532105, 45.8946223 ], [ 18.6540105, 45.895179 ], [ 18.6544825, 45.8953992 ], [ 18.654843, 45.8955115 ], [ 18.6551781, 45.8955543 ], [ 18.6553208, 45.8954935 ], [ 18.6554759, 45.8953586 ], [ 18.6558653, 45.8949526 ], [ 18.656258, 45.8950745 ], [ 18.6571428, 45.8951864 ], [ 18.6578558, 45.8953592 ], [ 18.6580279, 45.8953751 ], [ 18.6586719, 45.8953609 ], [ 18.6600369, 45.8953219 ], [ 18.6604472, 45.8953365 ], [ 18.6605002, 45.895335 ], [ 18.6605541, 45.8953333 ], [ 18.6608155, 45.8953262 ], [ 18.6608746, 45.8953245 ], [ 18.6609479, 45.8953228 ], [ 18.661008, 45.8953198 ], [ 18.6610482, 45.8953197 ], [ 18.661068, 45.895584 ], [ 18.6610761, 45.8956908 ], [ 18.6611345, 45.8963397 ], [ 18.6616071, 45.8963364 ], [ 18.6621388, 45.8963191 ], [ 18.6623418, 45.89873 ], [ 18.6617686, 45.8987481 ], [ 18.6619787, 45.8993917 ], [ 18.6648719, 45.8993034 ], [ 18.6650062, 45.8994347 ], [ 18.6643652, 45.899746 ], [ 18.6635297, 45.9001764 ], [ 18.6640705, 45.9003594 ], [ 18.6639282, 45.9005961 ], [ 18.6631553, 45.9003551 ], [ 18.662272, 45.9007779 ], [ 18.6621537, 45.9008845 ], [ 18.6609174, 45.9039405 ], [ 18.6605767, 45.904764 ], [ 18.6600233, 45.904698 ], [ 18.6599463, 45.9053072 ], [ 18.6594969, 45.9095647 ], [ 18.659589, 45.9099913 ], [ 18.6595758, 45.911046 ], [ 18.6595488, 45.9152061 ], [ 18.6595328, 45.9168864 ], [ 18.6627235, 45.9167238 ], [ 18.6640939, 45.9148879 ], [ 18.6648693, 45.9141443 ], [ 18.6681499, 45.9113692 ], [ 18.6695203, 45.9106871 ], [ 18.675949, 45.9148219 ], [ 18.6885347, 45.9162345 ], [ 18.6934773, 45.916742 ], [ 18.7047865, 45.9180493 ], [ 18.7055573, 45.916968 ], [ 18.706320872012945, 45.916006337656611 ], [ 18.7072468, 45.9148402 ], [ 18.7080003, 45.9141096 ], [ 18.7088737, 45.9133694 ], [ 18.7100407, 45.912316 ], [ 18.7104668, 45.9120072 ], [ 18.7125145, 45.9105603 ], [ 18.7143213, 45.9092915 ], [ 18.714482622738991, 45.909180395604487 ], [ 18.7169995, 45.907447 ], [ 18.7175181, 45.9071737 ], [ 18.7188866, 45.9065411 ], [ 18.7216286, 45.9052279 ], [ 18.7221312, 45.9050326 ], [ 18.7256371, 45.9040777 ], [ 18.735892, 45.9012736 ], [ 18.7382944, 45.9006703 ], [ 18.7434352, 45.9001616 ], [ 18.7487808, 45.8999625 ], [ 18.7491266, 45.8999693 ], [ 18.7494262, 45.9000208 ], [ 18.7497217, 45.9001243 ], [ 18.7500173, 45.9002878 ], [ 18.7500633, 45.9003452 ], [ 18.7502259, 45.9002825 ], [ 18.7496745, 45.8996184 ], [ 18.7495595, 45.8989191 ], [ 18.7504696, 45.8980281 ], [ 18.751558, 45.8975423 ], [ 18.752759, 45.8972417 ], [ 18.7550195, 45.8968545 ], [ 18.755878631063297, 45.896826421438085 ], [ 18.7569043, 45.8967929 ], [ 18.7575377, 45.8953818 ], [ 18.7605319, 45.8931019 ], [ 18.7595988, 45.8901099 ], [ 18.7602319, 45.8886362 ], [ 18.7628655, 45.88903 ], [ 18.7650466, 45.8894198 ], [ 18.7672207, 45.8894253 ], [ 18.7688088, 45.889153 ], [ 18.7711722, 45.8885767 ], [ 18.7730478, 45.8879841 ], [ 18.7759017, 45.8867865 ], [ 18.7764448, 45.8863168 ], [ 18.7783614, 45.8855631 ], [ 18.778996721651716, 45.885136843462959 ], [ 18.7805661, 45.8840839 ], [ 18.7821292, 45.8823766 ], [ 18.7827045, 45.8818517 ], [ 18.785266, 45.8800675 ], [ 18.7883492, 45.8788214 ], [ 18.7910962, 45.8781625 ], [ 18.7950878, 45.8783069 ], [ 18.7972443, 45.8784944 ], [ 18.7990728, 45.878473 ], [ 18.8030971, 45.8787429 ], [ 18.8061145, 45.8791398 ], [ 18.8083759, 45.879572 ], [ 18.8087457, 45.8795153 ], [ 18.8089306, 45.879463 ], [ 18.8101209, 45.8815537 ], [ 18.8105177, 45.8824585 ], [ 18.8126002, 45.8908159 ], [ 18.8119447, 45.8962976 ], [ 18.8115167, 45.8977626 ], [ 18.8072491, 45.9031911 ], [ 18.810496744909482, 45.905785542641766 ], [ 18.8147288, 45.9091664 ], [ 18.8173377, 45.9112642 ], [ 18.8179831, 45.911756 ], [ 18.8192685, 45.9127665 ], [ 18.821634, 45.9146342 ], [ 18.8224824, 45.913706 ], [ 18.8240663, 45.91165 ], [ 18.8249911, 45.9103252 ], [ 18.8261391, 45.9083613 ], [ 18.8266829, 45.9071534 ], [ 18.8271232, 45.906055 ], [ 18.8275505, 45.9047907 ], [ 18.8682048, 45.9112381 ], [ 18.8681236, 45.9114209 ], [ 18.8678179, 45.9124679 ], [ 18.866698, 45.9137838 ], [ 18.8665171, 45.9141526 ], [ 18.8663449, 45.9148748 ], [ 18.8651394, 45.9168894 ], [ 18.864993, 45.9176484 ], [ 18.8650265, 45.9178327 ], [ 18.8648672, 45.9183718 ], [ 18.8646137, 45.9190033 ], [ 18.8646061, 45.9193937 ], [ 18.8646198, 45.9207411 ], [ 18.864896, 45.9204284 ], [ 18.8661246, 45.9190269 ], [ 18.8679787, 45.9177457 ], [ 18.8696897, 45.9168488 ], [ 18.8711919, 45.9161989 ], [ 18.8727946, 45.915862 ], [ 18.8742065, 45.9157525 ], [ 18.8759822, 45.9157867 ], [ 18.877333, 45.9158974 ], [ 18.8791461, 45.9164365 ], [ 18.8807881, 45.9171751 ], [ 18.8827081, 45.9183103 ], [ 18.8843794, 45.9196627 ], [ 18.8852057, 45.9202482 ], [ 18.88548, 45.920383 ], [ 18.8859856, 45.9204602 ], [ 18.8863744, 45.9206307 ], [ 18.887306, 45.9211404 ], [ 18.8868403, 45.9213683 ], [ 18.8864624, 45.9213913 ], [ 18.8868904, 45.9214684 ], [ 18.8876983, 45.9215242 ], [ 18.8881478, 45.9218387 ], [ 18.888414, 45.9218658 ], [ 18.8886801, 45.9218153 ], [ 18.8892831, 45.9214366 ], [ 18.8897278, 45.9213305 ], [ 18.8899229, 45.9213774 ], [ 18.890209, 45.9220529 ], [ 18.8907241, 45.9212905 ], [ 18.8917082, 45.9207494 ], [ 18.892958, 45.92049 ], [ 18.8946253, 45.9203846 ], [ 18.8964346, 45.9202266 ], [ 18.8988504, 45.9199583 ], [ 18.8995253, 45.9198175 ], [ 18.9003619, 45.9195899 ], [ 18.9008316, 45.9194198 ], [ 18.9012563, 45.9192374 ], [ 18.9023806, 45.9187546 ], [ 18.903279, 45.9181909 ], [ 18.9040633, 45.9173867 ], [ 18.9049017, 45.9164783 ], [ 18.9053859, 45.9154484 ], [ 18.9054569, 45.914459 ], [ 18.9049699, 45.9128121 ], [ 18.904503, 45.911962 ], [ 18.904123, 45.9114429 ], [ 18.9028384, 45.9102079 ], [ 18.9009307, 45.9089053 ], [ 18.8998208, 45.9083356 ], [ 18.8984313, 45.9077713 ], [ 18.8968978, 45.9073822 ], [ 18.8938376, 45.9064375 ], [ 18.8918205, 45.9058147 ], [ 18.8912649, 45.9056432 ], [ 18.8875585, 45.9045514 ], [ 18.8870992, 45.9045047 ], [ 18.886523, 45.9043504 ], [ 18.8795455, 45.902457 ], [ 18.8784757, 45.9020683 ], [ 18.8766162, 45.9013117 ], [ 18.8745164, 45.9003103 ], [ 18.8729007, 45.8991329 ], [ 18.8717295, 45.8978867 ], [ 18.8710954, 45.897076 ], [ 18.8705369, 45.8961106 ], [ 18.8703094, 45.8956155 ], [ 18.8701735, 45.8951243 ], [ 18.8702929, 45.8943393 ], [ 18.8704825, 45.8934137 ], [ 18.8710039, 45.8926826 ], [ 18.8733341, 45.8898676 ], [ 18.87472, 45.8877404 ], [ 18.8762214, 45.8854907 ], [ 18.8772386, 45.8843164 ], [ 18.878617, 45.883291 ], [ 18.8801907, 45.8824678 ], [ 18.8822482, 45.8817145 ], [ 18.8891917, 45.879744 ], [ 18.896395, 45.8767268 ], [ 18.8982008, 45.875822 ], [ 18.8991517, 45.8751784 ], [ 18.8999462, 45.8745792 ], [ 18.9009414, 45.8737133 ], [ 18.9017748, 45.8726319 ], [ 18.9022613, 45.8719431 ], [ 18.9032196, 45.8699541 ], [ 18.903298, 45.8694795 ], [ 18.9033438, 45.8688672 ], [ 18.903248, 45.8678171 ], [ 18.9031397, 45.8673926 ], [ 18.9025996, 45.8666112 ], [ 18.9019719, 45.8657809 ], [ 18.9010676, 45.8653996 ], [ 18.8998266, 45.8648883 ], [ 18.8985856, 45.864377 ], [ 18.8978808, 45.8640468 ], [ 18.8962278, 45.863137 ], [ 18.8959551, 45.8628791 ], [ 18.8951846, 45.8620421 ], [ 18.8944142, 45.8612051 ], [ 18.8932607, 45.8606917 ], [ 18.8913556, 45.8600528 ], [ 18.8896234, 45.8596025 ], [ 18.8878912, 45.8591522 ], [ 18.887735, 45.8591162 ], [ 18.8864829, 45.8589438 ], [ 18.8855943, 45.8589238 ], [ 18.8837482, 45.8590064 ], [ 18.881902, 45.859089 ], [ 18.8798971, 45.8591491 ], [ 18.878686, 45.8591695 ], [ 18.8769158, 45.8591472 ], [ 18.8751456, 45.859125 ], [ 18.8741126, 45.8591422 ], [ 18.8737211, 45.8592074 ], [ 18.8736723, 45.8592155 ], [ 18.8736698, 45.8592157 ], [ 18.8736482, 45.8592175 ], [ 18.8736481, 45.8592175 ], [ 18.8717542, 45.8593762 ], [ 18.8707323, 45.8594168 ], [ 18.8698209, 45.8595757 ], [ 18.8680149, 45.8600028 ], [ 18.8662088, 45.8604298 ], [ 18.8641432, 45.8610681 ], [ 18.8624344, 45.8616317 ], [ 18.8618598, 45.8618338 ], [ 18.8606792, 45.8621799 ], [ 18.8603199, 45.8622595 ], [ 18.8596847, 45.8623421 ], [ 18.8596013, 45.8631676 ], [ 18.8587332, 45.8623575 ], [ 18.8578652, 45.8615474 ], [ 18.8569973, 45.8607373 ], [ 18.8552421, 45.8590975 ], [ 18.8554966, 45.8585559 ], [ 18.8563052, 45.8562333 ], [ 18.8564095, 45.8558436 ], [ 18.8564579, 45.8548081 ], [ 18.856463675896972, 45.854237339665026 ], [ 18.856463675896972, 45.854237339665019 ], [ 18.8566854, 45.8534544 ], [ 18.8567176, 45.8516713 ], [ 18.856718357860338, 45.85163006690351 ], [ 18.8569983, 45.8499268 ], [ 18.8573422, 45.8468273 ], [ 18.8573944, 45.8441011 ], [ 18.8573781, 45.8436161 ], [ 18.8571102, 45.8412736 ], [ 18.856918808311249, 45.84055079744445 ], [ 18.8569257, 45.8401561 ], [ 18.8561982, 45.8335986 ], [ 18.855003, 45.8283799 ], [ 18.8512901, 45.821062 ], [ 18.8494754, 45.817485 ], [ 18.848889653613774, 45.814351245866035 ], [ 18.8490347, 45.8141835 ], [ 18.849148, 45.8138546 ], [ 18.849102, 45.813335 ], [ 18.8491256, 45.8128389 ], [ 18.8493507, 45.8111666 ], [ 18.8493232, 45.8092325 ], [ 18.8496983, 45.8092619 ], [ 18.8500563, 45.8087005 ], [ 18.8505026, 45.8083098 ], [ 18.851054, 45.807968 ], [ 18.8520242, 45.8076449 ], [ 18.8528541, 45.807544 ], [ 18.8533419, 45.8075534 ], [ 18.8545846, 45.8080077 ], [ 18.8548994, 45.8080932 ], [ 18.8549577, 45.8081091 ], [ 18.8553742, 45.8082223 ], [ 18.8560231, 45.8082746 ], [ 18.8565963, 45.808267 ], [ 18.8569259, 45.8082164 ], [ 18.8574386, 45.8080978 ], [ 18.8584108, 45.8077497 ], [ 18.8589779, 45.8074111 ], [ 18.8596376, 45.8070881 ], [ 18.8608593, 45.8065339 ], [ 18.8613478, 45.8063386 ], [ 18.8616409, 45.8062623 ], [ 18.8620559, 45.8061947 ], [ 18.8626658, 45.8061701 ], [ 18.8640719, 45.8062471 ], [ 18.8654781, 45.806324 ], [ 18.8668842, 45.8064009 ], [ 18.8682904, 45.8064778 ], [ 18.8698862, 45.8067533 ], [ 18.871482, 45.8070288 ], [ 18.8724085, 45.8071668 ], [ 18.8743595, 45.8073748 ], [ 18.8747376, 45.8073754 ], [ 18.8753967, 45.80724 ], [ 18.8756407, 45.8072489 ], [ 18.8758723, 45.8072749 ], [ 18.8761381, 45.807335 ], [ 18.8765326, 45.8075319 ], [ 18.8774908, 45.8085228 ], [ 18.8778499, 45.8091716 ], [ 18.8783515, 45.8103237 ], [ 18.8791282, 45.811647 ], [ 18.8797828, 45.8129958 ], [ 18.8802065, 45.8140952 ], [ 18.8810434, 45.8157103 ], [ 18.8813711, 45.8162636 ], [ 18.881296, 45.816939 ], [ 18.8814795, 45.8169662 ], [ 18.8811237, 45.8174421 ], [ 18.8809152, 45.817783 ], [ 18.8807555, 45.8181667 ], [ 18.8807062, 45.8183371 ], [ 18.8806904, 45.8187125 ], [ 18.8808972, 45.8197449 ], [ 18.8817627, 45.8208296 ], [ 18.8821033, 45.8211542 ], [ 18.8832892, 45.8220133 ], [ 18.8844751, 45.8228723 ], [ 18.885766, 45.8237187 ], [ 18.887862, 45.8246259 ], [ 18.8897294, 45.8252939 ], [ 18.8905438, 45.8254828 ], [ 18.8915337, 45.8257572 ], [ 18.8937383, 45.8263232 ], [ 18.8941677, 45.8263409 ], [ 18.8960077, 45.8263264 ], [ 18.8964715, 45.8262588 ], [ 18.8969352, 45.8262253 ], [ 18.8983635, 45.825997 ], [ 18.8996697, 45.8257104 ], [ 18.9004146, 45.8254862 ], [ 18.9017668, 45.825111 ], [ 18.9031191, 45.8247358 ], [ 18.9044713, 45.8243605 ], [ 18.9058235, 45.8239853 ], [ 18.9072888, 45.8234753 ], [ 18.9084132, 45.82275 ], [ 18.9091609, 45.8223278 ], [ 18.9099525, 45.8219603 ], [ 18.9119553, 45.821144 ], [ 18.9122599, 45.8213149 ], [ 18.912565, 45.8212471 ], [ 18.9137617, 45.8208221 ], [ 18.9149484, 45.8204006 ], [ 18.9147157, 45.8200222 ], [ 18.9168205, 45.8179374 ], [ 18.9181655, 45.8157437 ], [ 18.9212968, 45.809441 ], [ 18.9224476, 45.8073905 ], [ 18.9229189, 45.806181 ], [ 18.9230287, 45.8056606 ], [ 18.9226844, 45.8040594 ], [ 18.922542, 45.8032524 ], [ 18.9223382, 45.8027326 ], [ 18.9214983, 45.8004243 ], [ 18.9210616, 45.7992993 ], [ 18.9209804, 45.7987543 ], [ 18.9209912, 45.7983264 ], [ 18.9209199, 45.7974542 ], [ 18.9207127, 45.7961688 ], [ 18.9200411, 45.7947614 ], [ 18.9195819, 45.7942669 ], [ 18.9194133, 45.7936971 ], [ 18.9193697, 45.7930987 ], [ 18.9194029, 45.7925753 ], [ 18.9200164, 45.7907682 ], [ 18.9201074, 45.7902269 ], [ 18.9193952, 45.7900984 ], [ 18.9186286, 45.7889588 ], [ 18.9169775, 45.7865532 ], [ 18.9163709, 45.7848465 ], [ 18.9148144, 45.7841022 ], [ 18.910418, 45.7823411 ], [ 18.9075228, 45.7812975 ], [ 18.905669, 45.7808518 ], [ 18.9038138, 45.7805039 ], [ 18.9019626, 45.7803023 ], [ 18.8993852, 45.7801269 ], [ 18.8970531, 45.7801682 ], [ 18.8957584, 45.7802261 ], [ 18.8945955, 45.7803301 ], [ 18.8929859, 45.7806213 ], [ 18.8920444, 45.7789589 ], [ 18.8896806, 45.779784 ], [ 18.88742, 45.7806605 ], [ 18.8869808, 45.7808567 ], [ 18.8866302, 45.7810837 ], [ 18.8851755, 45.7819408 ], [ 18.882717, 45.7834546 ], [ 18.8810814, 45.7844559 ], [ 18.8805146, 45.784691 ], [ 18.8794769, 45.7849478 ], [ 18.8784797, 45.7850378 ], [ 18.878022, 45.7850278 ], [ 18.8768588, 45.7849039 ], [ 18.875336194654452, 45.784654390884668 ], [ 18.8755175, 45.7846229 ], [ 18.8825227, 45.7812707 ], [ 18.8898314, 45.7743598 ], [ 18.890690827510948, 45.769263113592899 ], [ 18.890690827510948, 45.769263113592892 ], [ 18.8918939, 45.7621285 ], [ 18.894261067056476, 45.7566596323678 ], [ 18.894261067056476, 45.756659632367793 ], [ 18.8954859, 45.7538299 ], [ 18.896133611385469, 45.750421268390063 ], [ 18.89675, 45.7501192 ], [ 18.9003366, 45.7484162 ], [ 18.9013908, 45.7478853 ], [ 18.9024449, 45.7473544 ], [ 18.903499, 45.7468235 ], [ 18.9046869, 45.7463644 ], [ 18.9057357, 45.7460286 ], [ 18.9070135, 45.7456358 ], [ 18.9082913, 45.745243 ], [ 18.9100953, 45.7449211 ], [ 18.9114603, 45.7447522 ], [ 18.9128979, 45.7447248 ], [ 18.914384, 45.7448461 ], [ 18.9159918, 45.745039 ], [ 18.9178368, 45.7453295 ], [ 18.9196819, 45.74562 ], [ 18.9203882, 45.7457914 ], [ 18.9226043, 45.746408 ], [ 18.9228307, 45.7464884 ], [ 18.923874183408731, 45.746923059635726 ], [ 18.937196663866988, 45.740525215848464 ], [ 18.972460597499293, 45.732717776168386 ], [ 18.9721127, 45.7323817 ], [ 18.9710106, 45.7314069 ], [ 18.9693192, 45.7303146 ], [ 18.9678841, 45.7294832 ], [ 18.9659337, 45.7284276 ], [ 18.9647624, 45.7276593 ], [ 18.9635952, 45.7268041 ], [ 18.9624635, 45.7260686 ], [ 18.9610607, 45.7253945 ], [ 18.9598081, 45.7247357 ], [ 18.9587396, 45.7243094 ], [ 18.9575316, 45.7239339 ], [ 18.955764, 45.7235132 ], [ 18.9547574, 45.7233864 ], [ 18.9528228, 45.7233029 ], [ 18.950789, 45.7232628 ], [ 18.9482206, 45.723443 ], [ 18.9463262, 45.7235586 ], [ 18.9454293, 45.7236797 ], [ 18.9440969, 45.7239502 ], [ 18.9432234, 45.7242549 ], [ 18.9421099, 45.7247378 ], [ 18.9404628, 45.7255051 ], [ 18.9385107, 45.726251 ], [ 18.936934, 45.7269818 ], [ 18.9346378, 45.7277546 ], [ 18.9325746, 45.7282329 ], [ 18.9305989, 45.7285179 ], [ 18.928639, 45.7286467 ], [ 18.9270716, 45.7286563 ], [ 18.9256793, 45.7284735 ], [ 18.9203174, 45.7272138 ], [ 18.9153203, 45.7257757 ], [ 18.9136506, 45.7252332 ], [ 18.9127175, 45.7247584 ], [ 18.9118332, 45.7240988 ], [ 18.9109647, 45.7233581 ], [ 18.910245, 45.7225629 ], [ 18.9095492, 45.7213078 ], [ 18.9086343, 45.7192206 ], [ 18.9084696, 45.7186194 ], [ 18.9084872, 45.7179307 ], [ 18.9085762, 45.7173104 ], [ 18.9091045, 45.715732 ], [ 18.9100051, 45.7139777 ], [ 18.9104972, 45.7132299 ], [ 18.9119855, 45.7118252 ], [ 18.9181184, 45.7131739 ], [ 18.9243173, 45.7144968 ], [ 18.927435, 45.7152046 ], [ 18.9284981, 45.715454 ], [ 18.928887, 45.7154745 ], [ 18.9292373, 45.7154091 ], [ 18.9314425, 45.7148797 ], [ 18.9330501, 45.7145628 ], [ 18.9338599, 45.7145535 ], [ 18.9350535, 45.7145506 ], [ 18.9359928, 45.7145965 ], [ 18.9381515, 45.7147862 ], [ 18.9405756, 45.7150237 ], [ 18.9428551, 45.7155084 ], [ 18.9438741, 45.715836 ], [ 18.9443497, 45.7159358 ], [ 18.9484309, 45.7165665 ], [ 18.9508552, 45.7170289 ], [ 18.9526747, 45.7175147 ], [ 18.9534938, 45.7178123 ], [ 18.9575524, 45.7197302 ], [ 18.9587114, 45.7202486 ], [ 18.96091, 45.7211711 ], [ 18.961503, 45.721381 ], [ 18.9619733, 45.7215017 ], [ 18.9635716, 45.7214418 ], [ 18.9649035, 45.7214815 ], [ 18.9651163, 45.7216818 ], [ 18.9649823, 45.7218611 ], [ 18.9657838, 45.7219136 ], [ 18.9667244, 45.7219566 ], [ 18.9673875, 45.7219309 ], [ 18.9687774, 45.7218247 ], [ 18.9702349, 45.7216222 ], [ 18.9716563, 45.7211791 ], [ 18.9729209, 45.7205914 ], [ 18.9741166, 45.7198113 ], [ 18.9748186, 45.7191702 ], [ 18.9762588, 45.7172575 ], [ 18.9768412, 45.7164059 ], [ 18.9772836, 45.7153998 ], [ 18.9776375, 45.7136765 ], [ 18.9776972, 45.7128294 ], [ 18.9776664, 45.7120343 ], [ 18.9774125, 45.7100622 ], [ 18.9770308, 45.7083842 ], [ 18.9748812, 45.7031276 ], [ 18.9748556, 45.7029204 ], [ 18.9747754, 45.7024878 ], [ 18.9746534, 45.7018528 ], [ 18.974455, 45.7010797 ], [ 18.974205, 45.7003647 ], [ 18.9738762, 45.6996999 ], [ 18.9735178, 45.6991046 ], [ 18.972928, 45.6982764 ], [ 18.9725686, 45.6977657 ], [ 18.9722574, 45.6973724 ], [ 18.9719508, 45.697025 ], [ 18.971487, 45.6965664 ], [ 18.971052, 45.6962111 ], [ 18.9705356, 45.6959078 ], [ 18.9700446, 45.6956546 ], [ 18.9696382, 45.6954709 ], [ 18.9692541, 45.6953158 ], [ 18.9685732, 45.6951425 ], [ 18.9680856, 45.6950171 ], [ 18.9676114, 45.6949167 ], [ 18.9670395, 45.6948127 ], [ 18.9666252, 45.6947685 ], [ 18.9660109, 45.694735 ], [ 18.9655037, 45.6947357 ], [ 18.9653494, 45.6947208 ], [ 18.9645449, 45.694608 ], [ 18.962668, 45.6944007 ], [ 18.9619163, 45.694372 ], [ 18.961616, 45.6943763 ], [ 18.9610195, 45.6944093 ], [ 18.9603823, 45.6944687 ], [ 18.9600619, 45.6945038 ], [ 18.959245, 45.6946357 ], [ 18.9586232, 45.6947634 ], [ 18.958146, 45.6948681 ], [ 18.9575261, 45.6950326 ], [ 18.9571865, 45.6951471 ], [ 18.9566873, 45.6953105 ], [ 18.9563183, 45.6954306 ], [ 18.9560554, 45.6955246 ], [ 18.9554591, 45.6957694 ], [ 18.954194, 45.6964562 ], [ 18.9536764, 45.6967127 ], [ 18.9533309, 45.6968963 ], [ 18.9535062, 45.6972358 ], [ 18.9528621, 45.6985468 ], [ 18.952206, 45.6993619 ], [ 18.9514024, 45.7003602 ], [ 18.9504862, 45.7014695 ], [ 18.9498511, 45.701879 ], [ 18.9492639, 45.7022472 ], [ 18.948083, 45.7030625 ], [ 18.9467953, 45.7038416 ], [ 18.9454846, 45.7041733 ], [ 18.9441739, 45.7045049 ], [ 18.9428808, 45.704412 ], [ 18.9415877, 45.7043191 ], [ 18.9402946, 45.7042262 ], [ 18.9390015, 45.7041332 ], [ 18.9377084, 45.7040403 ], [ 18.9364153, 45.7039473 ], [ 18.9351222, 45.7038543 ], [ 18.934737, 45.7037856 ], [ 18.9343845, 45.7037503 ], [ 18.9342454, 45.7041277 ], [ 18.933867, 45.7047558 ], [ 18.9337684, 45.7048835 ], [ 18.9337233, 45.7049496 ], [ 18.93367, 45.7050084 ], [ 18.9335326, 45.7051028 ], [ 18.9332788, 45.7052277 ], [ 18.933072, 45.7052892 ], [ 18.9329806, 45.7053117 ], [ 18.9327951, 45.7053758 ], [ 18.9321767, 45.7056417 ], [ 18.9319779, 45.7057711 ], [ 18.9314095, 45.706173 ], [ 18.9311918, 45.7062666 ], [ 18.9310103, 45.7063212 ], [ 18.930824, 45.7063687 ], [ 18.9305987, 45.7064014 ], [ 18.9303932, 45.7064005 ], [ 18.9302003, 45.7063827 ], [ 18.9300162, 45.706357 ], [ 18.9296722, 45.7062974 ], [ 18.9293154, 45.7062028 ], [ 18.9285435, 45.7060115 ], [ 18.9279684, 45.7058825 ], [ 18.9272535, 45.7057371 ], [ 18.9265213, 45.7055177 ], [ 18.9262013, 45.7053884 ], [ 18.9253772, 45.7050199 ], [ 18.9251239, 45.7048812 ], [ 18.9249957, 45.7047906 ], [ 18.9249375, 45.7047889 ], [ 18.9245507, 45.7049713 ], [ 18.9240884, 45.7052436 ], [ 18.9239931, 45.7053017 ], [ 18.9236354, 45.7053686 ], [ 18.9234111, 45.7053531 ], [ 18.9229585, 45.705317 ], [ 18.9225643, 45.7052831 ], [ 18.9222215, 45.7052838 ], [ 18.9220883, 45.7053021 ], [ 18.9219202, 45.7053652 ], [ 18.9216832, 45.7054882 ], [ 18.921497, 45.7056276 ], [ 18.9213407, 45.7057812 ], [ 18.9211905, 45.7059636 ], [ 18.9209463, 45.7062852 ], [ 18.9207988, 45.7064468 ], [ 18.9207453, 45.7065051 ], [ 18.9200265, 45.7072642 ], [ 18.9193077, 45.7080233 ], [ 18.9190771, 45.7082223 ], [ 18.9189048, 45.7083366 ], [ 18.9186868, 45.7084291 ], [ 18.916309, 45.7087067 ], [ 18.9127992, 45.7081864 ], [ 18.9143524, 45.7055919 ], [ 18.9157933, 45.7036576 ], [ 18.9161066, 45.7032761 ], [ 18.9204507, 45.6985739 ], [ 18.9212969, 45.6978863 ], [ 18.9237676, 45.695047 ], [ 18.9259214, 45.6929137 ], [ 18.9271423, 45.6915079 ], [ 18.9277526, 45.6909951 ], [ 18.929319, 45.6900488 ], [ 18.928563270318559, 45.689484174375934 ], [ 18.933055827720629, 45.687662104794704 ], [ 18.9333478, 45.6881205 ], [ 18.93861, 45.6871175 ], [ 18.94396, 45.686409 ], [ 18.946687, 45.6860572 ], [ 18.9493561, 45.6855686 ], [ 18.9505829, 45.6853573 ], [ 18.9510817, 45.6851054 ], [ 18.9552079, 45.6824174 ], [ 18.9573389, 45.6807742 ], [ 18.9585112, 45.6793057 ], [ 18.9591756, 45.6777404 ], [ 18.959368209514253, 45.675699843952557 ], [ 18.959971180618783, 45.675372810074556 ], [ 18.899131934943458, 45.617978857343147 ], [ 18.903348506900393, 45.58794939182966 ], [ 18.899493169125769, 45.584887801613725 ], [ 18.8983833, 45.5822921 ], [ 18.8973068, 45.579371 ], [ 18.8971334, 45.5778745 ], [ 18.8973066, 45.5772411 ], [ 18.89749, 45.5756825 ], [ 18.8975079, 45.5744037 ], [ 18.8978124, 45.5726302 ], [ 18.898232, 45.5718573 ], [ 18.898846, 45.5710718 ], [ 18.899496, 45.5704024 ], [ 18.9001899, 45.5699323 ], [ 18.9017066, 45.5691192 ], [ 18.9033145, 45.5684489 ], [ 18.905147, 45.5679787 ], [ 18.906176039694198, 45.567812347001031 ], [ 18.9076529, 45.5675736 ], [ 18.9100313, 45.5672999 ], [ 18.9121851, 45.5671549 ], [ 18.9131739, 45.567224 ], [ 18.9142267, 45.5685621 ], [ 18.9149703, 45.5682791 ], [ 18.9181607, 45.5674772 ], [ 18.9213231, 45.5670397 ], [ 18.924039, 45.566715 ], [ 18.9263856, 45.5663494 ], [ 18.9276801, 45.5659929 ], [ 18.9289468, 45.5655104 ], [ 18.9300167, 45.5648924 ], [ 18.9309411, 45.5641699 ], [ 18.9316766, 45.5635135 ], [ 18.9320762, 45.5629669 ], [ 18.9326616, 45.5618446 ], [ 18.9330438, 45.5608124 ], [ 18.9333405, 45.5588305 ], [ 18.9334012, 45.5579535 ], [ 18.9330465, 45.5569461 ], [ 18.9320758, 45.5552851 ], [ 18.9310284, 45.5539088 ], [ 18.9302033, 45.5531782 ], [ 18.9291129, 45.5524048 ], [ 18.9281467, 45.5518468 ], [ 18.9268568, 45.5512601 ], [ 18.9233934, 45.5497699 ], [ 18.923810390700634, 45.549097612297615 ], [ 18.9272645, 45.5456911 ], [ 18.9296371, 45.5436389 ], [ 18.927201, 45.5440516 ], [ 18.926916854739517, 45.544089274774315 ], [ 18.9270698, 45.5438427 ], [ 18.9274663, 45.5432407 ], [ 18.9325924, 45.5405969 ], [ 18.9402026, 45.5366102 ], [ 18.9430884, 45.535439 ], [ 18.9462656, 45.5343159 ], [ 18.9551678, 45.5343401 ], [ 18.9595894, 45.5344228 ], [ 18.9610756, 45.5344731 ], [ 18.9647559, 45.5350189 ], [ 18.965879990569437, 45.535175792806882 ], [ 18.965879990569441, 45.535175792806882 ], [ 18.9701108, 45.5357663 ], [ 18.9731994, 45.5362609 ], [ 18.974411, 45.5363603 ], [ 18.978037, 45.5360782 ], [ 18.9822156, 45.5365948 ], [ 18.9851779, 45.5374545 ], [ 18.9886078, 45.5389771 ], [ 18.9911283, 45.5403178 ], [ 18.9919965, 45.5408784 ], [ 18.9941062, 45.5426523 ], [ 18.9951498, 45.5434703 ], [ 18.9967173, 45.5456118 ], [ 18.9984053, 45.5480293 ], [ 19.0000281, 45.5502675 ], [ 19.0011896, 45.5522166 ], [ 19.001689, 45.5530299 ], [ 19.0023256, 45.5538193 ], [ 19.0027316, 45.5545322 ], [ 19.0031553, 45.555329 ], [ 19.0036383, 45.5560897 ], [ 19.0039854, 45.556504 ], [ 19.0044528, 45.55685 ], [ 19.0051157, 45.55703 ], [ 19.0068606, 45.557263 ], [ 19.007583170330555, 45.55730893703992 ], [ 19.0088441, 45.5573891 ], [ 19.010531, 45.5575235 ], [ 19.0137353, 45.5575134 ], [ 19.0166692, 45.5575488 ], [ 19.0183529, 45.5572696 ], [ 19.0197452, 45.5568924 ], [ 19.0221087, 45.5560478 ], [ 19.0235604, 45.5554218 ], [ 19.0245995, 45.5548637 ], [ 19.0253945, 45.5542285 ], [ 19.0264107, 45.552932 ], [ 19.0266174, 45.5525122 ], [ 19.0274709, 45.5493026 ], [ 19.0280331, 45.5476655 ], [ 19.0292263, 45.5417432 ], [ 19.0299013, 45.5398993 ], [ 19.0304787, 45.5380995 ], [ 19.0308902, 45.5372084 ], [ 19.0314698, 45.5362327 ], [ 19.0318552, 45.5358181 ], [ 19.0338474, 45.5345372 ], [ 19.0348321, 45.5340641 ], [ 19.0359518, 45.5337641 ], [ 19.0372931, 45.5335893 ], [ 19.0397289, 45.5333067 ], [ 19.0421404, 45.5332452 ], [ 19.0484626, 45.5331648 ], [ 19.0532986, 45.53267 ], [ 19.0549873, 45.5325226 ], [ 19.056426864089794, 45.532421795331508 ], [ 19.0596928, 45.5321931 ], [ 19.062696, 45.5318368 ], [ 19.0665022, 45.5312924 ], [ 19.0703311, 45.5299939 ], [ 19.0730341, 45.5290292 ], [ 19.0762127, 45.5272732 ], [ 19.0831045, 45.5243456 ], [ 19.0849389, 45.5237622 ], [ 19.0861128, 45.5234001 ], [ 19.0894473, 45.5217539 ], [ 19.0906983, 45.5211919 ], [ 19.0926792, 45.5204106 ], [ 19.0940827, 45.5198969 ], [ 19.0958111, 45.5191802 ], [ 19.0968602, 45.5184433 ], [ 19.0986255, 45.5168219 ], [ 19.0992587, 45.5161177 ], [ 19.1000448, 45.5143764 ], [ 19.1008826, 45.5122492 ], [ 19.1012801, 45.5109086 ], [ 19.101393, 45.5103417 ], [ 19.1015237, 45.5096853 ], [ 19.1010168, 45.5071469 ], [ 19.1011928, 45.5052453 ], [ 19.101175995596492, 45.505010359139796 ], [ 19.1011247, 45.5042932 ], [ 19.1009301, 45.5036617 ], [ 19.1001142, 45.5019115 ], [ 19.0988473, 45.4998888 ], [ 19.0967096, 45.4972881 ], [ 19.0941115, 45.49455 ], [ 19.0917793, 45.4923751 ], [ 19.0907951, 45.491695 ], [ 19.0867525, 45.4891559 ], [ 19.0857314, 45.4887067 ], [ 19.0842297, 45.4882696 ], [ 19.0824832, 45.4878377 ], [ 19.0812162, 45.4877623 ], [ 19.0797052, 45.4876572 ], [ 19.0768045, 45.4875425 ], [ 19.0734649, 45.4874223 ], [ 19.0709242, 45.4868998 ], [ 19.06903, 45.4871498 ], [ 19.0676122, 45.4872581 ], [ 19.065585, 45.4872723 ], [ 19.0625699, 45.4872197 ], [ 19.0612009, 45.4871268 ], [ 19.0580349, 45.4865496 ], [ 19.0561066, 45.4860802 ], [ 19.055089903647758, 45.485776732618326 ], [ 19.0545303, 45.4856097 ], [ 19.0531342, 45.4852978 ], [ 19.0515017, 45.4850698 ], [ 19.0497187, 45.48486 ], [ 19.0473349, 45.4849149 ], [ 19.0435973, 45.485121 ], [ 19.0403372, 45.4854661 ], [ 19.0392711, 45.4856391 ], [ 19.0339568, 45.4868266 ], [ 19.0300504, 45.4879768 ], [ 19.0267214, 45.4891877 ], [ 19.0249048, 45.4901315 ], [ 19.0216591, 45.4918748 ], [ 19.0183739, 45.4938221 ], [ 19.0163069, 45.4946868 ], [ 19.0132464, 45.4958022 ], [ 19.01166290813369, 45.496105309120459 ], [ 19.011662908133687, 45.496105309120459 ], [ 19.0115428, 45.4961283 ], [ 19.0095503, 45.4964163 ], [ 19.0059695, 45.4971542 ], [ 19.004005, 45.4964886 ], [ 19.0028668, 45.4958334 ], [ 19.0015118, 45.4948709 ], [ 19.0001702, 45.4938246 ], [ 18.9991548, 45.4928807 ], [ 18.9985671, 45.4922034 ], [ 18.9973482, 45.4904029 ], [ 18.9935598, 45.484421 ], [ 18.9927119, 45.4826889 ], [ 18.9920998, 45.4807922 ], [ 18.9917883, 45.4795713 ], [ 18.991637568509791, 45.478561486143619 ], [ 18.932954314923428, 45.46881012600312 ], [ 18.924156191405547, 45.47464768740624 ], [ 18.918904234222225, 45.477165043330615 ], [ 18.882905273492213, 45.467852203579 ], [ 18.879614497549014, 45.463981624394521 ], [ 18.814872324878323, 45.435270239930929 ], [ 18.814251834958817, 45.409997630861625 ], [ 18.792234176071524, 45.400631576189383 ], [ 18.76687742284993, 45.401589363747334 ], [ 18.740923774497027, 45.44244348299847 ], [ 18.727620235112873, 45.389017435197388 ], [ 18.726880542253447, 45.388281844910452 ], [ 18.703392939376247, 45.39691580487542 ], [ 18.674999048969372, 45.408496638573759 ], [ 18.66817920789342, 45.404328380072116 ], [ 18.658721473861739, 45.37367097299294 ], [ 18.649655274698969, 45.342936818798172 ], [ 18.630748061806116, 45.33615610796226 ], [ 18.615761118554836, 45.340180274148253 ], [ 18.592251432399962, 45.328317745189061 ], [ 18.57563615086838, 45.298331131866931 ], [ 18.559329725169526, 45.295520967336643 ], [ 18.555026100333858, 45.295211102816992 ], [ 18.53049558804635, 45.299839718489089 ], [ 18.521709170834093, 45.237896805855762 ], [ 18.534656251568066, 45.215134423825617 ], [ 18.455914903030681, 45.189148411271532 ], [ 18.454814000777574, 45.188163791013899 ], [ 18.437241175155869, 45.188499698713684 ], [ 18.42442204718628, 45.209392967848693 ], [ 18.400248714165784, 45.232989498826839 ], [ 18.37959038729376, 45.228771165939747 ], [ 18.3733392340088, 45.237741956393286 ], [ 18.330340499409747, 45.234861392672506 ], [ 18.312340310830738, 45.220056620687309 ], [ 18.290525878679244, 45.226786630761389 ], [ 18.281684783834113, 45.226554952875702 ], [ 18.273394899293475, 45.221732679730266 ], [ 18.256382299896735, 45.22809781741158 ], [ 18.198357689307183, 45.217896522073467 ], [ 18.190092931540864, 45.223865886431028 ], [ 18.186538254139393, 45.22389340371231 ], [ 18.15071489160114, 45.255742178176121 ], [ 18.139610847056698, 45.253503283976485 ], [ 18.093782696284034, 45.265770447893033 ], [ 18.093968592271068, 45.269507313848955 ], [ 18.116511558697553, 45.301800244204181 ], [ 18.118995426103822, 45.316743633672871 ], [ 18.094320733467494, 45.335818651187608 ], [ 18.121574262403346, 45.370180396430023 ], [ 18.102800021477336, 45.381362230310764 ], [ 18.085604710807981, 45.411503447609057 ], [ 18.07483243497148, 45.405444337754474 ], [ 18.030635301356323, 45.408516717730471 ] ] ] } }
]
}
